{"type":"FeatureCollection","features":[{"type":"Feature","properties":{"id":397452251,"highway":"unclassified"},"geometry":{"type":"LineString","coordinates":[[85.716724,19.8064245],[85.7167531,19.8061944],[85.7167775,19.8060021],[85.7168149,19.8058124],[85.7168631,19.8056126],[85.7174567,19.8034926],[85.7177196,19.8026551],[85.7179,19.8018277],[85.7179183,19.8017082],[85.7179324,19.801581],[85.7179486,19.8012445],[85.7179533,19.801184],[85.7179781,19.800871],[85.7179999,19.8007464],[85.7180279,19.8006313],[85.7180758,19.8005415],[85.718512,19.7999373],[85.7186017,19.7997453],[85.7187194,19.7994523],[85.7189086,19.7990098],[85.7189169,19.7989708],[85.7189189,19.7989404],[85.7189101,19.7989084],[85.7188858,19.7988772],[85.7186739,19.7987134],[85.7186247,19.7986628],[85.7185795,19.7986082],[85.7185383,19.7985428],[85.7181294,19.797682],[85.7180667,19.7975431],[85.7180203,19.7974108],[85.7179752,19.7972544],[85.7179348,19.7971041],[85.7178989,19.7970329],[85.7178553,19.7969727],[85.7177744,19.796877],[85.7175772,19.7966721],[85.7175277,19.7966284],[85.7174711,19.7965946],[85.7173872,19.7965589],[85.7171398,19.7964661],[85.7171004,19.7964431],[85.7170708,19.7964138],[85.7170557,19.7963808],[85.7170476,19.7963466],[85.7170431,19.7962674],[85.717085,19.7959131],[85.7170733,19.7957607],[85.7170456,19.7956588],[85.7169407,19.7954112],[85.7169404,19.7953622],[85.7169611,19.7953193],[85.7169957,19.795285],[85.7174497,19.7949303],[85.717881,19.7945481],[85.7185204,19.7940078],[85.7186437,19.7938855],[85.7186894,19.7938244],[85.7187156,19.7937699],[85.7187205,19.7937186],[85.7187106,19.7936663],[85.718644,19.7934058],[85.7186432,19.7933542],[85.7186558,19.7933058],[85.7186787,19.7932653],[85.7187256,19.7932276],[85.7189554,19.7931465],[85.7190737,19.7931044],[85.7191342,19.7930725],[85.7191995,19.7930211],[85.7195546,19.7926377],[85.7196525,19.7925176],[85.7197079,19.7924258],[85.7197417,19.7923398],[85.7198485,19.7919236],[85.7199072,19.7916872],[85.7199306,19.791504],[85.7199369,19.7904308],[85.7199502,19.7903463],[85.7199831,19.7902747],[85.7200058,19.7902383],[85.7200476,19.7901882],[85.7201798,19.7901095],[85.7202605,19.7900432],[85.7203148,19.7899848],[85.7203603,19.7899079],[85.720606,19.789225],[85.7206549,19.7889335],[85.7206712,19.7886377],[85.7206804,19.7880811],[85.7206009,19.7875102],[85.7204748,19.7868601],[85.7204829,19.7862977],[85.7204482,19.7860235],[85.7203993,19.7858059],[85.7203107,19.7855157],[85.7202114,19.7853221],[85.7200099,19.7849816],[85.7199215,19.7848144],[85.7198485,19.7845975],[85.71982,19.7844615],[85.7198109,19.7843488],[85.7198802,19.7835566],[85.7198857,19.7833372],[85.7198314,19.7828284]]}},{"type":"Feature","properties":{"id":867026780,"highway":"residential"},"geometry":{"type":"LineString","coordinates":[[85.7086649,19.8003409],[85.7088441,19.7998268],[85.7088685,19.7997885],[85.7089091,19.7997446],[85.7089721,19.7996948],[85.7091835,19.7995648],[85.7092262,19.7995476],[85.7092791,19.7995342],[85.70971,19.7994883],[85.7101592,19.7994079],[85.7105414,19.7993238],[85.7106308,19.7993104],[85.7109866,19.799276]]}},{"type":"Feature","properties":{"id":867639474,"highway":"unclassified"},"geometry":{"type":"LineString","coordinates":[[85.7768126,19.8035736],[85.7769822,19.8029687],[85.7771107,19.802038],[85.7772511,19.800845],[85.7772986,19.8004127],[85.7773868,19.7993973],[85.7775121,19.7974218],[85.7775297,19.7971438],[85.7776332,19.7953225],[85.7776405,19.7951027],[85.7776932,19.7946704],[85.7777376,19.7929932],[85.777929,19.7899419],[85.7782365,19.786614]]}},{"type":"Feature","properties":{"id":867655069,"highway":"residential"},"geometry":{"type":"LineString","coordinates":[[85.7793413,19.8026765],[85.7794057,19.8017049],[85.7794593,19.801127],[85.7794915,19.8008368],[85.7795398,19.8002387],[85.7795746,19.7995825],[85.7795862,19.7995493],[85.7796045,19.7995358],[85.7796216,19.799529],[85.7796838,19.7995214]]}},{"type":"Feature","properties":{"id":868576384,"highway":"residential"},"geometry":{"type":"LineString","coordinates":[[85.7964511,19.796276],[85.7963987,19.7965485],[85.7963772,19.7966963],[85.7963618,19.796879],[85.7963525,19.7971254],[85.7963463,19.7972413],[85.7963186,19.7974269],[85.7962693,19.7978298],[85.7962454,19.7980969],[85.7962416,19.79814],[85.7962508,19.7981777],[85.7962693,19.7982067],[85.7963001,19.7982183],[85.7967931,19.7982618],[85.7977113,19.7983168],[85.7977544,19.7983226],[85.7977779,19.7983349],[85.7977821,19.7983371],[85.7977944,19.7983632],[85.7978068,19.7986299],[85.797816,19.7991836],[85.7978006,19.7999808],[85.7978129,19.8000301],[85.7978436,19.8000676],[85.7978807,19.8000881],[85.7989344,19.8000591],[85.7994859,19.8000388],[85.7996862,19.8000185],[85.7998888,19.7999866],[85.8002747,19.7999257],[85.801048,19.7998127],[85.8010942,19.7998127],[85.8011281,19.7998243],[85.8011559,19.7998533],[85.8013253,19.800433],[85.8013531,19.8005026],[85.8013871,19.8005754],[85.8015009,19.8008012],[85.8015194,19.800831],[85.8015872,19.8009403],[85.8017156,19.8010914],[85.801809,19.8012012],[85.8020925,19.8014679],[85.8023235,19.8016799],[85.8024622,19.8018071],[85.8025723,19.8018966],[85.8027796,19.8020651],[85.8029583,19.8022245],[85.8030723,19.8023724],[85.8031616,19.8025347],[85.8032017,19.8026565],[85.803251,19.8027492],[85.8033342,19.8028507],[85.8033619,19.8029232],[85.8033619,19.8030246],[85.8033228,19.8032577]]}},{"type":"Feature","properties":{"id":868629294,"highway":"residential"},"geometry":{"type":"LineString","coordinates":[[85.7918491,19.8040041],[85.7918148,19.8039063],[85.7917377,19.8036866],[85.7916039,19.8033222],[85.791523,19.8030671],[85.7913962,19.8026862],[85.7913716,19.8025272],[85.791368,19.8023582],[85.7914068,19.8019342],[85.7914772,19.8014804],[85.7914983,19.8011955],[85.7914948,19.8008542],[85.791523,19.8005594],[85.7915934,19.7999863],[85.7916884,19.7992741],[85.7917307,19.79886],[85.7917624,19.7985254],[85.7917518,19.7983299],[85.791706,19.7980616],[85.7916724,19.7979096],[85.791635,19.7978192],[85.7916244,19.7977766],[85.791619,19.7977063],[85.7916244,19.7976109],[85.791635,19.7975857],[85.7916564,19.7975707],[85.7916831,19.7975682],[85.7918165,19.7975782],[85.7918538,19.7975782],[85.7918746,19.7975724],[85.7918805,19.7975707],[85.7918939,19.7975456],[85.7919773,19.7968594],[85.7920581,19.7961469]]}}]}