{"type":"FeatureCollection","features":[{"type":"Feature","properties":{"id":864997565,"highway":"residential"},"geometry":{"type":"LineString","coordinates":[[85.6113546,19.802773],[85.6115378,19.8025765],[85.6116919,19.8024403],[85.6118298,19.8023278],[85.6118942,19.802265],[85.6119402,19.8022044],[85.6119885,19.8021179],[85.6120552,19.8019838],[85.6120857,19.8019326],[85.6121297,19.8018667],[85.6122018,19.8017424],[85.6122198,19.801701],[85.6122238,19.8016558],[85.6122118,19.8016106],[85.6121757,19.8015202],[85.6121677,19.8014825],[85.6121677,19.8014373],[85.6121757,19.8013771],[85.6121958,19.8012791],[85.6122618,19.8010814],[85.6123559,19.8008742],[85.6124139,19.8007104],[85.6124279,19.8006765],[85.612448,19.8006501],[85.612476,19.800635],[85.612514,19.8006294],[85.6125641,19.8006294],[85.6126291,19.800639],[85.612674,19.800639],[85.6127136,19.800634],[85.6127533,19.8006141],[85.6128114,19.8005669],[85.6128853,19.8004625],[85.6129487,19.8003184],[85.6131283,19.7999258],[85.6131574,19.7998438],[85.6131706,19.7997841],[85.6131653,19.7997394],[85.6131494,19.7996996],[85.6131072,19.7996599],[85.6127348,19.7994064],[85.6123412,19.7992076],[85.6115594,19.7987901],[85.611121,19.7985391],[85.6110867,19.7985068],[85.6110629,19.7984645],[85.6110629,19.7984173],[85.6110735,19.7983552],[85.6112002,19.7980148],[85.6114617,19.7973661],[85.6116228,19.7969437],[85.6116968,19.7967324],[85.6117311,19.7965908],[85.6117787,19.7963721],[85.6118156,19.7962131],[85.6118575,19.7960667],[85.6118765,19.7960187],[85.6119581,19.7958376],[85.6119858,19.7957786],[85.6120018,19.7957416],[85.6120135,19.7956881],[85.6120543,19.7953877],[85.6120543,19.7953671],[85.612047,19.7953534],[85.6120324,19.7953424],[85.6119756,19.7953218],[85.6116651,19.795234],[85.6116388,19.7952217],[85.6116286,19.7952093],[85.6116213,19.7951874],[85.6116228,19.7951668],[85.6117569,19.7949309],[85.6117613,19.7949144],[85.611754,19.7948979],[85.6117365,19.7948842],[85.6115368,19.794758],[85.6115127,19.7947381],[85.6114781,19.794705]]}},{"type":"Feature","properties":{"id":865198444,"highway":"residential"},"geometry":{"type":"LineString","coordinates":[[85.6265252,19.7991488],[85.626446,19.7988763],[85.6263565,19.7985665],[85.6262407,19.7981878],[85.6261898,19.798073],[85.6260821,19.7978933],[85.6259683,19.7977269],[85.6258016,19.7975337],[85.6255963,19.7973577],[85.6252975,19.7971493],[85.624706,19.79687],[85.6242669,19.7967285],[85.6241185,19.7967017],[85.6239701,19.7966998],[85.6238746,19.7966807],[85.6235412,19.7966023],[85.6229415,19.7965372],[85.6224903,19.7964588],[85.6220553,19.7964129],[85.6217239,19.7964091],[85.6216853,19.7964206],[85.6216629,19.7964339],[85.6216433,19.7964587],[85.6209279,19.7974691],[85.6205738,19.7982212],[85.6202616,19.7986912],[85.620214,19.7987264],[85.6201501,19.7987462],[85.6199677,19.7987664],[85.6199174,19.7987809],[85.6198753,19.7987991],[85.6197716,19.7988631],[85.6197371,19.7988926],[85.6196612,19.7989704],[85.6192045,19.7995187],[85.6191723,19.7995429],[85.6191361,19.7995595],[85.6189742,19.7996079],[85.618943,19.7996322],[85.6189287,19.7996633],[85.6188981,19.7998588],[85.6188788,19.7998971],[85.6188602,19.7999198],[85.6188396,19.7999329],[85.6185989,19.8000127],[85.6185784,19.8000334],[85.6185738,19.8000624],[85.6186584,19.8003973],[85.6187501,19.8006896],[85.6188087,19.8008859],[85.6188144,19.8009369],[85.6188037,19.8010401],[85.618793,19.8010782],[85.6186314,19.8014535],[85.618604,19.8014922],[85.6185076,19.8016082],[85.6178395,19.8023756],[85.6178323,19.8024077],[85.6178347,19.8024389],[85.6178449,19.8024827],[85.6181547,19.80285],[85.6182727,19.8029711],[85.6183156,19.8030014],[85.6183263,19.8030064],[85.6183907,19.8030519],[85.6184068,19.803067],[85.6184856,19.8031608]]}},{"type":"Feature","properties":{"id":866157368,"highway":"unclassified"},"geometry":{"type":"LineString","coordinates":[[85.7019937,19.8018102],[85.7020386,19.8015378],[85.7020439,19.8014396],[85.7020422,19.801338],[85.7020298,19.8012315],[85.7020032,19.8010766],[85.7019537,19.8008835],[85.7019395,19.8008102],[85.7019183,19.8005505],[85.7018988,19.8003823],[85.7018829,19.8003191],[85.7018581,19.8002658],[85.7018086,19.8001792],[85.7016051,19.7998795],[85.7015644,19.7998162],[85.7015431,19.799763],[85.7015184,19.7996647],[85.7014794,19.7995182],[85.7014157,19.7993584],[85.7012667,19.7990227],[85.7012097,19.798885],[85.7011866,19.7988473],[85.7011188,19.7987748],[85.7008107,19.7984907],[85.7004425,19.7981385],[85.7002869,19.7979559],[85.7002623,19.7979051],[85.7002561,19.7978762],[85.7002592,19.7978472],[85.7002669,19.7978225],[85.7002854,19.7977906],[85.7003485,19.797724],[85.7005349,19.7975471],[85.7005596,19.7975123],[85.7005811,19.7974718],[85.7005935,19.7974399],[85.7006023,19.7973854],[85.7006234,19.7970405],[85.7006882,19.7964096],[85.7006954,19.7962935],[85.7006883,19.7962246],[85.7006659,19.7961648],[85.7005569,19.7959466],[85.7005102,19.7958739],[85.7004614,19.7958165],[85.7002439,19.7956061],[85.6998963,19.7952753],[85.6996666,19.7950572],[85.6996016,19.7949673],[85.6995731,19.7949157],[85.6995528,19.7948679],[85.699445,19.7945102],[85.6994146,19.7943362],[85.6994024,19.7942195],[85.6993983,19.79412],[85.6994064,19.7938446],[85.699443,19.7935003],[85.6994715,19.7933339],[85.6995081,19.7931981],[85.6995812,19.7929858],[85.6996369,19.7928484],[85.6996761,19.7927503],[85.6996971,19.7926634],[85.6996991,19.7925631],[85.6996991,19.7924082],[85.699691,19.7922552],[85.6996646,19.7920601],[85.6996235,19.7918893],[85.6995742,19.7917414],[85.6994941,19.7915472],[85.6993586,19.7912892],[85.6992252,19.7910937],[85.6981139,19.7896651],[85.6977139,19.7891988],[85.697629,19.7891389],[85.6975547,19.7891089],[85.6974874,19.7890989],[85.6973919,19.7891056],[85.6971158,19.7891622],[85.6969742,19.7891755],[85.6968327,19.7891655],[85.6966805,19.7891456],[85.696277,19.7890956],[85.695955,19.7890623],[85.6952294,19.7890323],[85.6948826,19.7890223],[85.6947481,19.7890223],[85.6939872,19.7891622],[85.6932722,19.7893054],[85.6929643,19.7893454],[85.6926246,19.7893387],[85.6923945,19.7893087],[85.6921609,19.7892621],[85.691945,19.7891922],[85.6917008,19.7890756],[85.6915719,19.7890001],[85.6913702,19.788882],[85.6911897,19.7887621],[85.6909809,19.7885556],[85.6907756,19.7883158],[85.6905845,19.7880361],[85.6904181,19.787753],[85.6903615,19.7876365],[85.6901916,19.7872102],[85.6900356,19.7867519]]}},{"type":"Feature","properties":{"id":866594931,"highway":"residential"},"geometry":{"type":"LineString","coordinates":[[85.6575067,19.8005846],[85.6574389,19.8002541],[85.657365,19.7998454],[85.6572695,19.7993236],[85.6572633,19.7992511],[85.6572726,19.7992076],[85.6573034,19.7991757],[85.6573373,19.7991409],[85.6573527,19.7991033],[85.6573558,19.7990453],[85.6573404,19.7988107]]}},{"type":"Feature","properties":{"id":866598001,"highway":"residential"},"geometry":{"type":"LineString","coordinates":[[85.6672535,19.8001096],[85.6677981,19.7999283],[85.6678682,19.7998975],[85.6679102,19.7998668],[85.66796,19.7998117]]}},{"type":"Feature","properties":{"id":866882993,"highway":"trunk"},"geometry":{"type":"LineString","coordinates":[[85.7032345,19.802193],[85.7019937,19.8018102],[85.7017915,19.8017408],[85.7015364,19.8016701],[85.7012697,19.8016511],[85.6998885,19.8015578],[85.6990494,19.8015182],[85.6987891,19.8015072],[85.698318,19.8015068],[85.6978826,19.8015117],[85.6974445,19.8015088],[85.6970624,19.8015061],[85.6967406,19.8014765],[85.696349,19.8013949],[85.6956868,19.8011602],[85.6949397,19.8009],[85.694834,19.8008483],[85.6942752,19.8006022],[85.6934092,19.8001714],[85.6929356,19.7998323],[85.6926486,19.7996658],[85.6922704,19.799479],[85.6917901,19.7992467],[85.6912824,19.7989824],[85.691011,19.7988411],[85.690715,19.798648],[85.6906265,19.7985903],[85.6902421,19.7983313],[85.6900429,19.7981779],[85.689902,19.7981074],[85.6896811,19.7980526],[85.6888814,19.7979281],[85.6871808,19.7976803],[85.6864005,19.7975529],[85.6863341,19.7975404],[85.6861162,19.7974995],[85.6860547,19.797488],[85.6858244,19.7974545],[85.6854149,19.7973948],[85.6846326,19.7972946],[85.6841996,19.7972405],[85.6835421,19.7971611],[85.6829223,19.7970816],[85.6828569,19.7970732],[85.6825462,19.7970334],[85.6820175,19.7970634],[85.6818481,19.7970782],[85.681353,19.7971215],[85.6795516,19.7973675],[85.6794499,19.7973889],[85.6784491,19.7976414],[85.6783756,19.7976601],[85.6774807,19.7978639],[85.6768262,19.7979446],[85.6762683,19.7979673],[85.6756273,19.7979446],[85.6751418,19.7979976],[85.6748334,19.7980607],[85.6745587,19.7981651],[85.6742379,19.7983181],[85.6741454,19.7983599],[85.6740528,19.7983863],[85.6738183,19.7984083],[85.6736444,19.7984145],[85.673163,19.7984315],[85.6728988,19.7984158],[85.6724479,19.7983375],[85.6722273,19.7982832],[85.6719289,19.7982204],[85.6715311,19.7981398],[85.6709477,19.7981392],[85.670222,19.798153],[85.6697867,19.7981886],[85.6693801,19.7982718],[85.6689371,19.7983584],[85.6687153,19.7984178],[85.6686764,19.7984366],[85.6683925,19.7985739],[85.6683747,19.7985817],[85.6677923,19.7988617],[85.6670895,19.7991597],[85.6668073,19.7992661],[85.6665363,19.7993435],[85.6660848,19.7994518],[85.6659312,19.7994544],[85.6658598,19.7994556],[85.6655672,19.7994174],[85.6650019,19.7991766],[85.6648563,19.7991105],[85.6645164,19.7989331],[85.6641264,19.7987865],[85.6639125,19.7987342],[85.6636864,19.7987167],[85.6633332,19.7987698],[85.6628815,19.7988849],[85.6625768,19.7989758],[85.6624714,19.7990019],[85.6621421,19.7990821],[85.6615957,19.7991839],[85.6610306,19.7992338],[85.6600394,19.7991758],[85.6598783,19.7991594],[85.6594611,19.7991329],[85.6592667,19.7990932],[85.6587797,19.7989938],[85.6583428,19.7989046],[85.6579567,19.7988321],[85.6576112,19.7988145],[85.6573404,19.7988107],[85.6568391,19.7988036],[85.6563601,19.7987922],[85.6558594,19.7988065],[85.6556358,19.7987946],[85.6553762,19.7987807],[85.6552688,19.7987633],[85.6549981,19.7987194],[85.6545017,19.7985533],[85.6541869,19.798465],[85.6540846,19.7984363],[85.6537757,19.7983306],[85.6528128,19.7980011],[85.6521913,19.7978818],[85.6511189,19.7978684],[85.6509986,19.797865],[85.6509288,19.7978631],[85.6508224,19.7978508],[85.6503449,19.7977954],[85.649948,19.7977326],[85.6495509,19.7976127],[85.6492142,19.7974784],[85.648765,19.7972777],[85.6486963,19.797258],[85.6486602,19.7972476],[85.6485226,19.7972372],[85.6484253,19.7972393],[85.648338,19.7972633],[85.6480618,19.7974076],[85.6477453,19.7976029],[85.6475229,19.7977323],[85.6464797,19.7983114],[85.6461367,19.7984434],[85.6460179,19.7984621],[85.6459301,19.7984547],[85.6455742,19.7984014],[85.6451515,19.7982751],[85.6446349,19.7980948],[85.6440845,19.7979002],[85.643711,19.7977988],[85.6432295,19.7977018],[85.6430673,19.7976672],[85.6428309,19.7976168],[85.6420646,19.7974374],[85.6410646,19.7971864],[85.639945,19.7968938],[85.6397819,19.7968512],[85.6392839,19.7967182],[85.6391544,19.7966667],[85.6386408,19.7964624],[85.6377046,19.7959846],[85.6369201,19.7955652],[85.6363599,19.7952658],[85.6362117,19.7951988],[85.6353417,19.7948053],[85.635128,19.7946944],[85.6343791,19.7942523],[85.6331713,19.7934462],[85.6329842,19.7933506],[85.6327809,19.7932703],[85.6325594,19.7932008],[85.6323755,19.7931477],[85.6319296,19.7930239],[85.6314378,19.7928695],[85.6311559,19.7927866],[85.6308386,19.792712],[85.6307219,19.7926933],[85.6304179,19.7926445],[85.6301088,19.7925866],[85.6299121,19.7925514],[85.6296083,19.7924722],[85.6289742,19.7922054],[85.6280678,19.791751],[85.6272114,19.7913962],[85.6262715,19.7910052],[85.6259468,19.7908702],[85.6247667,19.7904021],[85.6245276,19.7903072],[85.6244484,19.7902815],[85.6243383,19.7902588],[85.6240647,19.790223],[85.623106,19.7900587],[85.6230093,19.7900455],[85.622526,19.7899795],[85.6223539,19.789956],[85.6221019,19.7899226],[85.6214634,19.7898381],[85.6205831,19.7897257],[85.6205187,19.7897171],[85.6195073,19.7895828],[85.6191331,19.7895327],[85.6190233,19.7895022],[85.6189381,19.7894724],[85.6188207,19.789407],[85.6183861,19.7891147],[85.6182361,19.7890131],[85.6180359,19.7888925],[85.617672,19.7887233],[85.6163005,19.788237],[85.6160333,19.7881472],[85.6156379,19.7880094],[85.615149,19.7878178],[85.615042,19.7877768],[85.6149674,19.7877482],[85.6146024,19.7876083],[85.6143094,19.7874938],[85.6139921,19.7873752],[85.6131084,19.7871188],[85.6126433,19.786967],[85.6118152,19.7866731],[85.6110557,19.7863584],[85.6105282,19.7861513],[85.6103321,19.7860772],[85.610156,19.7860015],[85.6097264,19.7857317],[85.6091194,19.785273],[85.6086014,19.7848093],[85.6082986,19.7845382],[85.607706,19.7839942],[85.6074661,19.7837646],[85.6068264,19.7832018],[85.606767,19.7831517],[85.6063254,19.7827795],[85.6058345,19.7822691],[85.6055224,19.781888],[85.6051238,19.7814011],[85.6049699,19.781188],[85.6044973,19.7805336],[85.6041469,19.7800079],[85.6039823,19.7797729],[85.6036514,19.7793003],[85.6035491,19.7791763],[85.6034689,19.779079],[85.6029278,19.7782524],[85.6022649,19.7771851],[85.6017227,19.7762022],[85.601615,19.7758286],[85.6015637,19.7755841],[85.6015534,19.7755025],[85.601529,19.7753102],[85.6015079,19.7748863],[85.6014951,19.7746494],[85.6014709,19.7744197],[85.6013757,19.774084],[85.6011651,19.7735086],[85.6009063,19.7728447],[85.6007749,19.7725418],[85.6006032,19.7721355],[85.6003243,19.7716597],[85.6000788,19.7712949],[85.5997798,19.7707131],[85.5995424,19.7701124],[85.5993801,19.7696846],[85.5993233,19.7694958],[85.5993292,19.7694195],[85.5993524,19.7693059],[85.5993666,19.769187],[85.599364,19.7690031],[85.5993386,19.7688604],[85.5992629,19.7686912],[85.5991549,19.7685238],[85.5991049,19.7684463],[85.5986834,19.7678695],[85.598212,19.7672569],[85.5979976,19.766976],[85.5977735,19.7666783],[85.5976396,19.7664495],[85.5971746,19.7656557],[85.5968867,19.7650331],[85.5966958,19.7643878],[85.5964987,19.7639328],[85.5962675,19.7635463],[85.5957419,19.7627915],[85.5952903,19.7622308],[85.5945498,19.7612981],[85.5937209,19.7602601],[85.593079,19.7594419],[85.5928527,19.7591533],[85.5919638,19.7580833],[85.5914059,19.7575683],[85.5902204,19.7565157],[85.5896223,19.7560462]]}},{"type":"Feature","properties":{"id":866888749,"highway":"residential"},"geometry":{"type":"LineString","coordinates":[[85.6985404,19.8000161],[85.6984263,19.7998001],[85.6983593,19.7996664],[85.6983378,19.7995907],[85.6983378,19.7995175],[85.6983673,19.7993635],[85.6983914,19.7992298],[85.6983995,19.7991314],[85.6983861,19.7990632],[85.6983083,19.7987907],[85.6982895,19.7987074],[85.6982868,19.7986115],[85.6983244,19.79845],[85.6984075,19.7982481],[85.6985014,19.7980967],[85.6985819,19.7980083],[85.6986731,19.7979553],[85.698767,19.7979326],[85.6989118,19.7979427],[85.6991183,19.7979705],[85.6992551,19.7979932],[85.6993839,19.7980285],[85.6995904,19.7981068],[85.6996386,19.7981156],[85.6996937,19.7981181],[85.6997439,19.7981138],[85.6998002,19.7981012],[85.6998847,19.7980671],[85.7000818,19.7979611],[85.7001355,19.7979333],[85.7001784,19.7979169],[85.7002163,19.7979091],[85.7002623,19.7979051]]}},{"type":"Feature","properties":{"id":866888751,"highway":"residential"},"geometry":{"type":"LineString","coordinates":[[85.6949049,19.7996638],[85.6948988,19.7998092],[85.6949029,19.799836],[85.694915,19.7998647],[85.6949699,19.7999086],[85.6950228,19.7999507],[85.6950533,19.7999928],[85.6950614,19.8000387],[85.6950594,19.8000846],[85.6950482,19.8001375]]}},{"type":"Feature","properties":{"id":1219935907,"highway":"residential"},"geometry":{"type":"LineString","coordinates":[[85.6267671,19.7990647],[85.6267681,19.799173],[85.6267718,19.7994497],[85.6267032,19.800169]]}}]}