{"type":"FeatureCollection","features":[{"type":"Feature","properties":{"id":867187915,"highway":"unclassified"},"geometry":{"type":"LineString","coordinates":[[85.5808085,19.8055558],[85.5801399,19.8054431],[85.5791171,19.8052274],[85.5782547,19.8051276],[85.577428,19.8050648],[85.576998,19.8050384],[85.5767418,19.8050434],[85.5764981,19.8050265],[85.5762703,19.8049851],[85.5760325,19.8048979],[85.5758455,19.804784],[85.5750033,19.8041822],[85.5748028,19.8040243],[85.5746663,19.8038567],[85.5745986,19.803723],[85.574531,19.8035411],[85.5744356,19.8033043],[85.574322,19.8030724],[85.5741499,19.8028024],[85.5739045,19.8024908],[85.5736041,19.8021837],[85.573356,19.8020205],[85.5715575,19.8012205],[85.5713041,19.8011194],[85.5712625,19.8010815],[85.5712639,19.8010209],[85.5713926,19.8004827],[85.571453,19.8002323],[85.5714845,19.8001065],[85.5715142,19.7997118],[85.5715528,19.799232],[85.5715797,19.7987078],[85.5716402,19.7978867],[85.5716752,19.7977429],[85.5717448,19.7976189],[85.5717972,19.7975635],[85.5719397,19.7974833],[85.5722879,19.7973505],[85.5724163,19.797293],[85.5725001,19.7972356],[85.5725583,19.7971391],[85.5727931,19.7966442],[85.5733123,19.7956308],[85.5741581,19.7938174],[85.5743724,19.7934258],[85.574563,19.7930789],[85.5747159,19.7929426],[85.5752588,19.7925842],[85.5755311,19.792352],[85.5757918,19.7920993],[85.5760329,19.7917958],[85.5762143,19.7915195],[85.5763346,19.7912345],[85.576411,19.7910145],[85.5764271,19.7908492],[85.5764097,19.7905047],[85.5763446,19.7900346],[85.5763212,19.7896617],[85.5763338,19.7883152],[85.5763721,19.7880503],[85.5763534,19.787895],[85.5763225,19.7877865],[85.5762257,19.7876],[85.5761612,19.7873846],[85.5759577,19.7867059],[85.575907,19.7864762],[85.5758817,19.7863053],[85.5758938,19.786107],[85.5759231,19.7858887],[85.5759694,19.7855426],[85.5760486,19.7850258],[85.5760448,19.7848363],[85.5760074,19.7847045],[85.5759543,19.7846012],[85.5758942,19.7845414],[85.57587,19.7845174],[85.5757463,19.7843953],[85.5756587,19.7842683],[85.5756064,19.784138],[85.575567,19.7840012],[85.5755604,19.7838831],[85.5755758,19.7837724],[85.5755831,19.7836637],[85.5755568,19.7835882],[85.5754618,19.7834443],[85.575431,19.7833328],[85.5754457,19.783238],[85.5754995,19.7831103],[85.5756931,19.7827413],[85.5758486,19.7823383],[85.5759151,19.7819822],[85.5759296,19.7817531],[85.5759203,19.7816017],[85.5758838,19.7813956],[85.5757861,19.7810301],[85.5757244,19.7808799],[85.5756654,19.7807297],[85.575664,19.7806401],[85.5756815,19.7805493],[85.575774,19.7803108],[85.5758471,19.7801],[85.5758572,19.780052],[85.5758444,19.7800186],[85.5757633,19.7799183],[85.5756259,19.7796528],[85.5755605,19.7795564],[85.5754709,19.7795045],[85.575314,19.7794612],[85.57505,19.7793883],[85.5749473,19.7793182],[85.5748594,19.7792218],[85.5747956,19.7791252],[85.5745031,19.7785194]]}},{"type":"Feature","properties":{"id":867687857,"highway":"residential"},"geometry":{"type":"LineString","coordinates":[[85.5883205,19.8015857],[85.5884491,19.8008906],[85.5884752,19.8007985],[85.5885144,19.8006941],[85.5885731,19.8005897],[85.5887624,19.8003686],[85.5888407,19.8002581],[85.5888734,19.8001599],[85.5888995,19.8000432],[85.5889125,19.7999449],[85.5888995,19.799816],[85.5888799,19.79973],[85.5888603,19.7996318],[85.5888355,19.799448],[85.588958,19.7959805],[85.5889518,19.7956424],[85.5888821,19.7954204],[85.5887909,19.7952592],[85.588174,19.7941686],[85.5880828,19.7939768],[85.5879808,19.7937345],[85.5878682,19.7934368],[85.587777,19.7931642],[85.5877341,19.7929775],[85.5876751,19.7923718],[85.5875946,19.7916299],[85.5875302,19.7911655],[85.587321,19.7904034],[85.587203,19.7901611],[85.5870796,19.7899693],[85.5869566,19.7898445]]}},{"type":"Feature","properties":{"id":867690447,"highway":"unclassified"},"geometry":{"type":"LineString","coordinates":[[85.5984342,19.802988],[85.5982904,19.8025235],[85.598153,19.8021133],[85.5979425,19.8017445],[85.5975713,19.8011306],[85.5973845,19.8007904],[85.5973183,19.8005853],[85.5972709,19.8004382],[85.5972108,19.8000698],[85.5972121,19.7998945],[85.597214,19.7996204],[85.5972097,19.7993741],[85.5971646,19.7990833],[85.5969514,19.7983911],[85.5968718,19.7980637],[85.5968589,19.797772],[85.5968899,19.7974744],[85.596993,19.7969694],[85.5971029,19.7965127],[85.5972397,19.7959534],[85.5972558,19.7958626],[85.5972558,19.7957768],[85.5972317,19.7956455],[85.5971968,19.7955446],[85.5971807,19.7954613],[85.597178,19.7953604],[85.5972129,19.7951711],[85.5974302,19.7944468],[85.5975321,19.7941212],[85.5976072,19.7940001],[85.5977467,19.7938335],[85.5978674,19.7937048],[85.5979881,19.7935054],[85.5980793,19.793349],[85.5981088,19.7933086],[85.598149,19.7932833],[85.5982,19.7932682],[85.5982456,19.7932682],[85.5987713,19.7934348],[85.5988196,19.7934449],[85.5988625,19.7934499],[85.5989027,19.7934499],[85.5989537,19.7934247],[85.5990073,19.7933868],[85.5990422,19.7933313],[85.5991495,19.7930511],[85.5992326,19.7928417],[85.5992863,19.7926928],[85.5993023,19.7925767],[85.5993265,19.792342],[85.599356,19.7922158],[85.5995491,19.7917413],[85.5999997,19.7907293],[85.6001633,19.7904491],[85.6003618,19.7901589],[85.6004423,19.7900378],[85.600512,19.7898636],[85.6006247,19.7894295],[85.6007427,19.7891494],[85.6008258,19.7890005],[85.6008741,19.7889349],[85.600917,19.7889071],[85.6009519,19.7889021],[85.6010029,19.7889021],[85.6010914,19.7889248],[85.6011343,19.7889323],[85.6011987,19.7889273],[85.6012496,19.7889021],[85.6015688,19.7886421],[85.6016627,19.7885841],[85.6017646,19.7885538],[85.6018424,19.7885487],[85.6024969,19.788627],[85.6029502,19.7886547],[85.6031594,19.7886295],[85.6033713,19.7885916],[85.6035858,19.7885361],[85.6038353,19.7885033],[85.6043503,19.7885311],[85.6048948,19.7886421],[85.6053668,19.7887531],[85.6055546,19.7888289],[85.6057638,19.7889349],[85.6064156,19.7893538],[85.6065658,19.7894371],[85.6066382,19.7894674],[85.6067133,19.7894724],[85.606775,19.7894699],[85.6068447,19.7894447],[85.606885,19.7893967],[85.6070271,19.7892402],[85.6074402,19.7887456],[85.6077594,19.7883594],[85.6078479,19.7882888],[85.6079327,19.78824],[85.6079798,19.7881916]]}}]}