{"type":"FeatureCollection","features":[{"type":"Feature","properties":{"id":90630323,"highway":"secondary"},"geometry":{"type":"LineString","coordinates":[[85.818788,19.795534],[85.8188966,19.7958136],[85.8190027,19.7961058],[85.8189775,19.7962452],[85.8190045,19.7964358],[85.8190729,19.7973221],[85.8190888,19.797516],[85.8190724,19.7977697],[85.8189555,19.7984297],[85.8189396,19.7985632],[85.8189165,19.7989897],[85.8188515,19.7996555],[85.8188319,19.7997821],[85.8187836,19.7998871],[85.8187696,19.799952],[85.818777,19.8001329],[85.818804,19.8005132],[85.8188065,19.80074],[85.8188102,19.8010816],[85.8188333,19.8012887],[85.818843,19.8013758],[85.8189988,19.8021538],[85.8190349,19.8025813],[85.8190668,19.8029584],[85.8190552,19.8033803]]}},{"type":"Feature","properties":{"id":90630349,"highway":"secondary"},"geometry":{"type":"LineString","coordinates":[[85.8094903,19.8041975],[85.809337,19.8038635],[85.8092662,19.8037431],[85.8091594,19.8035253],[85.8090214,19.8032436],[85.8089648,19.8031281],[85.8089432,19.8030906],[85.8088394,19.8030766],[85.8086081,19.8030301],[85.808481,19.8028057],[85.8080198,19.8020151],[85.8079907,19.8019491],[85.8075636,19.8011977],[85.8073552,19.800878],[85.807191,19.8004898],[85.807077,19.8003247],[85.8070113,19.8001748],[85.8068088,19.7995609],[85.8067842,19.7994668],[85.8066105,19.7988034],[85.8064864,19.798375],[85.8062502,19.79787],[85.8061173,19.7976465],[85.8058881,19.797261],[85.8057862,19.7970896],[85.8052556,19.796243],[85.8048839,19.7955753],[85.804678,19.7952054],[85.8045976,19.795061],[85.8044926,19.794862],[85.8043986,19.7946839],[85.8043215,19.794531],[85.8042958,19.7944187],[85.8042923,19.7943365],[85.8042907,19.7942977],[85.804293,19.7941667],[85.8043342,19.7940041],[85.804407,19.7938125],[85.8045458,19.7935093],[85.8047119,19.7931465],[85.8048626,19.7928172],[85.8050019,19.7925635],[85.8052155,19.7921743],[85.8053477,19.7919334],[85.8057198,19.7912555],[85.8059533,19.7908075],[85.8061011,19.7904992]]}},{"type":"Feature","properties":{"id":90630361,"highway":"residential"},"geometry":{"type":"LineString","coordinates":[[85.8240852,19.7949087],[85.8239543,19.7954622],[85.8239854,19.7959402],[85.8239883,19.7959849],[85.8241017,19.7964932],[85.8242422,19.7971226],[85.8243767,19.7977851],[85.824442,19.7981067],[85.8245074,19.7984284],[85.8246633,19.7990775],[85.8248291,19.7998989],[85.8248858,19.8001796],[85.8250144,19.8007755],[85.8256835,19.801389]]}},{"type":"Feature","properties":{"id":90630381,"highway":"unclassified"},"geometry":{"type":"LineString","coordinates":[[85.8256217,19.796827],[85.8250434,19.7968883],[85.8249539,19.7969287],[85.8248418,19.7969968],[85.8247144,19.7970373],[85.8242422,19.7971226],[85.8238513,19.7972107],[85.8237657,19.7972594],[85.8236148,19.7974112],[85.8234409,19.7975275],[85.8233159,19.7976312],[85.8227546,19.7981469],[85.8225296,19.7984518],[85.8224473,19.79864],[85.8223896,19.7988007],[85.8223037,19.7989613],[85.8221812,19.7991094],[85.8219254,19.7993924],[85.8216531,19.7996675],[85.8214869,19.7998627],[85.8212676,19.8001055],[85.8211119,19.8002779],[85.8206575,19.8005578],[85.8203073,19.8007015],[85.8198408,19.8008621],[85.8194163,19.800966],[85.8188102,19.8010816]]}},{"type":"Feature","properties":{"id":150338453,"highway":"tertiary"},"geometry":{"type":"LineString","coordinates":[[85.8187836,19.7998871],[85.8183745,19.7998293],[85.8182451,19.799797],[85.8181558,19.7997576],[85.8180926,19.7997177],[85.8180518,19.7997035],[85.8179944,19.7996993],[85.8179278,19.7997125],[85.8178549,19.7997391],[85.8178263,19.7997585],[85.8177849,19.7997866],[85.8175057,19.8001591],[85.8174648,19.8002169],[85.8173145,19.8004288],[85.8172365,19.8005967],[85.8172084,19.8007285],[85.8171992,19.8009157],[85.8171962,19.8009754],[85.8172902,19.8014442]]}},{"type":"Feature","properties":{"id":150338454,"highway":"tertiary"},"geometry":{"type":"LineString","coordinates":[[85.8164634,19.803743],[85.8163586,19.8031835],[85.8161832,19.8025638],[85.816052,19.8022498],[85.8160411,19.8022261],[85.815887,19.8018891],[85.8158659,19.801843],[85.8158514,19.8016448],[85.8158476,19.8015926],[85.8157997,19.8014098],[85.8157474,19.8013201],[85.8151614,19.8004936],[85.8149062,19.8001651],[85.8147463,19.799959],[85.8143811,19.7995542],[85.8141348,19.7992506],[85.8141223,19.7992353],[85.8140681,19.7991674],[85.8138026,19.7988113],[85.8137699,19.7987058],[85.8137665,19.7986487],[85.8138134,19.7985721],[85.8138171,19.7985207],[85.8138193,19.7983189],[85.8138328,19.7982831],[85.8139876,19.798255],[85.8142439,19.798178],[85.8142831,19.7981285],[85.8143079,19.7980763],[85.8143309,19.7979524],[85.8143853,19.797607],[85.814411,19.79747],[85.81441,19.7973413],[85.8143675,19.7971663],[85.8142536,19.7969103],[85.8141496,19.7966176]]}},{"type":"Feature","properties":{"id":170088278,"highway":"residential"},"geometry":{"type":"LineString","coordinates":[[85.8284479,19.7999206],[85.8281725,19.7996838],[85.8281392,19.7996731],[85.828109,19.7996827],[85.8278614,19.7998927],[85.8278156,19.7999316],[85.8277456,19.7999827],[85.8271367,19.800607]]}},{"type":"Feature","properties":{"id":170088357,"highway":"residential"},"geometry":{"type":"LineString","coordinates":[[85.8248858,19.8001796],[85.8254487,19.7999758]]}},{"type":"Feature","properties":{"id":170088364,"highway":"residential"},"geometry":{"type":"LineString","coordinates":[[85.8343989,19.7980715],[85.8340947,19.7989025],[85.8338835,19.7995696],[85.8336413,19.8002201]]}},{"type":"Feature","properties":{"id":868567409,"highway":"residential"},"geometry":{"type":"LineString","coordinates":[[85.8082345,19.798546],[85.8082559,19.7986023],[85.8082816,19.7986484],[85.808396,19.798811],[85.8086225,19.7991339],[85.8086809,19.7992328],[85.8087766,19.7994283],[85.8088093,19.7994745],[85.8088537,19.7995228],[85.8091549,19.799848],[85.8093486,19.8000556],[85.8094071,19.8001182],[85.8095985,19.8003247],[85.8098344,19.8006147],[85.8101005,19.8009273]]}},{"type":"Feature","properties":{"id":868576380,"highway":"residential"},"geometry":{"type":"LineString","coordinates":[[85.8013871,19.8005754],[85.8019343,19.8000909],[85.8020899,19.7999798],[85.8022562,19.7998966],[85.8023299,19.7998704],[85.8026746,19.7997483],[85.8028972,19.7996694],[85.8030625,19.7996169],[85.8033103,19.7995382],[85.8033639,19.7995281],[85.8034095,19.7995357],[85.8034578,19.7995584],[85.8034954,19.7996007],[85.8035575,19.7997348],[85.8035887,19.7998839],[85.8035867,19.7999273],[85.8035774,19.7999679],[85.8035466,19.8000085],[85.8030845,19.8004984],[85.8030721,19.8005303],[85.8030814,19.8005564],[85.8031091,19.8005738],[85.8034511,19.8006869],[85.8036483,19.8007622],[85.8037808,19.8008492],[85.8040149,19.8010405],[85.8043076,19.8013014],[85.804511,19.8015043],[85.8047575,19.8017768]]}},{"type":"Feature","properties":{"id":868576382,"highway":"residential"},"geometry":{"type":"LineString","coordinates":[[85.8031762,19.8000228],[85.8031379,19.7998863],[85.8030625,19.7996169]]}},{"type":"Feature","properties":{"id":868648869,"highway":"residential"},"geometry":{"type":"LineString","coordinates":[[85.8061567,19.8000616],[85.8061934,19.8000291],[85.8063363,19.7999026],[85.806375,19.7998794],[85.8064137,19.7998794],[85.8064525,19.7999026],[85.8069796,19.800399]]}},{"type":"Feature","properties":{"id":869970554,"highway":"residential"},"geometry":{"type":"LineString","coordinates":[[85.8342927,19.8004242],[85.8345258,19.7997728],[85.8347607,19.7991026]]}},{"type":"Feature","properties":{"id":870245143,"highway":"residential"},"geometry":{"type":"LineString","coordinates":[[85.8210951,19.7989994],[85.8207624,19.7993723],[85.8207483,19.7994056],[85.8207483,19.7994389],[85.820766,19.7994856],[85.8208863,19.799742],[85.821042,19.7999018],[85.8212676,19.8001055]]}},{"type":"Feature","properties":{"id":870245145,"highway":"residential"},"geometry":{"type":"LineString","coordinates":[[85.8170617,19.7996906],[85.8167743,19.7998148],[85.8167404,19.7998264],[85.8167096,19.7998235],[85.8166788,19.7998003],[85.816648,19.7997974],[85.8166203,19.799809],[85.8164508,19.7999018],[85.8164191,19.7999213],[85.8164099,19.7999474],[85.8164161,19.7999793],[85.8166133,19.8003184],[85.8168012,19.8005938],[85.8169676,19.8008431],[85.8170045,19.800875],[85.8170477,19.8008982],[85.8171031,19.8009098],[85.8171992,19.8009157]]}},{"type":"Feature","properties":{"id":870245146,"highway":"residential"},"geometry":{"type":"LineString","coordinates":[[85.8174648,19.8002169],[85.817339,19.8000906],[85.8171942,19.7999138],[85.8170617,19.7996906],[85.8169138,19.7993601],[85.8166459,19.7988163],[85.8165811,19.7986847],[85.8162945,19.7981687]]}},{"type":"Feature","properties":{"id":870245149,"highway":"residential"},"geometry":{"type":"LineString","coordinates":[[85.8142439,19.798178],[85.8143753,19.7983981],[85.8144637,19.7985479],[85.8145982,19.7987444],[85.8148991,19.7990907],[85.8149468,19.7991356],[85.8151397,19.7993171],[85.8154158,19.7995403],[85.8155715,19.7996635],[85.8156564,19.7997267],[85.8157095,19.7997833],[85.8157662,19.7998799],[85.8157839,19.7999598],[85.8157768,19.8000564],[85.8157945,19.8001163],[85.8158369,19.8001996],[85.8160847,19.8005193],[85.8162667,19.8007657],[85.8162864,19.8007923],[85.8164917,19.8010521],[85.8166297,19.8012352],[85.8167076,19.8013551],[85.8167715,19.801482]]}},{"type":"Feature","properties":{"id":870290886,"highway":"residential"},"geometry":{"type":"LineString","coordinates":[[85.8232858,19.7996645],[85.8230558,19.7999009],[85.8230416,19.7999242],[85.8230469,19.7999508],[85.8230628,19.7999741],[85.8232108,19.8001032]]}},{"type":"Feature","properties":{"id":870301595,"highway":"residential"},"geometry":{"type":"LineString","coordinates":[[85.8115197,19.8002667],[85.8115639,19.8001753],[85.8115812,19.8001102],[85.8115899,19.8000248],[85.8115769,19.7999191],[85.8115769,19.7998419],[85.8115899,19.7997728],[85.8117022,19.7995613],[85.8118697,19.799363],[85.8120868,19.799106],[85.8121708,19.7989951]]}},{"type":"Feature","properties":{"id":870301597,"highway":"residential"},"geometry":{"type":"LineString","coordinates":[[85.8118697,19.799363],[85.8121671,19.7996215],[85.8124078,19.7998339],[85.8125244,19.7999507],[85.8125959,19.8000427],[85.8126749,19.8001772],[85.8127451,19.8003628]]}},{"type":"Feature","properties":{"id":870301598,"highway":"residential"},"geometry":{"type":"LineString","coordinates":[[85.8117022,19.7995613],[85.8119038,19.7997065],[85.8120918,19.7998728],[85.812383,19.8001481]]}},{"type":"Feature","properties":{"id":870322561,"highway":"trunk"},"geometry":{"type":"LineString","coordinates":[[85.8318397,19.7999433],[85.8319153,19.7998817],[85.8319886,19.7998369],[85.8320799,19.7998036],[85.8321934,19.7997782],[85.8323315,19.799776],[85.832998,19.800002],[85.8336413,19.8002201],[85.8342927,19.8004242],[85.8346555,19.8005389]]}},{"type":"Feature","properties":{"id":870325278,"highway":"trunk_link"},"geometry":{"type":"LineString","coordinates":[[85.8318033,19.8000296],[85.8318246,19.8000211],[85.8318409,19.8000054],[85.8318495,19.7999852],[85.831849,19.7999633],[85.8318397,19.7999433],[85.8318231,19.7999284],[85.8318016,19.7999205],[85.8317786,19.799921],[85.8317578,19.7999296],[85.8317419,19.799945],[85.8317335,19.7999649]]}},{"type":"Feature","properties":{"id":870662628,"highway":"residential"},"geometry":{"type":"LineString","coordinates":[[85.8140681,19.7991674],[85.8140466,19.7991762],[85.8140257,19.79919],[85.814018,19.799197],[85.8139477,19.7992376],[85.8139043,19.7992636],[85.8138326,19.7992895],[85.8138223,19.7993099],[85.8138846,19.7995354],[85.8139472,19.7996932],[85.8139605,19.7997667],[85.8139838,19.79991],[85.813996,19.7999694],[85.8139913,19.7999847],[85.8139635,19.8000743]]}}]}