{"type":"FeatureCollection","features":[{"type":"Feature","properties":{"id":865249568,"highway":"residential"},"geometry":{"type":"LineString","coordinates":[[85.9989086,19.8818374],[85.9991728,19.8822173],[85.9992204,19.882293],[85.9994423,19.8825837],[85.9995054,19.8826505],[85.9995697,19.8827098],[85.9996529,19.8827754],[86.0002309,19.8832042],[86.0003731,19.8833126],[86.0006829,19.8835649],[86.0008545,19.8837427],[86.0009055,19.8838146],[86.0009645,19.8839193],[86.0010034,19.8840378],[86.0010262,19.8841248],[86.0010906,19.8844552],[86.0011087,19.884512],[86.0011281,19.8845624],[86.001175,19.8846495],[86.0012327,19.884739],[86.0014205,19.8849874],[86.0015358,19.8851173],[86.0016391,19.8852245],[86.0017665,19.885333],[86.0019026,19.8854579],[86.0020106,19.8855411],[86.0020655,19.8855758],[86.0021152,19.8856041],[86.0022064,19.8856489],[86.0026576,19.8858352],[86.0026995,19.8858447],[86.0027445,19.8858463],[86.0028015,19.8858403],[86.0028427,19.8858299],[86.0029909,19.8857703],[86.0030875,19.8857372],[86.003127,19.8857309],[86.0031538,19.8857347],[86.0031847,19.8857504],[86.0031954,19.8857687],[86.0035408,19.8866042],[86.0036118,19.8867493],[86.0039592,19.8875036]]}},{"type":"Feature","properties":{"id":865274985,"highway":"residential"},"geometry":{"type":"LineString","coordinates":[[85.9950737,19.8687976],[85.9951109,19.8688112],[85.9951374,19.8688213],[85.995179,19.8688295],[85.9952326,19.8688459],[85.9952755,19.8688717],[85.9953479,19.8689373],[85.9955317,19.8691366],[85.9956484,19.8692501],[85.9957342,19.8693195],[85.9958763,19.8694153],[85.9959602,19.8694525],[85.9960011,19.8694771],[85.9960534,19.8695124],[85.996107,19.8695604],[85.9962049,19.8696335],[85.9962713,19.8696714],[85.9963149,19.8696909],[85.9963591,19.8697067],[85.9964021,19.869713],[85.9964316,19.8697143],[85.9964668,19.8697124],[85.9965053,19.8697079],[85.9966394,19.86966],[85.996732,19.8696348],[85.9968084,19.8696297],[85.9968781,19.8696348],[85.9969345,19.8696474],[85.9976325,19.8700006],[85.9978095,19.8700838],[85.9979028,19.8701241],[85.9979953,19.8701614],[85.9980912,19.8701967],[85.9985244,19.8703203],[85.998686,19.8703701],[85.9988248,19.8704161],[85.9992224,19.8705681],[86.0002685,19.8710473],[86.0003945,19.8711206],[86.0006265,19.8712719],[86.000714,19.8713202],[86.0007851,19.8713536],[86.0010503,19.8714509],[86.001218,19.8715141],[86.0013695,19.8715746],[86.0014714,19.8716251],[86.0016833,19.8717474],[86.0021085,19.872016],[86.0022224,19.8720854],[86.0025282,19.8722633],[86.0027643,19.8724108],[86.0030231,19.8725823],[86.0031103,19.8726341],[86.0031813,19.8727047],[86.0032336,19.8727627],[86.0032886,19.8728182],[86.0033356,19.8728586],[86.0033604,19.8728762],[86.0033959,19.8728838],[86.0034167,19.8728872],[86.0034415,19.8728888],[86.0034931,19.8728841],[86.0035374,19.8728775],[86.0039914,19.8728163],[86.0043293,19.872769],[86.0044017,19.8727602],[86.0044487,19.8727614],[86.0045097,19.8727659],[86.0045526,19.872781],[86.0046069,19.872822],[86.004676,19.8728907],[86.0046961,19.8729071],[86.0047323,19.8729336],[86.0047712,19.872955],[86.0048148,19.8729702],[86.0048852,19.872979],[86.0049181,19.8729809],[86.0049603,19.8729834],[86.0049855,19.8729881],[86.0050079,19.8729973],[86.0050589,19.8730301],[86.0051253,19.8730704],[86.0052111,19.8731177],[86.005243,19.8731363],[86.0053512,19.8732004],[86.0053989,19.8732407],[86.0054927,19.8733328],[86.005602,19.8734331],[86.0056329,19.8734551],[86.005661,19.8734677],[86.0056879,19.8734766],[86.005714,19.8734759],[86.0057442,19.8734671],[86.0057871,19.8734476],[86.0058253,19.8734211],[86.0058508,19.8734078],[86.0058629,19.8734044],[86.0058796,19.8734034],[86.0058914,19.8734047],[86.0059091,19.8734091],[86.0059826,19.8734592],[86.0060101,19.8734803],[86.0060503,19.8735144],[86.0060902,19.8735466],[86.0062304,19.87366],[86.0068734,19.8741715],[86.0070142,19.8742762],[86.0075828,19.8747567],[86.0080428,19.8750922],[86.0080965,19.8751256],[86.0081367,19.875142],[86.008189,19.8751496],[86.0082641,19.8751508],[86.008354,19.875154],[86.0084217,19.875159],[86.0085746,19.8751931],[86.008649,19.8752177],[86.008702,19.875241],[86.0089474,19.8753911],[86.0090319,19.8754434],[86.009113,19.8754838],[86.009343,19.8755759],[86.0094725,19.8756263],[86.0096394,19.8757033],[86.0098614,19.8758004],[86.009905,19.875818],[86.010088,19.8758628],[86.0102315,19.8758868],[86.0103321,19.8758931],[86.0104387,19.8758893],[86.0104977,19.8758792],[86.0105628,19.8758597],[86.0106969,19.8758048],[86.0114667,19.875434]]}},{"type":"Feature","properties":{"id":866339540,"highway":"unclassified"},"geometry":{"type":"LineString","coordinates":[[85.9964541,19.9051541],[85.9967186,19.9050043],[85.9968406,19.9049753],[85.9970418,19.9049766],[85.9973167,19.9049867],[85.9974119,19.9049993],[85.9974816,19.9050258],[85.9975246,19.9050585],[85.9975581,19.9051102],[85.9976158,19.9052653],[85.9977096,19.9055869],[85.9977445,19.9057092],[85.9977673,19.9057773],[85.9978223,19.9058555],[85.997884,19.9059299],[85.9980181,19.9060194],[85.9982876,19.9062174],[85.9984191,19.9063044],[85.998525,19.9063561],[85.9986068,19.9063851],[85.9987114,19.9064091],[85.9988147,19.9064393],[85.9989166,19.9064734],[85.9990548,19.9065402],[85.9991661,19.9065869],[85.9992988,19.9066222],[85.9994477,19.9066512],[85.9996556,19.9066764],[85.9997521,19.9066827],[85.9998138,19.9066953],[85.9998715,19.9067205],[85.9999171,19.9067609],[86.0001558,19.9069639],[86.0002108,19.9069929],[86.0002993,19.9070269],[86.0004213,19.9070572],[86.0005876,19.9070837],[86.0007754,19.9070912],[86.0010825,19.9071152],[86.0011147,19.907112],[86.0011385,19.9071064],[86.0011595,19.9070971],[86.0011764,19.9070862],[86.0011901,19.9070726],[86.0012045,19.9070496],[86.0012166,19.9069992],[86.0012461,19.9068794],[86.0012756,19.9068315],[86.0013132,19.9068025],[86.0013789,19.9067684],[86.0023619,19.9064771],[86.0024223,19.9064469],[86.0024531,19.9064204],[86.0024679,19.9063889],[86.0024679,19.9063422],[86.0024598,19.9062577],[86.0024062,19.905737],[86.0024089,19.9056865],[86.0024182,19.9056626],[86.002437,19.9056411],[86.0024773,19.9056184],[86.0026395,19.9055428],[86.0028823,19.9054078],[86.0031143,19.9052263],[86.0033543,19.9050245],[86.0037701,19.9047282],[86.0038854,19.9046235],[86.0039511,19.9045251],[86.0040303,19.9043663],[86.0040946,19.9042036],[86.0041201,19.9041027],[86.0041456,19.9040321],[86.0041885,19.9039602],[86.0042864,19.9038656],[86.004505,19.9037131],[86.0046941,19.9036298],[86.004843,19.9035832],[86.0050777,19.9034874],[86.0055014,19.9033259],[86.0055712,19.9033032],[86.0056094,19.9033032],[86.0056302,19.9033108],[86.0056463,19.9033228],[86.0056584,19.9033436],[86.0058428,19.9036765],[86.0059527,19.9038896],[86.0059749,19.9039407],[86.0060091,19.9040365],[86.0061458,19.9044968],[86.0061988,19.9047093],[86.0062283,19.904829],[86.0063068,19.9051645],[86.0063323,19.9052723],[86.0063497,19.9053952],[86.0063705,19.9055636],[86.0063826,19.9056241],[86.006404,19.9056846],[86.0064302,19.9057401],[86.0064637,19.9057912],[86.0065797,19.9059311],[86.006636,19.9059879],[86.0067178,19.9060982],[86.0068949,19.9063605],[86.0070793,19.9067319],[86.0071906,19.9069311],[86.0072248,19.9069771],[86.0072482,19.9069916],[86.0072684,19.9069967],[86.0072979,19.9069967],[86.0073327,19.9069878],[86.0074628,19.9069361],[86.0075916,19.9068813],[86.0076459,19.9068466],[86.0079282,19.906624],[86.0081461,19.906498],[86.0084432,19.9063466],[86.009443,19.9058202],[86.0104823,19.9052943],[86.011861,19.9046059],[86.0119374,19.9045844],[86.0120098,19.9045693],[86.0121453,19.9045567],[86.0130867,19.9044293],[86.013874,19.9043297],[86.0140247,19.9043253],[86.014168,19.9043282],[86.0142927,19.9043354],[86.0148766,19.9043963],[86.0154497,19.9044557],[86.0159289,19.9044795],[86.0163375,19.9045026],[86.0164356,19.9045048],[86.0165372,19.9044971],[86.0166469,19.904473],[86.0172949,19.9041919],[86.0180106,19.9038725],[86.0185931,19.9036288],[86.0190555,19.9034158],[86.0193182,19.9033082],[86.0194886,19.9032094],[86.0196019,19.9031084],[86.0196883,19.903025],[86.0197326,19.9029657],[86.0198587,19.9027165],[86.0199626,19.9024355],[86.020014,19.9022105],[86.0200198,19.9020886],[86.020014,19.9019569],[86.0199439,19.9016155],[86.0198237,19.901352],[86.0196474,19.9010864],[86.0193777,19.9008372],[86.0190952,19.9006648],[86.0188675,19.9005891],[86.0185173,19.9005375],[86.0183129,19.9005166],[86.0181524,19.900507],[86.0170977,19.9003773],[86.0155945,19.9002072],[86.0141945,19.9000448],[86.0130894,19.8999616],[86.0109249,19.8999363],[86.0088998,19.8998909],[86.0079912,19.8998869],[86.0074796,19.8998846],[86.0054599,19.8998203],[86.0052835,19.8998039],[86.0052165,19.8997907],[86.0051112,19.8997592],[86.0050066,19.8997157],[86.004898,19.899664],[86.0047773,19.8996022],[86.0044983,19.8994458],[86.004387,19.8993853],[86.0040155,19.8992024],[86.0037996,19.8991205],[86.0034952,19.8990032],[86.0031921,19.8988607],[86.0023338,19.8984799],[86.0022305,19.8984256],[86.0021862,19.8983815],[86.0021259,19.898297],[86.0021017,19.8982125],[86.0020803,19.8980612],[86.0020803,19.8978027],[86.0020682,19.8972995],[86.0020521,19.8967674],[86.0020334,19.8962604],[86.0020186,19.8958947],[86.0019609,19.8941418],[86.0019609,19.894022],[86.0019864,19.8937585],[86.0020213,19.8935933],[86.0020588,19.8934041],[86.002944,19.8889436],[86.0029681,19.8888124],[86.0029936,19.8887053],[86.0030184,19.8886403],[86.0030486,19.8885823],[86.0030767,19.8885375],[86.003121,19.8884808],[86.0037768,19.8877241],[86.0039592,19.8875036],[86.0053177,19.8858362],[86.0057107,19.8853872],[86.0057677,19.8853223],[86.0058193,19.8852725],[86.005883,19.8852138],[86.0061251,19.8850209],[86.0072663,19.8841236],[86.0093088,19.8824941],[86.0094476,19.8823699],[86.0095214,19.8822779],[86.0095717,19.8821896],[86.0095979,19.8821164],[86.0096019,19.8820439],[86.0095979,19.8819909],[86.0095811,19.8819298],[86.009563,19.8818806],[86.0093893,19.8815243],[86.0092056,19.8810741],[86.0088133,19.8801288],[86.0087731,19.8800456],[86.0087141,19.8799642],[86.0086517,19.8799157],[86.0086014,19.8798816],[86.0085303,19.8798438],[86.008466,19.8798173],[86.0084123,19.8798015],[86.0082943,19.8797851],[86.0079074,19.8797643],[86.0067554,19.8797788],[86.0060754,19.8797965],[86.0045727,19.8798205],[86.0044648,19.8798268],[86.0043736,19.8798312],[86.0038901,19.8798709],[86.0036165,19.8798848],[86.0035407,19.8798904],[86.0034227,19.8799119],[86.0033121,19.8799422],[86.0031874,19.87998],[86.0016116,19.8806289],[86.0006165,19.8810526],[86.0001981,19.8812317],[85.9999412,19.8813381],[85.9997374,19.8814209],[85.9992814,19.8815954],[85.9990185,19.8817138],[85.9989552,19.8817485],[85.9989367,19.8817646],[85.9989257,19.8817819],[85.998917,19.8818033],[85.9989086,19.8818374],[85.9988952,19.8818532],[85.9988814,19.8818645],[85.9988455,19.8818831],[85.9985384,19.8820042],[85.9984412,19.8820363],[85.9983842,19.8820496],[85.998297,19.8820622],[85.9981884,19.8820754],[85.9980972,19.8821044],[85.9980315,19.8821301],[85.9979705,19.8821681],[85.9979115,19.8822173],[85.9978156,19.8822734],[85.9976841,19.882334],[85.9974723,19.8824248],[85.9971853,19.8825099],[85.9970813,19.8825345],[85.99696,19.8825496],[85.9968393,19.8825496],[85.9966622,19.8825358],[85.9964114,19.882503],[85.9960185,19.8824664],[85.9957784,19.8824349],[85.9955853,19.8823974],[85.9949858,19.8822432],[85.9949567,19.8822322],[85.9948725,19.8822003],[85.9947914,19.8821599],[85.994674,19.8820855],[85.9946323,19.8820503],[85.9945755,19.8820023],[85.9944668,19.8818951],[85.9943166,19.8817501],[85.9942576,19.8816681],[85.9942161,19.8816012],[85.9940858,19.8813168],[85.9940786,19.8813083],[85.9940709,19.8813011],[85.994059,19.8812929],[85.9940477,19.8812891],[85.9940353,19.8812881],[85.9940239,19.8812894],[85.9940018,19.8812945],[85.9937889,19.881378],[85.9937098,19.8814095],[85.9936112,19.8814594],[85.9934845,19.8815281],[85.9933531,19.8815804],[85.9932277,19.8816202],[85.9930996,19.8816504],[85.9930144,19.8816719],[85.9929353,19.8817021],[85.9928703,19.8817349],[85.9927925,19.8817778],[85.9926677,19.8818456],[85.9926282,19.8818554],[85.9925913,19.8818547],[85.9925484,19.8818459],[85.9925061,19.8818232],[85.992477,19.8817923],[85.9924552,19.8817551],[85.9919824,19.8809543],[85.9917494,19.8806074],[85.9917317,19.8805913],[85.9917122,19.8805787],[85.9916934,19.8805709],[85.9916643,19.8805655],[85.9916304,19.8805658],[85.9915204,19.8805809],[85.9913367,19.8806453],[85.9912844,19.8806604],[85.9912415,19.8806654],[85.9912066,19.8806579],[85.9911771,19.8806427],[85.991043,19.8804624],[85.9907842,19.8801547],[85.9906554,19.8800172],[85.9905629,19.8799138],[85.9904757,19.8798141],[85.9902719,19.8795354],[85.9901713,19.8793664],[85.9901029,19.8792844],[85.9899862,19.8791218],[85.9899124,19.8790309],[85.9895027,19.8785113]]}}]}