{"type":"FeatureCollection","features":[{"type":"Feature","properties":{"id":396874386,"highway":"residential"},"geometry":{"type":"LineString","coordinates":[[85.5942331,19.8591614],[85.5917214,19.8600297],[85.5898257,19.8607172],[85.5885386,19.8610773],[85.5882984,19.861123],[85.5880726,19.8611566],[85.5878788,19.8611786],[85.5877055,19.8612138],[85.5876134,19.8612449],[85.5874416,19.8613124],[85.5872574,19.8614123],[85.5859431,19.8621081],[85.5852649,19.8624944]]}},{"type":"Feature","properties":{"id":680551454,"highway":"residential"},"geometry":{"type":"LineString","coordinates":[[85.5991507,19.8375229],[85.5990162,19.837946],[85.598866,19.8383597],[85.5988553,19.8384228],[85.5988553,19.8385035],[85.5990374,19.8391863],[85.5990439,19.8392273],[85.5990242,19.8393111]]}},{"type":"Feature","properties":{"id":680551455,"highway":"unclassified"},"geometry":{"type":"LineString","coordinates":[[85.5990242,19.8393111],[85.5990795,19.8393483],[85.5991482,19.8394077],[85.5992886,19.8395445],[85.5993391,19.8395828],[85.5993759,19.8396],[85.5994199,19.8396155],[85.5995142,19.8396323],[85.5996885,19.8396482],[85.5998271,19.8396745],[85.5999441,19.8396933],[85.6000576,19.8397357],[85.6001203,19.8397725],[85.6001653,19.8398347],[85.6001952,19.8398994],[85.600222,19.8400162],[85.6003927,19.8408332]]}},{"type":"Feature","properties":{"id":680551457,"highway":"unclassified"},"geometry":{"type":"LineString","coordinates":[[85.5976961,19.8390157],[85.5976155,19.839111],[85.5974708,19.8392149],[85.5973495,19.8392669],[85.5972327,19.8392869],[85.5971064,19.8392869],[85.5968509,19.8392569],[85.5965678,19.8391945],[85.5958613,19.8390389],[85.5951386,19.838808],[85.5944407,19.8385995],[85.5942864,19.8385633],[85.5942046,19.8385356],[85.5941182,19.8384658],[85.5940266,19.8383756],[85.5937227,19.8381076],[85.5936035,19.8380334],[85.5934351,19.8379868],[85.5929708,19.837852],[85.5921082,19.8376342],[85.5918655,19.837614],[85.5916408,19.837589],[85.5915341,19.8375643],[85.5914183,19.837531],[85.5911437,19.837378],[85.5909377,19.8372432],[85.5907964,19.837165],[85.5906501,19.8371298],[85.5904892,19.8371223],[85.5903558,19.83715],[85.5902248,19.8372112],[85.5899682,19.8373311],[85.5895806,19.8375152],[85.5891747,19.8377339],[85.5883398,19.8382641],[85.587709,19.8385905],[85.5876397,19.8386504],[85.5876222,19.8387164],[85.5876229,19.8388299],[85.5876331,19.8389946],[85.5876156,19.8391636],[85.5875699,19.8393528],[85.5875114,19.8395406],[85.5874205,19.8399182],[85.5873421,19.8400985],[85.5872534,19.8401934],[85.5871305,19.8402718],[85.5869596,19.8403137],[85.5867676,19.8403144],[85.5866477,19.8403125],[85.5863509,19.840259],[85.5851407,19.8400934],[85.5845226,19.8400534],[85.5839868,19.8400665],[85.5835184,19.8401124],[85.5830254,19.8402082],[85.5824911,19.8403305],[85.582293,19.8403721],[85.582031,19.8404063],[85.58164,19.8404665],[85.5811707,19.8405482],[85.5804004,19.8406619],[85.5798538,19.8407923],[85.5797139,19.8408228],[85.5795325,19.8408767],[85.5793208,19.8409651],[85.5791108,19.8410721],[85.5788467,19.8411877],[85.5784617,19.8413176]]}},{"type":"Feature","properties":{"id":680551458,"highway":"unclassified"},"geometry":{"type":"LineString","coordinates":[[85.5784617,19.8413176],[85.5778162,19.8415015],[85.5774441,19.8415929],[85.5773813,19.8415908],[85.5773378,19.8415605],[85.5773131,19.8415094],[85.5773013,19.8414411],[85.5772819,19.841247],[85.5772626,19.841053],[85.5772257,19.8408776],[85.5771889,19.8407404],[85.5770816,19.8405328],[85.5770675,19.8404676],[85.577075,19.8403964]]}},{"type":"Feature","properties":{"id":864985626,"highway":"unclassified"},"geometry":{"type":"LineString","coordinates":[[85.6023019,19.83208],[85.6021839,19.831365],[85.6020475,19.8305721],[85.6019515,19.8300141],[85.6019299,19.829918],[85.601905,19.8298609],[85.6018653,19.8298166],[85.6017923,19.8297801],[85.6016582,19.8297297],[85.6011814,19.8296038],[85.6008714,19.8295278],[85.6006164,19.8294704],[85.599943,19.8293578],[85.5996789,19.829336],[85.5994083,19.8293298],[85.5992263,19.8293383],[85.5990406,19.8293561],[85.5988421,19.8293849],[85.598201,19.8294779],[85.5979732,19.8295243],[85.5978283,19.8295698],[85.5977532,19.8296136],[85.5976888,19.8296707],[85.5976512,19.8297314],[85.5976289,19.8298095],[85.5975421,19.8301733],[85.59751,19.8302428],[85.5974582,19.8302899],[85.5973527,19.8303227],[85.5971256,19.8303555],[85.597024,19.8303656],[85.5968252,19.8303555],[85.5965456,19.830301],[85.5963764,19.8302374],[85.5962781,19.830194],[85.5962099,19.8301384],[85.5960694,19.8300237],[85.5959956,19.8299635],[85.5959473,19.8299383],[85.5958787,19.8299235],[85.5948024,19.8298673],[85.5944711,19.8298932],[85.5942962,19.8299279],[85.5941122,19.8299711],[85.5924005,19.830378],[85.591922,19.8304819],[85.5917288,19.8304992],[85.5915447,19.8304819],[85.591057,19.8303607],[85.5892441,19.8298673],[85.5889312,19.8297893],[85.5884711,19.8296335],[85.5876665,19.8292892],[85.5870631,19.8290214],[85.5869526,19.8289403],[85.5868851,19.8288592],[85.5868373,19.8287573],[85.5867961,19.8286479],[85.5867549,19.8284193],[85.5867535,19.8282361],[85.5868022,19.8279646],[85.586823,19.8276735],[85.5868188,19.8274409],[85.5867451,19.8268148],[85.5866594,19.8260478],[85.5866036,19.8254488],[85.5866113,19.8247103],[85.5866042,19.8246057],[85.5865778,19.824494],[85.5865196,19.8244008],[85.5864334,19.8242958],[85.585308,19.8232275],[85.5852229,19.8231405],[85.5851466,19.8230188],[85.5851174,19.8228766],[85.5851282,19.822688],[85.5851681,19.8223785],[85.5854058,19.8210648],[85.5854264,19.8208793],[85.5854023,19.8207078],[85.5853269,19.8205206],[85.5852217,19.8202803],[85.5848653,19.8196427],[85.5841163,19.8185048],[85.5839781,19.8183578],[85.5837973,19.8182313],[85.5836892,19.8181572],[85.5833695,19.8179496],[85.5831288,19.8178079],[85.5829279,19.8177068],[85.5827575,19.8175772],[85.5826314,19.8174498],[85.5821994,19.8168743],[85.582088,19.8167178],[85.5813617,19.8157342],[85.5806815,19.8148397],[85.580305,19.8143161],[85.5799284,19.8138093],[85.57936,19.8131055],[85.578509,19.8120631],[85.5783543,19.8119207],[85.5783194,19.8118785],[85.57831,19.8118412],[85.5783216,19.8118042],[85.5783536,19.8117447],[85.5784559,19.8116258],[85.5785032,19.8115073],[85.5785439,19.8113275],[85.5785684,19.8110332],[85.5786052,19.8108956],[85.5786632,19.8108189],[85.5787317,19.8107801],[85.578825,19.8107328],[85.5788706,19.8106723],[85.5789055,19.8105713],[85.5789283,19.8103442],[85.578939,19.8101941],[85.5789156,19.8100455],[85.5788908,19.8099536],[85.57886,19.8098396],[85.5788429,19.8097017],[85.5788464,19.8095011],[85.5788664,19.80938],[85.5789136,19.8093055],[85.5789496,19.8092823],[85.5789856,19.8092592],[85.5791508,19.8091763],[85.5792105,19.8091165],[85.5792264,19.8090319],[85.5792182,19.8089479],[85.5791799,19.8088651],[85.5790167,19.8086128],[85.5789471,19.8084951],[85.5789091,19.8083543],[85.5789181,19.8081959],[85.5789594,19.8080455],[85.5790039,19.807945],[85.5791008,19.8078474],[85.5792383,19.807756],[85.5802142,19.8072889],[85.5803993,19.8071792],[85.5805555,19.8070569],[85.5807186,19.8068582],[85.5807976,19.8067079],[85.5808343,19.8065324],[85.5808505,19.8063278],[85.5808208,19.8058334],[85.580779,19.8056114],[85.5808085,19.8055558],[85.5808675,19.8055256],[85.5812239,19.8055036],[85.5820136,19.8055101],[85.5822569,19.805505],[85.5826995,19.8054751],[85.5829892,19.8054069],[85.5832627,19.8053047],[85.5834183,19.8052631],[85.5835685,19.8052492],[85.5837657,19.8052454],[85.5838931,19.805229],[85.5840848,19.8051823],[85.5842349,19.8051734],[85.5843779,19.8051615],[85.5844892,19.8051623],[85.5845998,19.8051836],[85.5847447,19.8052353],[85.584856,19.8052593],[85.5849472,19.8052606],[85.5850504,19.8052429],[85.5855547,19.805118],[85.5857545,19.8050902],[85.5860563,19.8050751],[85.5862293,19.8050738],[85.58648,19.8050801],[85.5869025,19.8051596],[85.5871814,19.8051975],[85.5877161,19.8052919],[85.5882383,19.8054344],[85.5886932,19.8055984],[85.5892429,19.805798],[85.5898851,19.8060256],[85.5902111,19.80613],[85.5905121,19.8061885],[85.5908397,19.8062399],[85.5914891,19.806348],[85.5919451,19.8064136],[85.5924161,19.8065097],[85.5934149,19.8067922],[85.5940201,19.8070203],[85.5951862,19.807565],[85.5958505,19.8078981],[85.5964501,19.808257],[85.5968669,19.8085636],[85.5970224,19.8087076],[85.5971779,19.8088516],[85.5973827,19.8090731],[85.5981529,19.8101955],[85.5987117,19.8110099],[85.5988168,19.811163],[85.5989605,19.8112982],[85.5991258,19.8114109],[85.5994855,19.811616],[85.6003725,19.812122],[85.6005817,19.8121977],[85.6008231,19.812233],[85.6012255,19.8122532],[85.60144,19.8122986],[85.6016224,19.8123592],[85.6019979,19.8125459],[85.6025453,19.8128448],[85.6042051,19.8136674],[85.6045205,19.8138057],[85.6048143,19.8139338],[85.6050396,19.8140246],[85.6053546,19.8141111],[85.6055667,19.8141457],[85.60581,19.8141411],[85.6060803,19.8140947],[85.6064065,19.8140068],[85.6066995,19.8139322],[85.6069356,19.8138903],[85.607167,19.8138591],[85.6075126,19.8138474],[85.6076736,19.8138625],[85.6079847,19.8139138],[85.6083637,19.8139849],[85.6086912,19.8140439],[85.6092818,19.8141346],[85.609572,19.8141768],[85.6098698,19.8142067],[85.6102111,19.814234],[85.6108345,19.814311],[85.6115846,19.8144378],[85.6119438,19.8145048],[85.6120204,19.8145297],[85.612089,19.8145694],[85.6121683,19.814639],[85.6124799,19.8150142],[85.6126939,19.8153248],[85.6128259,19.8154764],[85.6129527,19.8155634],[85.6130848,19.8156528],[85.6131693,19.81571],[85.6132485,19.8157472],[85.6133251,19.8157572],[85.6136183,19.8157671],[85.614091,19.8157845],[85.6142284,19.8157895],[85.6143288,19.8157845],[85.6147144,19.8157472],[85.6148174,19.8157423],[85.6148834,19.8157472],[85.6149547,19.8157696],[85.615232,19.8159361],[85.6155143,19.816051],[85.6156044,19.8160877],[85.615858,19.8161771],[85.6160033,19.816202],[85.6161221,19.816202],[85.6162595,19.8161846],[85.6164708,19.8161175],[85.6166383,19.8160633],[85.6169013,19.8159783],[85.617411,19.815874],[85.6175774,19.8158541],[85.6177253,19.815864],[85.6179472,19.8159311],[85.6182271,19.8160355],[85.6184305,19.8161523],[85.618523,19.8162343],[85.6186444,19.8164032],[85.6187263,19.8165846],[85.6187844,19.8167983],[85.618832,19.8171114],[85.6188399,19.8173574],[85.6188478,19.8175363],[85.6188769,19.8177276],[85.6189614,19.8180581],[85.6190802,19.8183662],[85.6193232,19.818729],[85.6194421,19.8188979],[85.6195213,19.8189874],[85.619619,19.819057],[85.6197273,19.8190917],[85.6201367,19.8191837],[85.6204986,19.8192508],[85.6205936,19.8192483],[85.6208181,19.8192359],[85.620966,19.8192334],[85.6211087,19.8192557],[85.6212214,19.8193002],[85.6212972,19.8193087],[85.621455,19.8193002],[85.6220102,19.8191575],[85.6222529,19.8190633],[85.622353,19.8190319],[85.6223979,19.8190254],[85.6224319,19.8190205],[85.6225259,19.8190205],[85.6229386,19.8190376],[85.6233997,19.8190176],[85.6238478,19.8189826],[85.6238848,19.8189851],[85.6239112,19.8190025],[85.6239218,19.8190398],[85.6239456,19.819246],[85.6239799,19.8193876],[85.6240406,19.8195367],[85.6240723,19.8196957],[85.624104,19.8200386],[85.6241357,19.8201952],[85.624207,19.8204486],[85.6242731,19.8206225],[85.6242995,19.8206871],[85.62431,19.8207368],[85.6243127,19.8208238],[85.6243259,19.8209729],[85.6243497,19.8210946],[85.6243919,19.8212238],[85.6244659,19.8213307],[85.6246006,19.8214301],[85.6247854,19.8215543],[85.6248726,19.8216239],[85.625076,19.82184],[85.625319,19.8221109],[85.6255329,19.8223295],[85.6256676,19.8224935],[85.6257574,19.8226128],[85.6258314,19.8227445],[85.6259185,19.8228936],[85.6259977,19.8230302],[85.6260736,19.8231587]]}},{"type":"Feature","properties":{"id":866135341,"highway":"unclassified"},"geometry":{"type":"LineString","coordinates":[[85.5990242,19.8393111],[85.5989304,19.8393151],[85.5987674,19.8393542],[85.5985459,19.8393951],[85.598394,19.8394043],[85.5982564,19.8393933],[85.5981016,19.8393759],[85.5978645,19.8393384]]}},{"type":"Feature","properties":{"id":867170601,"highway":"residential"},"geometry":{"type":"LineString","coordinates":[[85.5863103,19.8631237],[85.5857902,19.8632201],[85.5856949,19.8632299],[85.5856216,19.8632224],[85.5855682,19.8632072],[85.5855206,19.8631645],[85.5854756,19.8630988],[85.58543,19.8629878],[85.5853696,19.8628364],[85.5853374,19.8627544],[85.5852932,19.86268],[85.5852228,19.8626056],[85.5851644,19.8625554]]}},{"type":"Feature","properties":{"id":867170602,"highway":"residential"},"geometry":{"type":"LineString","coordinates":[[85.5852649,19.8624944],[85.5851644,19.8625554],[85.5845821,19.8627995],[85.5844043,19.8628712],[85.58434,19.8628847],[85.5842971,19.8628813],[85.5842685,19.8628612],[85.5842471,19.8628309],[85.584222,19.8627973],[85.5841434,19.8626762],[85.5841041,19.8626292],[85.5840576,19.8625989],[85.5840147,19.8625787],[85.5839754,19.8625686],[85.5839325,19.8625686],[85.5839003,19.862572],[85.5838538,19.8625888],[85.5836644,19.8626527],[85.5836072,19.8626628],[85.5835678,19.8626628],[85.5835285,19.862646],[85.5835035,19.8626157],[85.5834642,19.8625182],[85.583156,19.861645]]}},{"type":"Feature","properties":{"id":867170603,"highway":"residential"},"geometry":{"type":"LineString","coordinates":[[85.5864865,19.8622396],[85.5866719,19.8621984],[85.5868095,19.8621646],[85.5868967,19.8621297],[85.5869756,19.8620739],[85.5870497,19.862004],[85.5871997,19.8618287],[85.5876134,19.8612449]]}},{"type":"Feature","properties":{"id":867170604,"highway":"residential"},"geometry":{"type":"LineString","coordinates":[[85.5866719,19.8621984],[85.58689,19.8627105],[85.5869155,19.8627667],[85.5869303,19.8627922],[85.5869451,19.8628084],[85.5869648,19.8628154],[85.5870017,19.8628154],[85.5872036,19.8628015],[85.5872356,19.8627991],[85.5872627,19.8628061],[85.5872873,19.8628223],[85.5873169,19.8628686],[85.5873489,19.8629589],[85.5873637,19.8629844],[85.5873858,19.8630029],[85.5874178,19.8630076],[85.5874695,19.8630029],[85.5877035,19.8629612]]}},{"type":"Feature","properties":{"id":867175481,"highway":"unclassified"},"geometry":{"type":"LineString","coordinates":[[85.577075,19.8403964],[85.5771239,19.840356],[85.5774005,19.8402087],[85.5774307,19.8401813],[85.5774249,19.8401395],[85.5774103,19.8400947],[85.5773194,19.8399177],[85.5772094,19.8397043],[85.5771716,19.839619],[85.577158,19.8395412],[85.5771796,19.8394777],[85.5772203,19.8394141],[85.5776616,19.8388422],[85.5781566,19.83818],[85.5782012,19.8381112],[85.5782219,19.8380527],[85.5782291,19.8380001],[85.5782165,19.8379478],[85.5781802,19.8379011],[85.5780594,19.8377688],[85.5780226,19.8377026],[85.5780033,19.8376452],[85.5780011,19.837585],[85.5780167,19.8373806],[85.5780126,19.8372093],[85.5779812,19.8369132],[85.5779589,19.8367478],[85.5779103,19.8366084],[85.5775716,19.836024],[85.5772096,19.8353921],[85.5763722,19.8339319],[85.5754334,19.8324029],[85.5746542,19.8312409],[85.5741999,19.8305982],[85.5734983,19.8296868],[85.5719085,19.8275779],[85.5717641,19.827407],[85.5716997,19.8273061],[85.5715656,19.8270184],[85.5715174,19.8268771],[85.5714533,19.8266212],[85.5713276,19.8260507],[85.5712491,19.8255799],[85.5712486,19.8252465],[85.5713088,19.824691],[85.5714238,19.8241917],[85.5716024,19.8237357],[85.5718082,19.8232713],[85.5720645,19.8227189],[85.5722439,19.8223241],[85.5724519,19.821937],[85.5727544,19.8214878],[85.5730569,19.8210385],[85.5737114,19.8201251],[85.5743247,19.8191832],[85.5746428,19.8188354],[85.5748071,19.8186763],[85.5750081,19.8185743],[85.5753143,19.8184951],[85.5760067,19.8184144],[85.5777025,19.8183033],[85.578475,19.8182478],[85.5793354,19.8181896],[85.5807656,19.8180662],[85.582413,19.8179775],[85.5826157,19.8179579],[85.5827771,19.8179235],[85.582949,19.8178738],[85.5831288,19.8178079]]}},{"type":"Feature","properties":{"id":867183298,"highway":"residential"},"geometry":{"type":"LineString","coordinates":[[85.578825,19.8107328],[85.5794481,19.8106554],[85.579656,19.8106212],[85.5798377,19.8105763],[85.5799621,19.8105161],[85.5800681,19.810407],[85.5801642,19.8103017],[85.5802779,19.8102305],[85.5804301,19.8102005],[85.5806068,19.8101891],[85.5808621,19.8102795]]}},{"type":"Feature","properties":{"id":867183299,"highway":"residential"},"geometry":{"type":"LineString","coordinates":[[85.5783216,19.8118042],[85.5782034,19.8118614],[85.5780739,19.8119041],[85.5778847,19.811967],[85.5777258,19.8119981],[85.5775679,19.8119841],[85.5774359,19.8119442],[85.5773366,19.8118776],[85.5772904,19.8118202],[85.5772413,19.8117593],[85.5771577,19.8115979],[85.5770991,19.8114019],[85.5770908,19.8112585],[85.5771198,19.8111256],[85.5775002,19.8102688],[85.5775381,19.8101046],[85.5775499,19.8100114],[85.5775536,19.8099181],[85.5775257,19.8097282],[85.5774612,19.8095582],[85.5773677,19.8093352],[85.5770911,19.8086691],[85.5769033,19.808264],[85.5767823,19.8080541],[85.5765036,19.8077437],[85.576289,19.8075141],[85.5761184,19.8073584],[85.5759601,19.8072667],[85.5757855,19.8072121],[85.5755299,19.8071633],[85.5747977,19.8070069],[85.5742773,19.8069286],[85.5739421,19.8068605],[85.5730741,19.8066247],[85.572738,19.8065702],[85.5725255,19.8065667],[85.5723055,19.8066128],[85.5720023,19.8067097],[85.5716152,19.8068695],[85.5709397,19.807202],[85.5690304,19.8079662],[85.5680662,19.8083153],[85.5676107,19.8084405],[85.5673304,19.8084985],[85.566721,19.8085272],[85.5652599,19.8085041],[85.5649613,19.808496],[85.5647736,19.808472],[85.5646286,19.8084077],[85.5644494,19.8082954],[85.5641764,19.8080546],[85.5639632,19.8077977],[85.5637499,19.8074766],[85.5631612,19.8064974],[85.5622654,19.804884],[85.5622142,19.8047636],[85.5621971,19.8046512],[85.5622142,19.8045308],[85.5622654,19.8043622],[85.5623678,19.8040893],[85.5629999,19.8023949],[85.5631094,19.8020373],[85.5632107,19.8016388],[85.5632799,19.8012338],[85.5633302,19.8008205],[85.563418,19.8001985],[85.5634606,19.7999594],[85.5635305,19.7997712],[85.5636318,19.7996806],[85.5637912,19.7996357],[85.5640136,19.7996104],[85.5652033,19.7996498],[85.5664866,19.7996548],[85.5666357,19.7996599],[85.5667537,19.7997154],[85.5668278,19.7998304],[85.5668918,19.8000413],[85.5668557,19.8010127],[85.5668825,19.8011843],[85.5669522,19.8012903],[85.5670981,19.8013811],[85.567405,19.801472],[85.5678213,19.8015427],[85.5681378,19.8015527],[85.568377,19.8015235],[85.5685765,19.801461],[85.5687318,19.8013881],[85.5688138,19.8013325],[85.5688779,19.8012722],[85.5689788,19.8011557],[85.5690338,19.8010911],[85.5690888,19.8010436],[85.5691575,19.8010048],[85.5692538,19.8009832],[85.5695561,19.8009594],[85.5698542,19.8009358],[85.5699,19.8009444],[85.5699367,19.8009574],[85.5699734,19.8009832],[85.5700238,19.8010695],[85.570065,19.8011342],[85.5700879,19.8011644],[85.5701292,19.8011773],[85.5701796,19.8011773],[85.5702438,19.8011557],[85.5704963,19.8010917],[85.5707329,19.8010689],[85.5710072,19.8010646],[85.5712625,19.8010815]]}},{"type":"Feature","properties":{"id":867183300,"highway":"residential"},"geometry":{"type":"LineString","coordinates":[[85.5705359,19.8029883],[85.5705048,19.8027636],[85.5704788,19.8026318],[85.5704321,19.802539],[85.5703491,19.8024414],[85.5702142,19.80229],[85.5701052,19.8021533],[85.5700429,19.8020458],[85.5697462,19.8013836],[85.5695561,19.8009594]]}},{"type":"Feature","properties":{"id":867183301,"highway":"residential"},"geometry":{"type":"LineString","coordinates":[[85.5697462,19.8013836],[85.5700344,19.8012794],[85.5700728,19.8012613],[85.5700901,19.8012468],[85.5701054,19.8012251],[85.5701292,19.8011773]]}},{"type":"Feature","properties":{"id":867187916,"highway":"residential"},"geometry":{"type":"LineString","coordinates":[[85.5869843,19.8036651],[85.5869769,19.8036177],[85.5869608,19.8035824],[85.586928,19.8035401],[85.5868328,19.8034379],[85.5867047,19.8033061],[85.5865793,19.8031767],[85.5862991,19.8027682],[85.5859445,19.8021443],[85.5857451,19.801773],[85.5856325,19.8016254],[85.5855373,19.8014853],[85.5854715,19.8013957],[85.5853857,19.801325],[85.5852584,19.8012301],[85.5851081,19.8011181],[85.5850223,19.8010399],[85.5849217,19.8008809],[85.5848412,19.800761],[85.5847862,19.8007068],[85.584744,19.800679],[85.5846367,19.8006134],[85.5845609,19.8005591],[85.5844201,19.8004102],[85.5843343,19.8003068],[85.5842753,19.8002386],[85.5841854,19.8001856],[85.5841304,19.8001617],[85.5840325,19.8001465],[85.5839065,19.8001352],[85.5834425,19.8001596],[85.5828379,19.8001939],[85.5826025,19.8002243],[85.5825104,19.8002424],[85.582394,19.8002899],[85.5822236,19.8003778],[85.5820131,19.8005348],[85.5814307,19.8009894],[85.5808246,19.8015471],[85.5805993,19.8017276],[85.5803673,19.8018903],[85.5802184,19.8019812],[85.5800186,19.802096],[85.5799608,19.802151],[85.5799316,19.8022162],[85.5799319,19.8023023],[85.5799357,19.802409],[85.579931,19.8024976],[85.5799005,19.8025646],[85.5798585,19.8026107],[85.5797674,19.802651],[85.5793816,19.8027143],[85.5792551,19.8027411],[85.5791844,19.8027774],[85.579043,19.8029168],[85.5789591,19.8029982],[85.5789149,19.8030184],[85.5788371,19.8030272],[85.5782555,19.8030507],[85.5779346,19.8030408],[85.5775884,19.8029944],[85.5772426,19.8029101],[85.5768767,19.8027662],[85.5765408,19.8025932],[85.5762563,19.8024292],[85.5760277,19.8022887],[85.5758706,19.8021995],[85.5756131,19.802072],[85.5753744,19.8019597],[85.5751571,19.8018361],[85.5747172,19.8015799],[85.5744396,19.8014386],[85.5739246,19.8011774],[85.5737503,19.8010929],[85.573635,19.8010361],[85.5735223,19.800968],[85.5733225,19.8008733],[85.5730999,19.8008052],[85.572495,19.8006475],[85.5717909,19.8004897],[85.5716702,19.8004582],[85.5715992,19.8004228],[85.5715321,19.8003635],[85.5714905,19.8002967],[85.571453,19.8002323]]}},{"type":"Feature","properties":{"id":867187921,"highway":"residential"},"geometry":{"type":"LineString","coordinates":[[85.5891914,19.8016966],[85.5883205,19.8015857],[85.5881058,19.8015584],[85.5875108,19.8015434],[85.5870718,19.8015525],[85.586712,19.801575],[85.5864079,19.8016157],[85.5860762,19.8016621],[85.5857451,19.801773]]}},{"type":"Feature","properties":{"id":867187923,"highway":"residential"},"geometry":{"type":"LineString","coordinates":[[85.5848309,19.8063365],[85.5846527,19.8062277],[85.5844821,19.8061252],[85.5842912,19.806049],[85.5841291,19.8060025],[85.5841016,19.8059861],[85.5841009,19.8059628],[85.584113,19.8058839],[85.5841197,19.8057565],[85.5841318,19.8056694],[85.5841479,19.8056038],[85.5842349,19.8051734]]}},{"type":"Feature","properties":{"id":867187925,"highway":"residential"},"geometry":{"type":"LineString","coordinates":[[85.5775257,19.8097282],[85.5776634,19.8097516],[85.5777583,19.8097782],[85.5778433,19.8098353],[85.5779648,19.809961],[85.5780579,19.8100981],[85.5781307,19.8102466],[85.5781757,19.8104149],[85.578236,19.8106807]]}},{"type":"Feature","properties":{"id":867187926,"highway":"residential"},"geometry":{"type":"LineString","coordinates":[[85.5780579,19.8100981],[85.5788908,19.8099536]]}},{"type":"Feature","properties":{"id":867187927,"highway":"residential"},"geometry":{"type":"LineString","coordinates":[[85.5779435,19.8093642],[85.5786035,19.8092564],[85.5787089,19.809244],[85.5787876,19.8092507],[85.5788591,19.8092608],[85.5789496,19.8092823]]}},{"type":"Feature","properties":{"id":867187928,"highway":"residential"},"geometry":{"type":"LineString","coordinates":[[85.5772904,19.8118202],[85.577599,19.8116361],[85.5776518,19.8115971],[85.577697,19.811544],[85.5777422,19.8114731],[85.5777723,19.8113845],[85.5778213,19.8109556],[85.5778288,19.8108918],[85.5778401,19.8108245],[85.5778514,19.8107784],[85.577874,19.81075],[85.5779155,19.8107181],[85.5779856,19.8107052],[85.5781631,19.8106883],[85.578236,19.8106807],[85.5783534,19.8106769],[85.5784505,19.8106845],[85.5785274,19.8107112],[85.5785872,19.8107574],[85.5786632,19.8108189]]}},{"type":"Feature","properties":{"id":867200666,"highway":"residential"},"geometry":{"type":"LineString","coordinates":[[85.584864,19.8621011],[85.5851644,19.8625554]]}},{"type":"Feature","properties":{"id":867200667,"highway":"residential"},"geometry":{"type":"LineString","coordinates":[[85.584923,19.863317],[85.5852409,19.8632413],[85.5855206,19.8631645]]}},{"type":"Feature","properties":{"id":867658010,"highway":"unclassified"},"geometry":{"type":"LineString","coordinates":[[85.5867818,19.8040657],[85.5867335,19.8042183]]}},{"type":"Feature","properties":{"id":867658011,"highway":"unclassified"},"geometry":{"type":"LineString","coordinates":[[85.5867335,19.8042183],[85.5865739,19.8048505],[85.5865377,19.8049477],[85.58648,19.8050801]]}},{"type":"Feature","properties":{"id":867658013,"highway":"residential"},"geometry":{"type":"LineString","coordinates":[[85.5841016,19.8059861],[85.5838324,19.805992],[85.5833955,19.8060209],[85.583073,19.8060601]]}},{"type":"Feature","properties":{"id":868937247,"highway":"tertiary"},"geometry":{"type":"LineString","coordinates":[[85.5997924,19.8360892],[85.5997811,19.8360462],[85.5996926,19.835857],[85.5996052,19.8356044],[85.5995799,19.8354969],[85.5995539,19.835356],[85.5995466,19.8352299],[85.5995712,19.8350777],[85.5996251,19.834914],[85.5997348,19.8346743],[85.5998121,19.8345029],[85.5998912,19.834356],[85.5999957,19.8342253],[85.6002094,19.8339762],[85.60039,19.8337961],[85.6004847,19.8337324],[85.6006104,19.8336845],[85.6007892,19.8336361],[85.6011299,19.8335932],[85.6014132,19.83359],[85.6014669,19.833585],[85.6015219,19.8335585]]}},{"type":"Feature","properties":{"id":868938462,"highway":"residential"},"geometry":{"type":"LineString","coordinates":[[85.5968564,19.8274163],[85.5962327,19.8283765],[85.5959783,19.8288072],[85.5959124,19.8289629],[85.5958719,19.8291026],[85.595845,19.8292539],[85.5958358,19.8293584],[85.5958417,19.8294891],[85.595865,19.8295898],[85.5958895,19.8297046],[85.5959473,19.8299383]]}},{"type":"Feature","properties":{"id":868938463,"highway":"residential"},"geometry":{"type":"LineString","coordinates":[[85.5905849,19.8250097],[85.5906852,19.8256269],[85.5907136,19.8258207],[85.5907756,19.8260531],[85.5908307,19.8261838],[85.5909028,19.8262987],[85.5909816,19.8263807],[85.5910694,19.8264606],[85.591381,19.8267423],[85.5915368,19.8268897],[85.5916741,19.8270058],[85.5918379,19.8271042],[85.5919548,19.8271526],[85.592199,19.8272372],[85.5927118,19.8274282],[85.5935973,19.8277956],[85.5937136,19.827833],[85.5938535,19.8278566],[85.5940981,19.8278697],[85.5944217,19.8278452],[85.5947453,19.8278208],[85.5950832,19.8277956],[85.5954855,19.8277568],[85.595928,19.8276886],[85.5962942,19.827605],[85.5965986,19.8275044],[85.5968564,19.8274163],[85.5969785,19.8273727],[85.5970918,19.8273439],[85.5972583,19.8273151],[85.5974034,19.8273091],[85.5975336,19.8273135],[85.5975723,19.8273168],[85.5976076,19.8273134],[85.5976316,19.8272988],[85.5976406,19.8272753],[85.597644,19.8272451],[85.5976417,19.8272084],[85.5976276,19.8271692],[85.5975252,19.8269981],[85.5974694,19.8268896],[85.5974503,19.8268225],[85.5974373,19.8267516],[85.597405,19.8262126],[85.5973864,19.8254321],[85.5973889,19.8250078],[85.5973899,19.82485],[85.597405,19.824254]]}},{"type":"Feature","properties":{"id":868938464,"highway":"residential"},"geometry":{"type":"LineString","coordinates":[[85.5967851,19.8296347],[85.5978283,19.8295698]]}},{"type":"Feature","properties":{"id":868938465,"highway":"residential"},"geometry":{"type":"LineString","coordinates":[[85.5973889,19.8250078],[85.5972735,19.8249771],[85.5971566,19.8249362],[85.597099,19.8249075],[85.5970626,19.8248709],[85.5970247,19.8247979],[85.5970087,19.8247274],[85.5969985,19.824643],[85.5970004,19.8245616],[85.5970123,19.8244795],[85.5970949,19.8241802]]}},{"type":"Feature","properties":{"id":868938466,"highway":"residential"},"geometry":{"type":"LineString","coordinates":[[85.5977964,19.8242985],[85.597842,19.8241144],[85.597856,19.8240682],[85.5978735,19.8240319],[85.5979051,19.8239824],[85.5979331,19.8239198],[85.5979542,19.8238571],[85.5979647,19.8237911],[85.5979755,19.8236819],[85.5979717,19.8235701],[85.5979612,19.8234745],[85.5979261,19.8233491],[85.5978875,19.82327],[85.5978349,19.8232007],[85.5977894,19.8231677],[85.5977473,19.8231512],[85.5975965,19.8231479]]}},{"type":"Feature","properties":{"id":868945474,"highway":"residential"},"geometry":{"type":"LineString","coordinates":[[85.587084,19.8024436],[85.5872661,19.8026507],[85.5873519,19.8027472],[85.5873934,19.8028448],[85.5874053,19.802905],[85.5874067,19.8029993],[85.587383,19.8030601],[85.5873312,19.8031214],[85.5868328,19.8034379]]}},{"type":"Feature","properties":{"id":868945475,"highway":"residential"},"geometry":{"type":"LineString","coordinates":[[85.597157,19.803527],[85.5971752,19.8033066],[85.5971702,19.8031481],[85.5971381,19.8030104],[85.5971059,19.8029035],[85.597021,19.8027109],[85.5969842,19.8026357],[85.5969294,19.8025667],[85.5968101,19.8024549],[85.5965667,19.8022402],[85.5963963,19.8020597],[85.5963209,19.8019526],[85.5962647,19.8018186],[85.5962121,19.8016258],[85.5960313,19.800919],[85.5959574,19.800689],[85.5959218,19.8005098],[85.5959015,19.8003139],[85.5959033,19.8001368],[85.5959411,19.7999075],[85.5960059,19.7997688],[85.5960776,19.799692],[85.5961615,19.7996451],[85.5962563,19.7996444],[85.596367,19.7996773],[85.5972121,19.7998945]]}},{"type":"Feature","properties":{"id":868945477,"highway":"residential"},"geometry":{"type":"LineString","coordinates":[[85.5969842,19.8026357],[85.598153,19.8021133]]}},{"type":"Feature","properties":{"id":868946072,"highway":"residential"},"geometry":{"type":"LineString","coordinates":[[85.5960313,19.800919],[85.5963278,19.800882],[85.5965481,19.800849],[85.5967355,19.8008057],[85.5973183,19.8005853]]}},{"type":"Feature","properties":{"id":868951743,"highway":"unclassified"},"geometry":{"type":"LineString","coordinates":[[85.6019265,19.802999],[85.601837,19.8029654],[85.6016921,19.8029181],[85.6014535,19.8028506],[85.6011801,19.8027907],[85.6008714,19.802737],[85.6005979,19.8026985],[85.6001151,19.8026783],[85.5996707,19.8026884],[85.5992267,19.8027793],[85.5986234,19.8029715],[85.5985234,19.8029839],[85.5984342,19.802988],[85.598368,19.8030176],[85.5983112,19.8030711],[85.5982638,19.8031245],[85.5982165,19.8031721],[85.5981596,19.8032166],[85.5980858,19.8032526],[85.5978326,19.8033327],[85.5975991,19.8034128],[85.5973026,19.8034987],[85.597157,19.803527],[85.5970305,19.8035516],[85.5969138,19.8035885],[85.5968205,19.8036586],[85.5967398,19.8037545],[85.5965807,19.8040105],[85.5955566,19.8056695],[85.5954308,19.8058592],[85.5953352,19.8059584],[85.5952263,19.806035],[85.5951101,19.8060603],[85.594978,19.8060411],[85.5948554,19.8060058],[85.5939353,19.8057776],[85.5936992,19.8057221],[85.5928986,19.8055228],[85.5924854,19.8054142],[85.5919841,19.8052426],[85.5916608,19.8051265],[85.5914784,19.805076],[85.591185,19.8050089],[85.5908681,19.8049861],[85.5905178,19.8049712],[85.5901748,19.8049498],[85.5899242,19.8049069],[85.5896266,19.8048308],[85.5891905,19.8046974],[85.5887067,19.8044989],[85.5875919,19.8039762],[85.5872679,19.8037927],[85.5870567,19.8036714],[85.5870152,19.8036613],[85.5869843,19.8036651],[85.5869441,19.8037035],[85.5868851,19.8037868],[85.5868354,19.803913],[85.5867818,19.8040657]]}},{"type":"Feature","properties":{"id":868963396,"highway":"residential"},"geometry":{"type":"LineString","coordinates":[[85.5937168,19.8535224],[85.5936117,19.8534593],[85.5934967,19.8533867],[85.5933666,19.8533594],[85.5932164,19.8533594],[85.5930412,19.8533963],[85.5928296,19.8534862],[85.5903255,19.85451],[85.5893214,19.8548668]]}},{"type":"Feature","properties":{"id":868963397,"highway":"residential"},"geometry":{"type":"LineString","coordinates":[[85.5903255,19.85451],[85.5906356,19.8550912],[85.5906849,19.8551682],[85.5907874,19.8552577],[85.5909029,19.8553012],[85.591033,19.8552967],[85.5911939,19.8552563],[85.5913549,19.855216],[85.5914568,19.8552109],[85.591548,19.8552495],[85.5916122,19.8553303],[85.591662,19.8554276],[85.5917366,19.8555872],[85.5917879,19.8556555],[85.5918434,19.8556863],[85.5919487,19.8557068],[85.5920407,19.8557066],[85.5927258,19.8555588]]}},{"type":"Feature","properties":{"id":868963398,"highway":"residential"},"geometry":{"type":"LineString","coordinates":[[85.5998489,19.8488685],[85.5996746,19.8485626],[85.5993435,19.8477555]]}},{"type":"Feature","properties":{"id":868963399,"highway":"residential"},"geometry":{"type":"LineString","coordinates":[[85.5955584,19.8475724],[85.5968984,19.847799],[85.5972124,19.8478809],[85.5974811,19.8479559],[85.5977195,19.8480418],[85.5983793,19.8483164],[85.5988812,19.8485059],[85.5990145,19.848544],[85.5991495,19.8485564],[85.5993544,19.8485622],[85.5996746,19.8485626]]}},{"type":"Feature","properties":{"id":868963401,"highway":"residential"},"geometry":{"type":"LineString","coordinates":[[85.5976865,19.8495267],[85.5973113,19.8488976],[85.5972741,19.8488247],[85.5972586,19.848784],[85.5972586,19.8487519],[85.597271,19.8487257],[85.597302,19.8487024],[85.5974079,19.8486697],[85.5975359,19.8486416],[85.5976191,19.8486247],[85.5977225,19.8486169],[85.597846,19.8486177],[85.5979921,19.8486245],[85.5981383,19.8486396],[85.5982389,19.848656],[85.5983152,19.8486812],[85.59837,19.8487144],[85.5984193,19.8487575],[85.5984615,19.8488049],[85.5985697,19.8489712],[85.5986506,19.8491518]]}},{"type":"Feature","properties":{"id":868963402,"highway":"residential"},"geometry":{"type":"LineString","coordinates":[[85.5983793,19.8483164],[85.5983475,19.8485412],[85.5983341,19.8486182],[85.5983152,19.8486812]]}},{"type":"Feature","properties":{"id":868963403,"highway":"residential"},"geometry":{"type":"LineString","coordinates":[[85.5963853,19.8459231],[85.5950309,19.8460486],[85.5948431,19.8460839],[85.5946488,19.8461376],[85.5944563,19.8461977],[85.5942572,19.8462762],[85.5933891,19.8466187],[85.5918938,19.8472904],[85.5915635,19.8474041],[85.5913134,19.8474707],[85.5911035,19.847522],[85.5908942,19.8475825],[85.5905438,19.8477118],[85.5900742,19.8478976],[85.5898414,19.8479788],[85.5896739,19.8480724],[85.5894992,19.8481123],[85.5893062,19.8481275],[85.5891132,19.8481426],[85.5889627,19.8481931],[85.5888547,19.8482828],[85.5887143,19.8484367],[85.5885673,19.8485967],[85.5883989,19.848745],[85.5881374,19.8489219],[85.5873576,19.8493388]]}},{"type":"Feature","properties":{"id":868965734,"highway":"unclassified"},"geometry":{"type":"LineString","coordinates":[[85.5942723,19.8504485],[85.5943825,19.8504529],[85.5944851,19.8504554],[85.5945434,19.8504523],[85.5945991,19.8504359],[85.5947201,19.8503891],[85.5947815,19.8503419],[85.5948143,19.8503362],[85.5948532,19.8503457],[85.5949256,19.8503813],[85.5949954,19.8503987],[85.5950826,19.8504069],[85.5951966,19.8504037],[85.595507,19.8503552],[85.5956089,19.8503362],[85.5956411,19.8503413],[85.5956666,19.8503507],[85.5957142,19.8504034],[85.5957558,19.8504491],[85.5957974,19.8504674],[85.5958363,19.85047],[85.5958973,19.8504611],[85.5960097,19.8504352],[85.5963761,19.8503627],[85.5965638,19.8503123],[85.5968369,19.8502211],[85.5970689,19.8500981],[85.5972556,19.8499513],[85.5974581,19.8497608],[85.5976865,19.8495267],[85.5977609,19.8494648],[85.5978566,19.8493902],[85.5979565,19.8493331],[85.5982495,19.8492404],[85.5984501,19.8491961],[85.5986506,19.8491518],[85.5989101,19.8491179],[85.5992361,19.8490654],[85.5994749,19.8489954],[85.5996619,19.848932],[85.5998489,19.8488685],[85.5999177,19.8488636],[85.5999823,19.8488705],[85.6000426,19.8488894],[85.6000923,19.848931],[85.600139,19.8489934],[85.6002438,19.8491572],[85.6003971,19.8495769]]}},{"type":"Feature","properties":{"id":869027376,"highway":"tertiary"},"geometry":{"type":"LineString","coordinates":[[85.5997924,19.8360892],[85.5995061,19.836701],[85.5992845,19.8372308],[85.5992092,19.8374174],[85.5991507,19.8375229],[85.5990812,19.8375992],[85.5989779,19.8376881],[85.5980642,19.8383487],[85.5976871,19.8386598],[85.5976399,19.8387089],[85.5976188,19.8387641],[85.5976166,19.8388214],[85.5976358,19.8389003],[85.5976961,19.8390157],[85.5977764,19.8391725],[85.5978645,19.8393384],[85.5979251,19.8396109],[85.597947,19.8398471],[85.597918,19.8400819],[85.5978683,19.8403195],[85.5975831,19.8414287],[85.597403,19.8421189],[85.5970739,19.8433796],[85.5967623,19.8447548],[85.5966801,19.8451177],[85.5965419,19.8455584],[85.5963853,19.8459231],[85.5961803,19.8463376],[85.5956363,19.8474258],[85.5955584,19.8475724],[85.5954171,19.8478385],[85.5951481,19.8482969],[85.5948811,19.8486526],[85.5946043,19.8490355],[85.5944583,19.8493411],[85.5943412,19.8496922],[85.5942787,19.8500386],[85.5942729,19.8503462],[85.5942723,19.8504485],[85.5942709,19.8506729],[85.5943996,19.8518609],[85.5944035,19.8520866],[85.5943478,19.8523124],[85.5941954,19.8526381],[85.5939864,19.8530306],[85.5938361,19.8532911],[85.5937168,19.8535224],[85.5935894,19.8537038],[85.5928877,19.8547576],[85.5927506,19.8549654],[85.5926815,19.8551594],[85.5926778,19.85533],[85.5927258,19.8555588],[85.593006,19.8565131],[85.5932092,19.8571965],[85.5934075,19.8576428],[85.5939282,19.8585576],[85.5942331,19.8591614]]}}]}