{"type":"FeatureCollection","features":[{"type":"Feature","properties":{"id":289981517,"highway":"unclassified"},"geometry":{"type":"LineString","coordinates":[[85.4002169,19.8948188],[85.4004621,19.8949199],[85.4007304,19.895041],[85.4009825,19.8951873],[85.4015565,19.895505],[85.40205,19.895732],[85.4025167,19.8959742],[85.4029244,19.8962465],[85.4033804,19.8963827],[85.4035915,19.8965469],[85.4037377,19.8966029],[85.4038812,19.8966579],[85.4039992,19.8968495],[85.4042996,19.897011],[85.4045464,19.8970917],[85.4051258,19.8972228],[85.4053725,19.897132],[85.4056086,19.8969706],[85.4061665,19.8967588],[85.406341,19.8967177],[85.4066814,19.8966377],[85.4068746,19.8965469],[85.4067995,19.8964057],[85.4067244,19.8962745],[85.4066972,19.8961303]]}},{"type":"Feature","properties":{"id":289982833,"highway":"unclassified"},"geometry":{"type":"LineString","coordinates":[[85.4068746,19.8965469],[85.406955,19.8965482],[85.4071616,19.896528],[85.4073493,19.8964599],[85.4075612,19.8963313],[85.4077221,19.8961396]]}},{"type":"Feature","properties":{"id":289989628,"highway":"unclassified"},"geometry":{"type":"LineString","coordinates":[[85.4009954,19.8908931],[85.4010236,19.8908957],[85.4013884,19.8907859],[85.4016761,19.8906825],[85.4023842,19.8903596],[85.4031996,19.8898552],[85.4061178,19.8888463],[85.4067401,19.8888463],[85.407019,19.8889472],[85.4074482,19.8894113],[85.4079632,19.8905816],[85.4081348,19.8911466],[85.4081348,19.8915299],[85.4082207,19.8922563],[85.4087786,19.8933862],[85.4089717,19.8940924],[85.4092935,19.8951215],[85.4092935,19.8954241],[85.4088215,19.8956461],[85.4083709,19.8958277],[85.4077221,19.8961396],[85.4076041,19.8960715]]}},{"type":"Feature","properties":{"id":289989809,"highway":"secondary"},"geometry":{"type":"LineString","coordinates":[[85.4009954,19.8908931],[85.4009747,19.8909763],[85.4008607,19.8918326],[85.4007875,19.8922714],[85.400689,19.8928616],[85.4003028,19.8943346],[85.4002169,19.8948188],[85.4000667,19.8955654],[85.3999112,19.8969122]]}},{"type":"Feature","properties":{"id":561545967,"highway":"unclassified"},"geometry":{"type":"LineString","coordinates":[[85.4005508,19.8922424],[85.4007875,19.8922714]]}},{"type":"Feature","properties":{"id":746551619,"highway":"unclassified"},"geometry":{"type":"LineString","coordinates":[[85.4025633,19.8840155],[85.4015779,19.8832067],[85.4014331,19.8832067],[85.4011542,19.8832824],[85.4003388,19.8832067],[85.39918,19.8829646]]}},{"type":"Feature","properties":{"id":746551620,"highway":"secondary"},"geometry":{"type":"LineString","coordinates":[[85.4009954,19.8908931],[85.4012936,19.8894569],[85.4019481,19.886067],[85.4022646,19.8846999],[85.4024913,19.8841806],[85.4025633,19.8840155],[85.4031014,19.882783],[85.4051185,19.8786059],[85.4060411,19.8767646],[85.4068887,19.8749535],[85.407747,19.8740126]]}},{"type":"Feature","properties":{"id":746551621,"highway":"unclassified"},"geometry":{"type":"LineString","coordinates":[[85.4000527,19.8914392],[85.400278,19.8912677],[85.4004362,19.8911895],[85.4006427,19.8910483],[85.4008198,19.8909549],[85.4009954,19.8908931]]}}]}