{"type":"FeatureCollection","features":[{"type":"Feature","properties":{"id":865248657,"highway":"tertiary"},"geometry":{"type":"LineString","coordinates":[[86.0239494,19.8889895],[86.0239636,19.8892391],[86.0239599,19.8893133],[86.0239565,19.8893822],[86.0239282,19.8896152],[86.0238715,19.8898848],[86.0237335,19.8903773],[86.0236946,19.8904639],[86.0236167,19.8905437],[86.0234787,19.8906236],[86.0230717,19.8908499],[86.0227248,19.8910396],[86.0226535,19.8910684],[86.0226029,19.8910715],[86.0225479,19.8910696],[86.0223603,19.891033],[86.0223225,19.8910197],[86.022247,19.890993],[86.0220276,19.8908699],[86.0219179,19.8908266],[86.0218294,19.8908033],[86.0216808,19.8908033],[86.021433,19.8908433],[86.0212631,19.8909098],[86.0211747,19.8909712],[86.0211003,19.891023],[86.0209274,19.8911279],[86.0207429,19.891216],[86.0202722,19.8914323],[86.019621,19.8917518],[86.0195643,19.8918151],[86.0195457,19.8918574],[86.0195554,19.8919105],[86.0195808,19.891961],[86.0197554,19.892181],[86.0199006,19.8923609],[86.0200669,19.8926138],[86.0201306,19.8927469],[86.0201448,19.8928467],[86.0201448,19.8930431],[86.0201528,19.893124],[86.0201669,19.8931797],[86.0202969,19.893326],[86.0205376,19.8936255],[86.0206579,19.8937986],[86.0208844,19.8941813],[86.0211499,19.8945507],[86.0211853,19.8946006],[86.0211994,19.8946605],[86.0211994,19.8947337],[86.0211817,19.8948003],[86.0211251,19.8949001],[86.021111,19.8949567],[86.0211145,19.8950233],[86.021157,19.8951131],[86.0213304,19.8953561],[86.02161,19.8957454],[86.0216554,19.8957811],[86.0217126,19.8958053],[86.0217905,19.895822],[86.0219037,19.895812],[86.0221302,19.8957454],[86.0222187,19.8957354],[86.022332,19.8957454],[86.0224382,19.895772],[86.0227496,19.8959251],[86.0228169,19.895995],[86.0228558,19.8960782],[86.0228735,19.8961947],[86.0228983,19.896391],[86.0229195,19.8965075],[86.022962,19.8966307],[86.0230823,19.8969202],[86.0231885,19.8972064],[86.0232097,19.8972863],[86.0232203,19.8973595],[86.0232132,19.8974294],[86.0231778,19.8975691],[86.0230288,19.8979335],[86.0230009,19.8980018],[86.0229266,19.8982414],[86.0229035,19.8983255],[86.0229009,19.8983865],[86.0229211,19.898433],[86.0231531,19.8987917],[86.0232054,19.8988985],[86.0232443,19.8990388],[86.0232818,19.8991659],[86.0233375,19.8994672],[86.0233857,19.8997642],[86.0234153,19.8998966],[86.0234669,19.9000593],[86.0237834,19.9010435],[86.0238022,19.9013714],[86.0237753,19.901553],[86.0237351,19.9017547],[86.0236006,19.902142],[86.023542,19.9023108],[86.023428,19.9026059],[86.0233502,19.9027888],[86.0232456,19.9029476],[86.0230874,19.9031154],[86.0227534,19.9033966],[86.0224322,19.9036822],[86.0223974,19.9037307],[86.0222813,19.9039161],[86.0221727,19.9040775],[86.0219964,19.9042629],[86.0218938,19.9043625],[86.0217825,19.9044974],[86.0215525,19.9047225],[86.021421,19.9048562],[86.0213191,19.9049482],[86.0212125,19.9050377],[86.0211354,19.9050819],[86.0210603,19.9051165],[86.0208765,19.9051973],[86.0207646,19.9052445],[86.0205681,19.9053126],[86.0204058,19.9053605],[86.0202657,19.9053971],[86.0201208,19.9054419],[86.0200511,19.9054721],[86.0198459,19.9055592],[86.0192518,19.9058114],[86.0184994,19.9061077],[86.0172535,19.9066322],[86.0169572,19.9067319],[86.0166407,19.9068],[86.0164475,19.906839],[86.0162558,19.9068491],[86.0160975,19.906863],[86.0158253,19.9068728],[86.0156107,19.9068693],[86.0153103,19.9068778],[86.0151011,19.9069131],[86.0146773,19.9070291],[86.0145566,19.907066],[86.0141382,19.9071833],[86.0136004,19.9073422],[86.0134569,19.907385],[86.0133335,19.9074191],[86.0131001,19.9074834],[86.012899,19.9075439],[86.0125798,19.9076423],[86.012278,19.9077356],[86.0116652,19.9079462],[86.011401,19.9080647],[86.0105091,19.908487],[86.0096508,19.9089208],[86.0081689,19.9096295],[86.0078564,19.909801],[86.0075721,19.9099662],[86.0071886,19.9102235],[86.0065985,19.910632],[86.0038304,19.9126344],[86.0036373,19.9128084],[86.00353,19.9129572],[86.0034791,19.9130959],[86.0034522,19.9132497],[86.0034603,19.9133934],[86.0034844,19.9135548],[86.0035488,19.9137036],[86.0059328,19.9181118],[86.0061264,19.9184698],[86.0061948,19.9186778],[86.0062122,19.9187939],[86.0062055,19.9189515],[86.0061385,19.9193398],[86.0059695,19.9198669],[86.0059333,19.9199375],[86.0058957,19.9199665],[86.0058501,19.9199879],[86.005775,19.9199992],[86.0035434,19.9202174],[86.0034335,19.9202527],[86.0033047,19.9203132],[86.0031143,19.9204342],[86.0024276,19.9208075],[86.0002068,19.9219536],[86.0001075,19.9220191],[85.9999761,19.922125],[85.9998849,19.9222347],[85.9998125,19.922381],[85.9997843,19.9224806],[85.9997669,19.922613],[85.9997669,19.9227038],[85.9997803,19.9228097],[85.9998178,19.9229345],[85.9998688,19.9230392],[85.9999466,19.9231501],[86.0005315,19.9236712],[86.0006185,19.9237628],[86.0008961,19.9239924],[86.0009504,19.9240264],[86.0010309,19.924063],[86.0011375,19.924102],[86.0011697,19.9241138],[86.0011871,19.9241247],[86.001224,19.9241582],[86.0014855,19.9245175],[86.0023532,19.9255854],[86.0026664,19.9260778],[86.0026998,19.9261402],[86.0028514,19.9264232],[86.0029346,19.9265569],[86.0031089,19.9267813],[86.0034576,19.9274016],[86.0035153,19.927476],[86.003585,19.927539],[86.0036615,19.9275895],[86.0038264,19.9277193],[86.0039002,19.9278126],[86.0040678,19.9281278],[86.0042354,19.9284619],[86.0043588,19.9287563],[86.0043709,19.9287888],[86.0043783,19.9288106],[86.0043823,19.9288295],[86.004381,19.9288492],[86.0043774,19.9288597],[86.0043716,19.9288709],[86.0043603,19.928883],[86.0043397,19.9288952]]}},{"type":"Feature","properties":{"id":866522621,"highway":"unclassified"},"geometry":{"type":"LineString","coordinates":[[86.0011764,19.9070862],[86.0012421,19.9074802],[86.0012622,19.9076782],[86.0012669,19.9078737],[86.0012736,19.9081757],[86.0012683,19.9083686],[86.0012669,19.9085016],[86.0012595,19.9085521],[86.0012448,19.9085893],[86.001227,19.908611],[86.0012012,19.9086403],[86.0010818,19.9087488],[86.0008854,19.9088862],[86.0006078,19.9090571],[86.0004596,19.9091479],[86.0004364,19.9091693],[86.0004106,19.9091951],[86.0004009,19.909215],[86.0003939,19.9092431],[86.0003885,19.9092885],[86.0003959,19.9093496],[86.0004663,19.9095835],[86.0005286,19.9097424],[86.000536,19.9097783],[86.00054,19.9098187],[86.000534,19.9098641],[86.0005078,19.9099353],[86.0004964,19.910004],[86.0005005,19.9100532],[86.0005125,19.9101037],[86.0005407,19.910156],[86.000817,19.9105601],[86.0009967,19.9109447],[86.0010195,19.9109731],[86.0010409,19.9109945],[86.0010678,19.9110122],[86.0011113,19.9110349],[86.0011536,19.9110695],[86.0011871,19.9111011],[86.0012153,19.9111307],[86.0012401,19.9111666],[86.0014962,19.9116035],[86.0015304,19.911666],[86.0015398,19.9117013],[86.0015438,19.9117397],[86.0015385,19.9117889],[86.0014956,19.9118564],[86.0014419,19.91191],[86.0010919,19.9121886],[86.0008699,19.9123645],[86.0006956,19.9125108],[86.0006037,19.9126035],[86.0005508,19.9126697],[86.0004629,19.9128273],[86.0001545,19.9135712],[86.0001223,19.9136998],[86.0001142,19.9138574],[86.0001169,19.9139949],[86.0001437,19.9142168],[86.0002282,19.9148372],[86.0002443,19.9149078],[86.0002859,19.9149973],[86.0003422,19.9150919],[86.001796,19.9173691],[86.0018617,19.91748],[86.0019287,19.9176023],[86.001973,19.9177158],[86.0020052,19.9178545],[86.0020012,19.9180045],[86.001981,19.9181369],[86.0019368,19.9183374],[86.0018818,19.9184912],[86.0018308,19.9185896],[86.0017571,19.9187094],[86.0016605,19.9188203],[86.0015398,19.9189325],[86.0014325,19.9190195],[86.0009591,19.9193058],[86.0003731,19.9196664],[85.9997052,19.9200825],[85.999331,19.9203006],[85.9988449,19.9205792],[85.9973033,19.9214555],[85.9971169,19.9215602],[85.9969774,19.9216661],[85.9968795,19.9217657],[85.9967065,19.9220141],[85.9966317,19.9221563],[85.9965603,19.9223331],[85.9965456,19.9224869],[85.9965549,19.922608],[85.9965751,19.9226773],[85.9966126,19.9227517],[85.9968393,19.9231123],[85.9970002,19.9233808],[85.9971169,19.9235347],[85.9978008,19.9243681],[85.9987865,19.9254562]]}},{"type":"Feature","properties":{"id":866539199,"highway":"unclassified"},"geometry":{"type":"LineString","coordinates":[[85.9999687,19.9268147],[85.9999583,19.9268673],[85.9999573,19.926905],[85.9999583,19.9269209],[85.9999654,19.9269417],[85.9999801,19.9269682],[86.0001525,19.9271923],[86.0006547,19.9277787],[86.0009263,19.9281474],[86.0010342,19.9283069],[86.0011201,19.9284512],[86.0012837,19.9287418],[86.0018268,19.9298249],[86.0018738,19.9299282],[86.0019086,19.9300392],[86.0019234,19.9301073],[86.0019287,19.9301842],[86.001922,19.9302964],[86.0019046,19.9304338],[86.0018603,19.9306406],[86.0012743,19.9332479],[86.0012495,19.9333103],[86.0012153,19.9333724],[86.0010048,19.9336536],[86.0009377,19.933732],[86.0008076,19.9339362],[86.0006292,19.9342149],[86.0002685,19.9347923],[85.9998769,19.9354151],[85.9998326,19.9355046],[85.999791,19.9356017],[85.9997521,19.9357227],[85.999736,19.9358475],[85.9997347,19.9359749],[85.9997454,19.9361173],[85.9997629,19.93629],[85.9997991,19.9364432],[85.9998259,19.936517],[85.9998581,19.9365882],[85.9999017,19.9366771],[86.0000069,19.9368536],[86.0006017,19.9376718],[86.0006309,19.9377054],[86.0007157,19.9378029],[86.0009632,19.9380727],[86.002323,19.9394103],[86.0035515,19.9406668],[86.0050133,19.9420805],[86.0050642,19.9421303],[86.0051233,19.9421826],[86.005191,19.9422387],[86.005303,19.94232],[86.0059614,19.9427814],[86.006231,19.942963],[86.0065167,19.9431559],[86.0078403,19.944027],[86.0080375,19.9441556],[86.0081381,19.9442035],[86.0082118,19.9442274],[86.0083406,19.9442564],[86.0086101,19.9442955],[86.0093343,19.9444014],[86.0095449,19.9444165],[86.0097581,19.9444191],[86.0098098,19.9444153],[86.009966,19.9444039],[86.0101859,19.9444027],[86.0102946,19.9444027],[86.010662,19.944438],[86.0107789,19.944453],[86.0111126,19.944496],[86.0116062,19.9445527],[86.0118006,19.9445766],[86.0118824,19.9445817],[86.0119696,19.9445792],[86.0120594,19.9445666],[86.0122257,19.9445325],[86.01238,19.9444783],[86.0134381,19.944114],[86.0140416,19.9438946],[86.0145566,19.9437572],[86.0151198,19.9435706],[86.0153612,19.9434962],[86.0156335,19.9434206],[86.0158561,19.9433828],[86.0160063,19.9433677],[86.0162464,19.9433777],[86.0166702,19.9434206],[86.0187751,19.9437751],[86.0201812,19.9440308],[86.02044,19.9440875],[86.0206385,19.9441392],[86.0208879,19.9442287],[86.0214794,19.9444489],[86.0220158,19.944691],[86.0225523,19.9449986],[86.0229385,19.9452911],[86.0236037,19.9458962],[86.0245532,19.9466778],[86.0264495,19.9481481],[86.0271348,19.9486687],[86.0273078,19.9487885],[86.0274352,19.9488591],[86.0276069,19.948936],[86.0278872,19.949057],[86.0280575,19.9491263],[86.0281567,19.9491704],[86.0282439,19.9492245],[86.0283056,19.9492839],[86.0283552,19.949357],[86.0283874,19.9494415],[86.0284169,19.9495423],[86.0284303,19.9496369],[86.028429,19.9497188],[86.0284142,19.9497982],[86.028378,19.9498524],[86.0283284,19.9499041],[86.0282466,19.9499508],[86.0281433,19.9499823],[86.0279945,19.9500138],[86.0278147,19.9500592],[86.0275975,19.950121],[86.0272126,19.9502231],[86.0269269,19.9503088],[86.0265139,19.9504159],[86.0262524,19.9505055],[86.0261504,19.9505433],[86.0260364,19.9505937],[86.0259372,19.9506441],[86.0258058,19.950716],[86.0256395,19.9508219],[86.0254598,19.9509467],[86.0253753,19.9510097],[86.0252398,19.9511421],[86.0249045,19.95149],[86.0245787,19.9518467],[86.0242099,19.9522653],[86.0236788,19.9529019],[86.0233703,19.9532523],[86.0231034,19.9535927],[86.022571,19.9542734],[86.0222787,19.9546793],[86.0219474,19.9551495],[86.0216752,19.9555542],[86.0213774,19.9559954],[86.0213131,19.9561013],[86.0210569,19.9565425],[86.020837,19.9569358],[86.0207699,19.9570656],[86.0206948,19.9572232],[86.0206559,19.9573253],[86.0206291,19.9574576],[86.0206197,19.9575623],[86.0206331,19.9577198],[86.0206814,19.9581547],[86.0207954,19.9589035],[86.0208678,19.9594493],[86.0209174,19.9597468],[86.021006,19.9604275],[86.0210502,19.9607262],[86.0210797,19.9609178],[86.021124,19.9611498],[86.0211655,19.9615103],[86.0211803,19.9616779],[86.0212071,19.9621204],[86.0212138,19.9623397],[86.0211991,19.9625011],[86.021179,19.9625969],[86.0211481,19.9626977],[86.0210985,19.9627973],[86.0210502,19.9628818],[86.0208356,19.9632007],[86.0205889,19.9635599],[86.0205097,19.9636696],[86.0204159,19.9638246],[86.0203488,19.9639431],[86.0199974,19.9647284],[86.0194167,19.9660166],[86.0193886,19.9660803],[86.0193644,19.9661553],[86.0193504,19.9662089],[86.0193309,19.966304],[86.0193081,19.9664603],[86.0193041,19.966633],[86.0193028,19.9667755],[86.0192907,19.9669129],[86.0192692,19.9670565],[86.0192534,19.9671687],[86.0192458,19.9673091],[86.0192365,19.9673488],[86.0192202,19.9673633],[86.0191932,19.9673686]]}},{"type":"Feature","properties":{"id":866539642,"highway":"unclassified"},"geometry":{"type":"LineString","coordinates":[[85.9983795,19.9253786],[85.9990346,19.9260614],[85.999162,19.9262278],[85.9996395,19.9268141],[85.9997401,19.9269477],[86.000597,19.9279652],[86.0006788,19.928061],[86.0007767,19.9282047],[86.000931,19.9284783],[86.0011361,19.9288212],[86.0016833,19.9299068],[86.0017209,19.9299976],[86.0017517,19.9301161],[86.0017584,19.9301741],[86.0017584,19.9302422],[86.0017531,19.9303216],[86.0017088,19.9305309],[86.0011643,19.9330575],[86.0011476,19.9331212],[86.0011288,19.9331836],[86.0011026,19.9332491],[86.001045,19.9333323],[86.0009001,19.9335189],[85.9999949,19.9349155],[85.9996267,19.935492],[85.9995946,19.9355563],[85.9995657,19.9356118],[85.9995369,19.9356887],[85.9995292,19.9357183],[85.9995228,19.9357649],[85.9995201,19.9358182],[85.9995208,19.9358469],[85.9995456,19.9362283],[85.999555,19.9362938],[85.9995671,19.9363733],[85.999673,19.9366746],[85.9997072,19.9367666],[85.9997253,19.9368051],[85.9997615,19.9368656],[85.9998648,19.9370024],[85.9999238,19.9370723],[86.0002416,19.937523],[86.0004696,19.937779],[86.0005045,19.9378126],[86.0008223,19.9381466],[86.001108,19.9383917],[86.002441,19.9397692],[86.0030472,19.9404046],[86.0033476,19.9407122],[86.0047129,19.9420578],[86.0047893,19.9421284],[86.0048738,19.9422034],[86.0049845,19.9422986],[86.0051326,19.9424146],[86.005366,19.9425822],[86.0060889,19.9430815],[86.0075617,19.9440415],[86.0075771,19.9440547],[86.0075889,19.9440717],[86.0075931,19.9440817],[86.0075963,19.9440982],[86.0075964,19.9441088],[86.0075929,19.9441203],[86.0075885,19.9441319],[86.0075721,19.9441524],[86.007489,19.9442218],[86.007434,19.9442463],[86.0073931,19.9442539],[86.0073522,19.9442558],[86.0073052,19.9442596],[86.0072724,19.944269],[86.0072556,19.9442861],[86.0072422,19.9443043],[86.0072362,19.9443352],[86.0072342,19.9443648],[86.0072355,19.9443882],[86.0072435,19.9444222],[86.0072637,19.9444525],[86.0073106,19.9445016],[86.007499,19.9446756],[86.0075634,19.9447342],[86.0076063,19.9447865],[86.0076626,19.9448622],[86.0077579,19.9449895],[86.007834,19.9450762],[86.0078588,19.9451001],[86.0078906,19.9451298],[86.0080677,19.945304],[86.0081106,19.9453576],[86.0081468,19.9454074],[86.0081716,19.9454592]]}},{"type":"Feature","properties":{"id":866552625,"highway":"residential"},"geometry":{"type":"LineString","coordinates":[[85.9999908,19.9299093],[86.0003892,19.9296988],[86.0004924,19.929642],[86.0006131,19.9295626],[86.0008995,19.9293782]]}},{"type":"Feature","properties":{"id":866613123,"highway":"unclassified"},"geometry":{"type":"LineString","coordinates":[[85.9853527,19.951814],[85.9862499,19.9517219],[85.9869231,19.951635],[85.9870706,19.9516261],[85.987359,19.9516022],[85.9879196,19.951577],[85.9887376,19.9515581],[85.9891064,19.9515467],[85.9895436,19.9515732],[85.9896576,19.9515732],[85.9897327,19.9515694],[85.9898025,19.9515581],[85.9898816,19.9515203],[85.98995,19.9514787],[85.9900358,19.9514156],[85.9902048,19.9512833],[85.990359,19.9511547],[85.9905508,19.9510273],[85.9906943,19.9509492],[85.9909236,19.9508559],[85.9911852,19.9507664],[85.9918255,19.9506265],[85.991904,19.9506025],[85.9919757,19.9505773],[85.9920166,19.950554],[85.9920401,19.9505225],[85.9920609,19.9504758],[85.9920676,19.9503895],[85.9920723,19.9502407],[85.992079,19.9501285],[85.9921018,19.9499999],[85.9921581,19.949843],[85.9921943,19.9497478],[85.9922218,19.9496949],[85.9922601,19.9496501],[85.9923117,19.949611],[85.9923868,19.9495795],[85.9924458,19.9495587],[85.9925162,19.9495411],[85.9926336,19.9495234],[85.9927884,19.9495102],[85.9928515,19.949507],[85.9929091,19.9494944],[85.9929561,19.9494705],[85.9930748,19.9494018],[85.9932163,19.9493167],[85.9933349,19.9492587],[85.9934496,19.9492202],[85.9935904,19.9491856],[85.9937514,19.9491635],[85.9939626,19.9491415],[85.9944092,19.9491125],[85.9947002,19.9490999],[85.9948303,19.9490936],[85.994947,19.9490734],[85.9950958,19.9490192],[85.9952581,19.9489662],[85.995419,19.9489372],[85.9956725,19.9489234],[85.9958589,19.9489108],[85.9960923,19.9488881],[85.9962746,19.9488578],[85.9965563,19.9487998],[85.9968262,19.9487368],[85.9971303,19.9486586],[85.9972858,19.9486284],[85.9974401,19.9486082],[85.9976023,19.9485817],[85.9977525,19.9485326],[85.9979269,19.9484645],[85.9981307,19.9483762],[85.9982226,19.9483428],[85.998285,19.9483227],[85.9983306,19.9483186],[85.9983695,19.9483227],[85.9984063,19.9483403],[85.9984486,19.9483781],[85.9984794,19.9484122],[85.9985136,19.9484708],[85.9985639,19.9485805],[85.9986001,19.9486675],[85.9986592,19.948767],[85.9987825,19.9488931],[85.9989327,19.948999],[85.9992251,19.9491478],[85.999445,19.9492448],[85.9995295,19.9492751],[85.9996797,19.9493041],[85.9998983,19.9493432],[86.00007,19.9493646],[86.0003805,19.9493897],[86.0004401,19.9493948],[86.0006091,19.9493942],[86.0007573,19.9493917],[86.0008485,19.9493961],[86.0008948,19.9494059],[86.0009336,19.9494175],[86.0009652,19.949432],[86.0009893,19.9494434],[86.0010235,19.9494654],[86.0010637,19.9495014],[86.0011053,19.9495474],[86.0011489,19.9496104],[86.001277,19.9498877],[86.0014245,19.9501298],[86.0014701,19.9501903],[86.0015345,19.9502546],[86.0015648,19.9502759],[86.0015811,19.9502834],[86.001595,19.9502866],[86.0016096,19.9502867],[86.0016265,19.9502831],[86.0016513,19.9502719],[86.0016714,19.9502598],[86.0016934,19.950242],[86.0017286,19.9502083],[86.0018919,19.9500252],[86.0019408,19.949976],[86.002032,19.9498928],[86.0020964,19.9498417],[86.0021574,19.9498045],[86.0023458,19.9496823],[86.0025765,19.9495297],[86.0027006,19.9494566],[86.0027502,19.9494339],[86.0028078,19.9494125],[86.0028548,19.9493999],[86.0029084,19.9493879],[86.0031947,19.949386],[86.0033168,19.9493797],[86.003416,19.9493583],[86.003518,19.9493242],[86.0036185,19.949265],[86.0037124,19.9491881],[86.0042039,19.9487437],[86.0042951,19.9486775],[86.0043689,19.9486328],[86.0044487,19.9485969],[86.0046552,19.9485338],[86.0047484,19.9485017],[86.0047913,19.9484796],[86.0048403,19.9484462],[86.0049348,19.9483485],[86.0050126,19.9482798],[86.0050964,19.9482212],[86.0052299,19.9481197],[86.0052808,19.9480649],[86.0053137,19.948003],[86.0053291,19.9479533],[86.0053244,19.9478871],[86.005303,19.9478203],[86.0052668,19.9477554],[86.0051387,19.9475902],[86.0051226,19.947548],[86.0051179,19.9475039],[86.00513,19.947461],[86.0051461,19.9474371],[86.0052909,19.9473457],[86.005368,19.9472934],[86.0054525,19.9472259],[86.005767,19.9469315],[86.0058501,19.9468635],[86.0059494,19.9467815],[86.0060861,19.946687],[86.0062733,19.946566],[86.0071738,19.9460314],[86.0072824,19.9459709],[86.0073911,19.9458928],[86.0076311,19.9456923],[86.0077277,19.9456192],[86.0078772,19.9455492],[86.0080301,19.9454988],[86.0081716,19.9454592],[86.0084358,19.94542],[86.0086825,19.9453961],[86.0088435,19.9453961],[86.0093584,19.9454062],[86.00951,19.9453986],[86.0096911,19.9453886],[86.0099245,19.9453622],[86.0100582,19.9453299],[86.010139,19.9453103],[86.0102718,19.945265],[86.0103978,19.9452095],[86.0104917,19.9451729],[86.0106526,19.9450481],[86.0106888,19.9450053],[86.0107116,19.9449309],[86.0107535,19.9446334]]}},{"type":"Feature","properties":{"id":866618624,"highway":"residential"},"geometry":{"type":"LineString","coordinates":[[86.0003805,19.9493897],[86.0001444,19.9490135],[85.9999694,19.9487803],[85.9998487,19.9485918],[85.9998299,19.9485483],[85.9998279,19.9485162],[85.9998353,19.9484897],[85.999852,19.9484639],[85.9999104,19.9484172],[86.0004173,19.9482111],[86.0004804,19.9481972],[86.0005327,19.948196],[86.0005917,19.9482061],[86.0006373,19.94823],[86.0006815,19.9482704],[86.0007083,19.9483107],[86.0008089,19.9485275],[86.0008398,19.9486586],[86.0008438,19.9487393],[86.000829,19.9488112],[86.0008116,19.9489108],[86.0008022,19.9489839],[86.0008049,19.9490532],[86.0008089,19.9491188],[86.0008237,19.9491881],[86.0008438,19.9492738],[86.0008948,19.9494059]]}},{"type":"Feature","properties":{"id":868605579,"highway":"unclassified"},"geometry":{"type":"LineString","coordinates":[[85.9996989,19.970446],[85.9995042,19.9701794],[85.9994166,19.970067],[85.9993528,19.9699572],[85.9992997,19.9698473],[85.999212,19.9696177],[85.9990445,19.9691464],[85.9990409,19.9690957],[85.9990929,19.9690757],[85.9991883,19.9690446],[85.999319,19.9689981],[85.9996377,19.9688679],[86.0001109,19.9686557],[86.0002449,19.9685775],[86.0003947,19.9684756],[86.00053,19.9683765],[86.0006057,19.968314],[86.0006424,19.9682536],[86.0006493,19.9681933],[86.0006447,19.9681459],[86.0005896,19.9679303],[86.0005736,19.9678398],[86.0005667,19.9677622],[86.0005713,19.9676954],[86.0005896,19.9675811],[86.0006263,19.9674949],[86.0007525,19.9672902],[86.0008373,19.9671996],[86.0009359,19.9671328],[86.0013143,19.9669367],[86.0013923,19.9668914],[86.0015115,19.9668052],[86.0016904,19.9666715],[86.0020207,19.9664064],[86.0024243,19.9660465],[86.0025481,19.965943],[86.0027637,19.9657878],[86.0032122,19.9655049],[86.0034697,19.965365],[86.0036655,19.9652704],[86.0038865,19.965194],[86.0041335,19.9651381],[86.0043401,19.9651015],[86.0044728,19.9650725],[86.0045278,19.965053],[86.0045694,19.9650309],[86.0046338,19.964978],[86.0046653,19.9649329],[86.0046961,19.9648677],[86.0047249,19.9646982],[86.0047545,19.9639368],[86.0047638,19.9637843],[86.0047947,19.9635731],[86.0048228,19.9634937],[86.0048577,19.96342],[86.0049355,19.9632876]]}}]}