{"type":"FeatureCollection","features":[{"type":"Feature","properties":{"id":218557127,"highway":"trunk"},"geometry":{"type":"LineString","coordinates":[[85.4009045,19.9455804],[85.4005768,19.9455106],[85.3991677,19.9452165],[85.398504,19.945038],[85.3979154,19.9449048],[85.3975488,19.9448076],[85.3971307,19.9446322],[85.3968467,19.9444925],[85.396599,19.94436],[85.3961228,19.9440818],[85.3958257,19.9438655],[85.3956144,19.943687],[85.394666,19.9428627],[85.3939278,19.9422211],[85.3930394,19.9414626],[85.3925616,19.9410573],[85.392103,19.9406758],[85.3915115,19.9402166],[85.3910658,19.9398326],[85.3908051,19.9395457],[85.390557,19.9392568],[85.3903084,19.9389501],[85.3901622,19.9387298],[85.3899753,19.9384355],[85.3898146,19.9381327],[85.3896872,19.9378305],[85.3895481,19.9373851],[85.3894767,19.937051],[85.3894292,19.9367296],[85.3893194,19.9356146],[85.3892731,19.9351503],[85.3892491,19.934909],[85.3892277,19.9346949],[85.3891534,19.9342112],[85.3890995,19.9339647],[85.3890045,19.9336847],[85.3888825,19.9333581],[85.388767,19.933128],[85.3885795,19.9327995],[85.388396,19.9325284],[85.3880183,19.9320606],[85.386314,19.930248],[85.3857481,19.9296384],[85.385204,19.928945],[85.3848044,19.9283186],[85.3846371,19.9279643],[85.3844831,19.9275428],[85.3843894,19.92721],[85.3840026,19.9254785],[85.383616,19.923844],[85.3835478,19.923433],[85.3835226,19.9231426],[85.3835086,19.9228366],[85.3835111,19.9227322]]}},{"type":"Feature","properties":{"id":218557887,"highway":"unclassified"},"geometry":{"type":"LineString","coordinates":[[85.3937977,19.9427493],[85.3939419,19.9426893],[85.3940016,19.9426796],[85.3940737,19.9426835],[85.3941685,19.9427319],[85.3943044,19.9428287],[85.394393,19.9428965],[85.3945356,19.9429042],[85.394666,19.9428627],[85.3948297,19.9428248],[85.3950356,19.9427764],[85.3953384,19.9427202],[85.3955564,19.9426995],[85.3957683,19.9426239],[85.3965327,19.94217],[85.3965729,19.9420944],[85.3966802,19.941638],[85.3968894,19.9411892],[85.3974795,19.9404555],[85.3979489,19.9398175],[85.3984559,19.9393183],[85.3987697,19.938814],[85.3989628,19.9385367],[85.3999793,19.9374877],[85.4002154,19.9372457],[85.4011488,19.9370238],[85.401873,19.9367313],[85.4024537,19.9364268]]}},{"type":"Feature","properties":{"id":218558333,"highway":"secondary"},"geometry":{"type":"LineString","coordinates":[[85.3852369,19.917121],[85.3854049,19.9170598],[85.385527,19.9170654],[85.3856616,19.9171307],[85.3857935,19.9172184],[85.3862058,19.9176269],[85.3870272,19.9183444],[85.3876564,19.9189141],[85.3896121,19.9205665],[85.3903784,19.9213832],[85.392639,19.9237928],[85.3948506,19.9261644],[85.3950277,19.9263621],[85.3956023,19.9270034],[85.3974048,19.9295466],[85.3987808,19.9314847],[85.3998186,19.9329465],[85.4022229,19.9361304],[85.4024537,19.9364268],[85.4032466,19.9374452],[85.4046413,19.9388632],[85.4066075,19.9407866],[85.4083654,19.9425148]]}},{"type":"Feature","properties":{"id":218571911,"highway":"trunk"},"geometry":{"type":"LineString","coordinates":[[85.3833884,19.9227365],[85.3833855,19.9228536],[85.3833971,19.9231425],[85.3834262,19.9234301],[85.3834932,19.923845],[85.383873,19.9254915],[85.3841517,19.9267995],[85.3842279,19.9272061],[85.3843494,19.9276147],[85.3844977,19.9280156],[85.3846872,19.9283855],[85.3848936,19.928737],[85.385115,19.9290463],[85.3854227,19.9294372],[85.3856533,19.9296751],[85.3862177,19.9303142],[85.3873527,19.9315535],[85.3879171,19.9321267],[85.3882899,19.9325837],[85.3885103,19.9329168],[85.3887225,19.9333099],[85.3888811,19.9336778],[85.3889799,19.9339721],[85.3891056,19.9346653],[85.3891278,19.9349199],[85.389188,19.9356084],[85.3893033,19.9367295],[85.3893486,19.9370239],[85.3894207,19.9373957],[85.3895526,19.9378449],[85.3896782,19.9381431],[85.3898554,19.9384742],[85.390014,19.938755],[85.3901911,19.9389932],[85.3904115,19.9392894],[85.3906855,19.9396147],[85.3909862,19.9399207],[85.3913817,19.9402673],[85.3920017,19.9407649],[85.3924487,19.9411057],[85.392941,19.9415394],[85.3938226,19.9422752],[85.3945356,19.9429042],[85.395491,19.9437468],[85.3957217,19.9439385],[85.3960554,19.9441806],[85.3964983,19.9444478],[85.3967455,19.9445736],[85.3970606,19.9447285],[85.397487,19.9449086],[85.3978619,19.9450151],[85.3984078,19.9451313],[85.3991926,19.9453443],[85.4005474,19.9456554],[85.4008443,19.9457238]]}},{"type":"Feature","properties":{"id":602564199,"highway":"tertiary"},"geometry":{"type":"LineString","coordinates":[[85.3836583,19.9225944],[85.3837956,19.9225512],[85.3849109,19.9222001],[85.3881669,19.921279],[85.3887194,19.9212084],[85.3899211,19.9213748],[85.3903784,19.9213832],[85.3912514,19.9213093],[85.3916216,19.9213345],[85.3936708,19.9217733],[85.3950548,19.9221515],[85.3951237,19.9221697],[85.3953606,19.9222322],[85.3957576,19.9222978],[85.3962994,19.9224617],[85.3968358,19.9227971],[85.397281,19.9230543],[85.3977075,19.9232157],[85.3982145,19.923314],[85.3985739,19.9233947],[85.3988716,19.9235334],[85.3991,19.92381],[85.3993215,19.9237577],[85.3995556,19.9237024],[85.3996619,19.9237073],[85.3999391,19.92372],[85.4001966,19.9239596],[85.4004782,19.9242344],[85.4011166,19.9244916],[85.4016691,19.924996],[85.4020768,19.9254247],[85.4025274,19.9259189],[85.4028869,19.9265342],[85.4031819,19.926978],[85.4036284,19.9275552]]}},{"type":"Feature","properties":{"id":1529415137,"highway":"unclassified"},"geometry":{"type":"LineString","coordinates":[[85.4005883,19.9656161],[85.3999981,19.9657708],[85.3997219,19.9658792],[85.399054,19.9664767],[85.3987563,19.9667944],[85.3984237,19.9670566],[85.3982145,19.9673515],[85.398024,19.9680221],[85.397898,19.968254],[85.397737,19.9684683],[85.3970343,19.9691742],[85.3967661,19.9694313],[85.3967446,19.9697641],[85.3967124,19.9704195],[85.3965461,19.9712363],[85.3964388,19.9722144],[85.3963476,19.9726682],[85.3963584,19.9730009],[85.3965408,19.9733085],[85.3967071,19.9736815],[85.3967071,19.9739891],[85.3966749,19.9742109],[85.3966588,19.9744277],[85.3964227,19.9747454],[85.3962403,19.9750327],[85.3962672,19.9752798],[85.3964227,19.9755621],[85.3965086,19.9757688],[85.3965193,19.9759251],[85.3963852,19.9759755],[85.395956,19.9759251],[85.3952908,19.9758394],[85.3949529,19.9758747],[85.3946257,19.9759755],[85.3945559,19.976152],[85.3944272,19.976883],[85.3942341,19.9773569],[85.3939605,19.9779266],[85.3938585,19.9782241],[85.3938103,19.9785417],[85.3938049,19.9792828],[85.3936922,19.9797416],[85.3935957,19.9800139],[85.3934294,19.9802508]]}}]}