{"type":"FeatureCollection","features":[{"type":"Feature","properties":{"id":22828405,"highway":"secondary"},"geometry":{"type":"LineString","coordinates":[[85.4083654,19.9425148],[85.4070003,19.9457081],[85.4065546,19.9468199],[85.4064166,19.9471311]]}},{"type":"Feature","properties":{"id":218557137,"highway":"unclassified"},"geometry":{"type":"LineString","coordinates":[[85.494951,19.9945682],[85.4947365,19.9943463],[85.4944897,19.994059],[85.4942322,19.9937061],[85.4940551,19.9935044],[85.4934812,19.9934288],[85.4931378,19.9933935],[85.4925638,19.9932524],[85.4923868,19.993207],[85.4918504,19.9930003],[85.4914105,19.9928541],[85.4909491,19.9926979],[85.4904503,19.992587],[85.490123,19.9925063],[85.4899192,19.9924861],[85.4895276,19.9924206],[85.4891092,19.9924256],[85.4886693,19.9923904],[85.4882669,19.9922391],[85.4877841,19.9922795],[85.4875427,19.9923047],[85.4871619,19.9921887],[85.4868293,19.9919619],[85.4864967,19.9919014],[85.486325,19.9918207],[85.4859763,19.9918661],[85.4854131,19.9919971],[85.4849571,19.9920728],[85.4844099,19.9921232],[85.4840505,19.9922442],[85.4835194,19.9922643],[85.4830205,19.9923601],[85.4826987,19.9924206],[85.4822856,19.9924609],[85.4818135,19.9925416],[85.4812717,19.9926374],[85.480746,19.9927735],[85.4804456,19.9928693],[85.4800916,19.9929802],[85.4797429,19.9931163],[85.4792333,19.9932373],[85.4787344,19.9934036],[85.4784179,19.9934591],[85.478012,19.9936568],[85.4776172,19.9937696],[85.4774082,19.993866],[85.4769879,19.9940834]]}},{"type":"Feature","properties":{"id":218557890,"highway":"unclassified"},"geometry":{"type":"LineString","coordinates":[[85.422144,19.9552553],[85.4225206,19.9549532],[85.4228387,19.9548177],[85.423331,19.9545756]]}},{"type":"Feature","properties":{"id":218557892,"highway":"unclassified"},"geometry":{"type":"LineString","coordinates":[[85.4451975,19.9740799],[85.4449891,19.974294],[85.4431982,19.9763684],[85.4427958,19.9767067],[85.442433,19.9769396],[85.4419687,19.9771317],[85.4416299,19.9772156],[85.4414685,19.97729],[85.441283,19.9774177],[85.4408014,19.9779585],[85.4402449,19.9786551]]}},{"type":"Feature","properties":{"id":218557893,"highway":"tertiary"},"geometry":{"type":"LineString","coordinates":[[85.4756963,19.9530755],[85.4754637,19.9531559],[85.4746604,19.9534335],[85.4731396,19.9543549],[85.4728714,19.9545738],[85.4727352,19.9548961],[85.4722693,19.955648],[85.4711133,19.9575113],[85.4702914,19.9588705],[85.4700584,19.9592547],[85.4693068,19.959986],[85.4684629,19.9608742],[85.4678959,19.9619236],[85.4669465,19.9640264],[85.4663839,19.9653525],[85.4662081,19.9659226],[85.4662037,19.9663977],[85.466318,19.9678395],[85.4661861,19.9695373],[85.4660938,19.9699257],[85.4656543,19.9705784],[85.4650257,19.9712889],[85.4635972,19.9725489],[85.4623665,19.9736271],[85.461549,19.97435],[85.4614611,19.9745483],[85.461505,19.97473],[85.4616237,19.9749779],[85.4617424,19.9752051],[85.4618523,19.9755686],[85.4620501,19.9767335],[85.4622303,19.9777745],[85.4622786,19.9780885],[85.4622698,19.9783322],[85.462116,19.9787122],[85.4618127,19.9795384],[85.461382,19.9807363],[85.4610322,19.9819472],[85.4609449,19.9821963],[85.4608998,19.9822822]]}},{"type":"Feature","properties":{"id":218558328,"highway":"secondary"},"geometry":{"type":"LineString","coordinates":[[85.4064166,19.9471311],[85.406242,19.9475362]]}},{"type":"Feature","properties":{"id":292510743,"highway":"tertiary"},"geometry":{"type":"LineString","coordinates":[[85.3974048,19.9295466],[85.398341,19.9291168],[85.3995459,19.9285636],[85.399815,19.9285329],[85.4002785,19.9286748],[85.401422,19.929025],[85.4016604,19.929048],[85.4026676,19.9285406],[85.4028983,19.9282023],[85.4031982,19.9277717],[85.4036284,19.9275552],[85.405551,19.9265876],[85.4070965,19.9261185],[85.4073195,19.9260109],[85.4074579,19.9258033],[85.4075194,19.925488],[85.4077116,19.9252266],[85.408073,19.9250344],[85.4088188,19.9248268],[85.409211,19.9245961],[85.4114331,19.9239195],[85.4126787,19.9235812],[85.4136168,19.9231736],[85.4142934,19.9226892],[85.4152391,19.9226277],[85.4159004,19.9223125],[85.4163156,19.9218819],[85.4172921,19.9215128],[85.417815,19.9211976],[85.4179534,19.9209515],[85.4182148,19.9205056],[85.4186838,19.9201057],[85.4189606,19.9200212],[85.4193604,19.9198904],[85.4197141,19.9194675],[85.4205907,19.9193061],[85.4210366,19.9190677],[85.421621,19.9186064],[85.4219824,19.9184218],[85.4223899,19.9185218],[85.4229435,19.9187217],[85.4232741,19.9186986],[85.4250426,19.9177375],[85.4262575,19.9171916],[85.4272878,19.9165457],[85.4278293,19.916057],[85.4287289,19.9155957],[85.429467,19.9153419],[85.4302513,19.915242],[85.4308357,19.9150113],[85.4313047,19.914796],[85.4316661,19.9147422],[85.432212,19.9148499],[85.4324658,19.9150575],[85.4335576,19.9161339],[85.435303,19.9175487],[85.436095,19.9181946],[85.4370972,19.9187282],[85.4372999,19.9188644],[85.4377442,19.919223],[85.4385026,19.9198618],[85.4389457,19.9202832],[85.4394704,19.920835],[85.4400891,19.9215564],[85.4408884,19.922328],[85.4418218,19.9233519],[85.4424709,19.9241689],[85.4432219,19.9251271],[85.4437584,19.9259643],[85.4442626,19.9265897],[85.445078,19.9275882],[85.4457539,19.9284103],[85.4461026,19.9289398],[85.4464835,19.929545],[85.4465747,19.9296912],[85.4468858,19.9304729],[85.4471111,19.9310932],[85.4474276,19.9317337],[85.447846,19.9325204],[85.4482108,19.9330298],[85.4488116,19.9339123],[85.4493964,19.9346233],[85.4504424,19.9348957],[85.4515743,19.9352235],[85.4523897,19.9354605],[85.4532641,19.9357782],[85.4541385,19.9360707],[85.4551256,19.9364186],[85.4565686,19.937044],[85.4578882,19.9376037],[85.4587948,19.9381685],[85.4597336,19.9386325],[85.4600394,19.9387636],[85.4605973,19.9391872],[85.4618204,19.9401403],[85.4624695,19.9406597],[85.4626894,19.9404378],[85.4634672,19.9405235],[85.4638588,19.9405488],[85.4647708,19.9409471],[85.4653448,19.9412194],[85.4667932,19.9412295],[85.4682577,19.9411438],[85.469985,19.9411488],[85.4710364,19.9411085],[85.4717767,19.9411186],[85.4722971,19.9411287]]}},{"type":"Feature","properties":{"id":561536758,"highway":"unclassified"},"geometry":{"type":"LineString","coordinates":[[85.4925004,19.9745549],[85.4928106,19.9745941],[85.4931486,19.9745286],[85.4934865,19.9745286],[85.4936099,19.9748159],[85.4937386,19.9752041],[85.4937762,19.9754562],[85.4938996,19.9756781],[85.4942107,19.9757134],[85.4945862,19.9757184],[85.4947847,19.9758142]]}},{"type":"Feature","properties":{"id":561536797,"highway":"unclassified"},"geometry":{"type":"LineString","coordinates":[[85.4796543,19.9590724],[85.4799735,19.9595035],[85.4809928,19.9607036],[85.4815614,19.9611271],[85.4821944,19.961954],[85.4826772,19.9628616],[85.4829669,19.9635675],[85.4840398,19.9639608],[85.4848337,19.9644045],[85.4859924,19.9650398],[85.4868293,19.9657456],[85.4878485,19.9664314],[85.4887283,19.9669961],[85.4895759,19.9674902],[85.4900908,19.9682969],[85.4910028,19.9694666],[85.4915482,19.9704889],[85.491708,19.9708959],[85.4918793,19.9714952],[85.491927,19.9716974],[85.4919746,19.9718045],[85.4920437,19.9718796],[85.4921578,19.9719017],[85.4924444,19.971924],[85.4926121,19.9719371],[85.4927076,19.9719649],[85.4927643,19.9720213],[85.492793,19.9721115],[85.4927961,19.972242],[85.4927915,19.9724571],[85.492768,19.9736908],[85.4927231,19.9740657],[85.4925004,19.9745549],[85.4923224,19.9749521],[85.4919577,19.9756982],[85.4913139,19.9764343],[85.4907453,19.9769788],[85.4902089,19.9773922],[85.4894578,19.9778258],[85.488621,19.9780678],[85.4875696,19.9784812],[85.4864323,19.9785216],[85.4850268,19.9785316],[85.4838252,19.9786526],[85.4832029,19.9788341],[85.4823232,19.9789652],[85.4812825,19.9784611],[85.4804027,19.9779569],[85.4796517,19.9775334],[85.4785252,19.9773418],[85.4774952,19.9771805],[85.4765832,19.9768578],[85.4757786,19.9763032],[85.4747808,19.9758293],[85.4735792,19.9753352],[85.472399,19.9749924],[85.4712725,19.9747605],[85.4702961,19.9745386],[85.4693627,19.9740849],[85.4687834,19.9733992],[85.4681933,19.9727135],[85.4676676,19.9718363],[85.4673135,19.9711102],[85.4671097,19.9704548],[85.4670024,19.9700918],[85.4664874,19.9699304],[85.4660938,19.9699257]]}},{"type":"Feature","properties":{"id":561537020,"highway":"unclassified"},"geometry":{"type":"LineString","coordinates":[[85.4989187,19.9351368],[85.4987994,19.9342212],[85.4987758,19.9340888],[85.4987665,19.9340147],[85.4987786,19.933971],[85.4988246,19.9339189],[85.4988813,19.9338668],[85.4991422,19.9336762],[85.4993105,19.9335643],[85.4995582,19.9334578],[85.4998094,19.9333863],[85.5003692,19.9332617],[85.5009294,19.9331509],[85.5011523,19.9330903],[85.5013634,19.9330397],[85.5017241,19.9329381],[85.5021322,19.9328549],[85.5022466,19.9328294],[85.502303,19.9328168]]}},{"type":"Feature","properties":{"id":561538770,"highway":"unclassified"},"geometry":{"type":"LineString","coordinates":[[85.4894578,19.9778258],[85.4899889,19.9776544],[85.4904181,19.9775838],[85.4906756,19.977609],[85.4903805,19.9779468],[85.4901981,19.9783098],[85.4899085,19.9786325],[85.4898602,19.9787787],[85.4903912,19.9788039],[85.4908258,19.9788442],[85.4910886,19.9788291],[85.4914373,19.978945],[85.4914856,19.979177],[85.4917538,19.9791165]]}},{"type":"Feature","properties":{"id":563847157,"highway":"unclassified"},"geometry":{"type":"LineString","coordinates":[[85.4474276,19.9317337],[85.4471138,19.9318421],[85.4468188,19.9323968],[85.4466042,19.9327625],[85.4463145,19.933176],[85.4459256,19.9337232],[85.4457459,19.9339123],[85.4456413,19.9343914],[85.4454213,19.9348553],[85.4453677,19.9351226],[85.4451907,19.9354504],[85.4449171,19.935642],[85.4445898,19.9359396],[85.4443592,19.9362119],[85.4440051,19.9363733],[85.443753,19.9365094],[85.4433775,19.9366506],[85.4429161,19.9366405],[85.4423046,19.9368019],[85.4418951,19.9368293],[85.4416836,19.9367544],[85.4414535,19.9365852]]}},{"type":"Feature","properties":{"id":563847225,"highway":"unclassified"},"geometry":{"type":"LineString","coordinates":[[85.4051258,19.8972228],[85.4060626,19.8977648],[85.4070121,19.8983903],[85.4077363,19.8989099],[85.4078114,19.8990814],[85.4078007,19.8994597],[85.4081601,19.8998531],[85.4089004,19.9002113],[85.409984,19.9008266],[85.4104131,19.9010486],[85.4109442,19.9013411],[85.4112929,19.9018506],[85.4118293,19.9024256],[85.4123068,19.9028342],[85.4128325,19.9034041],[85.4129398,19.903505],[85.4130471,19.9035151],[85.4133099,19.9034394],[85.4139537,19.9034193],[85.4141843,19.9033133]]}},{"type":"Feature","properties":{"id":563847352,"highway":"unclassified"},"geometry":{"type":"LineString","coordinates":[[85.4442626,19.9265897],[85.4440695,19.9267914],[85.4441607,19.9272604],[85.4441285,19.9276437],[85.4439783,19.9282791],[85.4438442,19.928849],[85.4437637,19.9295752],[85.4436779,19.9299837],[85.44393,19.9303821],[85.4448447,19.9301854],[85.4452765,19.930072],[85.4455769,19.9298904],[85.4458076,19.9297568],[85.4464835,19.929545]]}},{"type":"Feature","properties":{"id":563847402,"highway":"unclassified"},"geometry":{"type":"LineString","coordinates":[[85.4458076,19.9297568],[85.4461241,19.9303468],[85.4463762,19.9310276],[85.4468054,19.9311184],[85.4471111,19.9310932]]}},{"type":"Feature","properties":{"id":563847413,"highway":"unclassified"},"geometry":{"type":"LineString","coordinates":[[85.4466042,19.9327625],[85.4463199,19.9328835],[85.445939,19.9329667],[85.4453918,19.9330852],[85.4450485,19.9331079],[85.4447696,19.9330701],[85.4445282,19.9330071],[85.4442465,19.9325305],[85.4440588,19.9321825],[85.4433829,19.9322481]]}},{"type":"Feature","properties":{"id":563997576,"highway":"unclassified"},"geometry":{"type":"LineString","coordinates":[[85.4773053,19.9522663],[85.47948,19.9537654],[85.4799628,19.9541385],[85.4807969,19.9547235],[85.4806565,19.9548995],[85.4805792,19.9549693],[85.4803812,19.9550966],[85.4800272,19.9553689],[85.4799092,19.9558025],[85.4799092,19.9562462],[85.4797375,19.9567605],[85.4795766,19.9576883],[85.4795766,19.9585052],[85.4796543,19.9590724],[85.4799709,19.9590901],[85.4802605,19.9590396],[85.4807541,19.9589564],[85.4811269,19.9588506],[85.4815158,19.9586564],[85.4820067,19.958422],[85.4822829,19.9583337],[85.4824814,19.9582757],[85.4828784,19.9580917],[85.4829884,19.9580564],[85.4830474,19.9581774],[85.4831198,19.9583438],[85.4831895,19.9585884],[85.4836723,19.9584926],[85.483954,19.9584396],[85.4842544,19.9583917],[85.4844502,19.9583438],[85.4846942,19.9583262],[85.4849973,19.958311],[85.4850597,19.9582937],[85.4851352,19.9582728],[85.4852977,19.9582278],[85.4856276,19.9581774],[85.4861024,19.9581043],[85.4864618,19.9580539],[85.4869822,19.9579707],[85.4875186,19.9579051],[85.4879773,19.9578144],[85.4883233,19.9577665],[85.4885459,19.9577513],[85.4888141,19.9578093],[85.4892755,19.9578724],[85.489777,19.9579278],[85.4902223,19.9579732],[85.4905656,19.9580463],[85.4909733,19.958074],[85.4914561,19.9580892],[85.4920542,19.9581169],[85.4927435,19.9581774],[85.4933605,19.9581951],[85.49359,19.95828],[85.4938406,19.9582556],[85.4942536,19.9582556],[85.4945621,19.9582304],[85.4947874,19.958248],[85.4953507,19.9582556],[85.4956484,19.9582556],[85.4959917,19.9582505],[85.4962652,19.9582275],[85.4965799,19.9581724],[85.4968473,19.9581119],[85.4970995,19.9580488],[85.4972577,19.9580085],[85.4973972,19.9579682],[85.4975018,19.9579379],[85.4976279,19.9578976],[85.4978358,19.9578285],[85.4980691,19.9577408],[85.4985119,19.9576157],[85.4988517,19.9575156]]}},{"type":"Feature","properties":{"id":563997581,"highway":"unclassified"},"geometry":{"type":"LineString","coordinates":[[85.4938406,19.9582556],[85.4937601,19.9580009],[85.4937655,19.9577539],[85.4937869,19.9576278],[85.4938298,19.9575118],[85.4938942,19.9574665],[85.4939479,19.9573152],[85.4939961,19.9572244]]}},{"type":"Feature","properties":{"id":598730046,"highway":"unclassified"},"geometry":{"type":"LineString","coordinates":[[85.3987808,19.9314847],[85.3993678,19.9310831],[85.4000437,19.9306696],[85.4003763,19.9304074],[85.4008913,19.9301048],[85.4007625,19.9298022],[85.4005265,19.9298223],[85.4004085,19.9293685],[85.4002785,19.9286748]]}},{"type":"Feature","properties":{"id":602564760,"highway":"unclassified"},"geometry":{"type":"LineString","coordinates":[[85.4796543,19.9590724],[85.4789034,19.959148],[85.4785573,19.9591405],[85.4775274,19.9590497],[85.4760039,19.9591304],[85.4737079,19.9592212],[85.472635,19.9592918],[85.4712617,19.9595539],[85.4700584,19.9592547]]}},{"type":"Feature","properties":{"id":602564761,"highway":"unclassified"},"geometry":{"type":"LineString","coordinates":[[85.4807969,19.9547235],[85.4818994,19.9556664],[85.4825967,19.9560899],[85.4833102,19.9566748],[85.4838788,19.9571992],[85.4841793,19.9573202],[85.4847425,19.9578194],[85.4852977,19.9582278]]}},{"type":"Feature","properties":{"id":746551623,"highway":"unclassified"},"geometry":{"type":"LineString","coordinates":[[85.4754637,19.9531559],[85.4757303,19.9538209],[85.4762399,19.9549352],[85.4767656,19.956095],[85.4769695,19.9568412],[85.4771197,19.9575572],[85.4773772,19.9583539],[85.4775274,19.9590497]]}},{"type":"Feature","properties":{"id":746551624,"highway":"tertiary"},"geometry":{"type":"LineString","coordinates":[[85.4722971,19.9411287],[85.4720879,19.9414111],[85.4717606,19.9419759],[85.47153,19.9425306],[85.4713046,19.9430248],[85.470795,19.9434231],[85.4704088,19.9438971],[85.4704195,19.9446939],[85.4704678,19.9453141],[85.4705214,19.9461008],[85.4708755,19.9467563],[85.4712832,19.9472908],[85.4718625,19.9479968],[85.4722595,19.9484204],[85.4725599,19.948733],[85.4729783,19.9491465],[85.4731843,19.9492823],[85.4729086,19.9494692],[85.4730695,19.9497667],[85.4734343,19.9502559],[85.473665,19.9506794],[85.4741156,19.9512291],[85.4749203,19.9521569],[85.4753601,19.9525905],[85.4756963,19.9530755]]}},{"type":"Feature","properties":{"id":746551625,"highway":"unclassified"},"geometry":{"type":"LineString","coordinates":[[85.4768523,19.9525528],[85.4767867,19.9526311],[85.4767258,19.9526891],[85.4766449,19.9527662],[85.4756963,19.9530755]]}},{"type":"Feature","properties":{"id":746551626,"highway":"unclassified"},"geometry":{"type":"LineString","coordinates":[[85.4704195,19.9446939],[85.470559,19.9447393],[85.4710203,19.9447544],[85.4715514,19.9446888],[85.4722542,19.9448805],[85.4726833,19.9451528],[85.4731822,19.9453948],[85.4735577,19.9456722],[85.4739118,19.9459697],[85.4739922,19.9463227],[85.4741263,19.9468017],[85.474239,19.9472858],[85.4743355,19.9477043],[85.4745769,19.9481329],[85.4746091,19.9485717],[85.474357,19.9487532],[85.4740727,19.9488792],[85.4733324,19.9491818],[85.4731843,19.9492823]]}},{"type":"Feature","properties":{"id":746551627,"highway":"tertiary"},"geometry":{"type":"LineString","coordinates":[[85.5014306,19.934109],[85.5013508,19.9341323],[85.5012431,19.9341638],[85.5010949,19.9342138],[85.5010373,19.9342441],[85.5009654,19.9343148],[85.5008883,19.9343688],[85.5008247,19.9343983],[85.4998997,19.9346322],[85.4998736,19.9346451],[85.4998603,19.9346611],[85.499855,19.9346874],[85.4998621,19.9347097],[85.4998964,19.9347735],[85.4998962,19.9348021],[85.4998848,19.9348256],[85.4998634,19.9348407],[85.4997683,19.9348818],[85.4996217,19.9349452],[85.4991988,19.9350798],[85.4989187,19.9351368],[85.4985721,19.9351917],[85.4981541,19.9352786],[85.497947,19.9353227],[85.4975418,19.9354393],[85.4971592,19.9355693],[85.4967315,19.9356908],[85.4965769,19.935717],[85.496478,19.9357184],[85.4963922,19.9356978],[85.4963016,19.9356561],[85.4962066,19.9355872],[85.4961275,19.935517],[85.4960136,19.9354031],[85.4956838,19.9350683],[85.4955732,19.9349861],[85.4954714,19.9349764],[85.4953458,19.9350103],[85.4953068,19.935023],[85.4950872,19.9350942],[85.4946424,19.9351961],[85.4944414,19.935248],[85.4940713,19.9353706],[85.4938646,19.935439],[85.4935162,19.9355558],[85.4932652,19.9356699],[85.4930597,19.9357675],[85.4927825,19.9359291],[85.4925879,19.9360617],[85.4922059,19.9362821],[85.4918071,19.9364942],[85.4917216,19.9365397],[85.4915131,19.9366276],[85.4912652,19.9367321],[85.4907752,19.9369223],[85.4906108,19.9369827],[85.4904111,19.937056],[85.4901809,19.9371405],[85.490119,19.9371652],[85.4896509,19.9373585],[85.4895102,19.9374164],[85.4893613,19.9374777],[85.4892275,19.9375382],[85.4888008,19.9377199],[85.4885137,19.9378307],[85.4882591,19.9379379],[85.4877039,19.9381681],[85.4875845,19.9382145],[85.4871851,19.9383767],[85.487036,19.9384306],[85.4869526,19.9384635],[85.4865451,19.9386241],[85.4864802,19.9386488],[85.4860296,19.9388123],[85.4859437,19.9388431],[85.4852307,19.939041],[85.4851197,19.9390679],[85.4846127,19.9391906],[85.483724,19.9393778],[85.4832241,19.9394843],[85.4823554,19.939641],[85.4817182,19.939778],[85.4812261,19.9398621],[85.4806058,19.939984],[85.47991,19.9401361],[85.4794488,19.9402189],[85.4793907,19.9402293],[85.47896,19.9403049],[85.4784858,19.940363],[85.4783477,19.9403756],[85.4780532,19.9404025],[85.4776394,19.9404383],[85.4770727,19.9404819]]}},{"type":"Feature","properties":{"id":746551628,"highway":"tertiary"},"geometry":{"type":"LineString","coordinates":[[85.4083654,19.9425148],[85.4093519,19.9434273],[85.4128746,19.946686],[85.41323,19.9470214],[85.4134018,19.9471871],[85.4135009,19.9472815],[85.4135402,19.9473801],[85.4135442,19.947515]]}},{"type":"Feature","properties":{"id":864889880,"highway":"residential"},"geometry":{"type":"LineString","coordinates":[[85.4762858,19.9404176],[85.4751308,19.9405333],[85.4745928,19.94058],[85.4742948,19.9406086],[85.4742381,19.9406159],[85.4742002,19.9406337],[85.4741739,19.9406622],[85.4741623,19.9407114],[85.474156,19.9407575],[85.4741564,19.9408642]]}},{"type":"Feature","properties":{"id":864889881,"highway":"residential"},"geometry":{"type":"LineString","coordinates":[[85.4763121,19.9398013],[85.4762858,19.9404176],[85.4762757,19.9406544]]}},{"type":"Feature","properties":{"id":864889883,"highway":"residential"},"geometry":{"type":"LineString","coordinates":[[85.4774559,19.9398508],[85.4782295,19.9397457],[85.4793308,19.9395961],[85.4807505,19.9394032],[85.4810683,19.9393339],[85.4814039,19.9392437],[85.4817433,19.9391603],[85.4821127,19.9390811],[85.4828445,19.9389773],[85.4836201,19.9388989],[85.4840452,19.9388493],[85.4844302,19.9387811],[85.4846695,19.9387241],[85.4850437,19.9386036],[85.4852503,19.9385247],[85.4855857,19.938391],[85.4858937,19.9382693],[85.4860467,19.9382088],[85.4863358,19.9380914],[85.4864613,19.9380405],[85.4868058,19.9378828]]}},{"type":"Feature","properties":{"id":864889884,"highway":"residential"},"geometry":{"type":"LineString","coordinates":[[85.4865298,19.9372175],[85.4868058,19.9378828],[85.487036,19.9384306]]}},{"type":"Feature","properties":{"id":864889885,"highway":"residential"},"geometry":{"type":"LineString","coordinates":[[85.4783477,19.9403756],[85.4782295,19.9397457]]}},{"type":"Feature","properties":{"id":864889886,"highway":"residential"},"geometry":{"type":"LineString","coordinates":[[85.4794488,19.9402189],[85.4793308,19.9395961]]}},{"type":"Feature","properties":{"id":864889887,"highway":"residential"},"geometry":{"type":"LineString","coordinates":[[85.4836201,19.9388989],[85.483724,19.9393778]]}},{"type":"Feature","properties":{"id":864889888,"highway":"residential"},"geometry":{"type":"LineString","coordinates":[[85.4853922,19.9399119],[85.4851197,19.9390679]]}},{"type":"Feature","properties":{"id":864889889,"highway":"residential"},"geometry":{"type":"LineString","coordinates":[[85.4860296,19.9388123],[85.4864321,19.9398136]]}},{"type":"Feature","properties":{"id":864893387,"highway":"residential"},"geometry":{"type":"LineString","coordinates":[[85.4864802,19.9386488],[85.4869173,19.9396315]]}},{"type":"Feature","properties":{"id":864893388,"highway":"residential"},"geometry":{"type":"LineString","coordinates":[[85.4871851,19.9383767],[85.4876996,19.9396262]]}},{"type":"Feature","properties":{"id":864893389,"highway":"residential"},"geometry":{"type":"LineString","coordinates":[[85.4874334,19.9374243],[85.4877039,19.9381681],[85.4879029,19.9386639],[85.4879991,19.9389032],[85.4881446,19.9393157],[85.4882514,19.9396262]]}},{"type":"Feature","properties":{"id":864893391,"highway":"residential"},"geometry":{"type":"LineString","coordinates":[[85.4882591,19.9379379],[85.4884646,19.9384634],[85.4887353,19.9390584]]}},{"type":"Feature","properties":{"id":864893392,"highway":"residential"},"geometry":{"type":"LineString","coordinates":[[85.4879029,19.9386639],[85.4884646,19.9384634],[85.4889807,19.9382798]]}},{"type":"Feature","properties":{"id":864893393,"highway":"residential"},"geometry":{"type":"LineString","coordinates":[[85.4856959,19.9377202],[85.4858937,19.9382693]]}},{"type":"Feature","properties":{"id":864893394,"highway":"residential"},"geometry":{"type":"LineString","coordinates":[[85.4863358,19.9380914],[85.4865451,19.9386241]]}},{"type":"Feature","properties":{"id":864893395,"highway":"residential"},"geometry":{"type":"LineString","coordinates":[[85.4896671,19.9395982],[85.4895142,19.9392099],[85.4894525,19.9391115],[85.4892942,19.9389577],[85.4892299,19.9388695],[85.4890475,19.9385316],[85.4890045,19.9384156],[85.4889807,19.9382798],[85.488959,19.9381811],[85.4888008,19.9377199]]}},{"type":"Feature","properties":{"id":864893396,"highway":"residential"},"geometry":{"type":"LineString","coordinates":[[85.4892275,19.9375382],[85.4888149,19.9366516]]}},{"type":"Feature","properties":{"id":864893397,"highway":"residential"},"geometry":{"type":"LineString","coordinates":[[85.490037,19.9392611],[85.4895102,19.9374164]]}},{"type":"Feature","properties":{"id":864893398,"highway":"residential"},"geometry":{"type":"LineString","coordinates":[[85.4893541,19.9365908],[85.4896509,19.9373585]]}},{"type":"Feature","properties":{"id":864893399,"highway":"residential"},"geometry":{"type":"LineString","coordinates":[[85.4898479,19.9364728],[85.490119,19.9371652]]}},{"type":"Feature","properties":{"id":864893400,"highway":"residential"},"geometry":{"type":"LineString","coordinates":[[85.4905409,19.9392869],[85.4904113,19.9388988],[85.490383,19.9388112],[85.4903749,19.9387428],[85.490383,19.9386705],[85.4904194,19.9385982],[85.4904842,19.938503],[85.4905166,19.9384155],[85.4905247,19.9383318],[85.4905004,19.9382176],[85.4901809,19.9371405]]}},{"type":"Feature","properties":{"id":864893401,"highway":"residential"},"geometry":{"type":"LineString","coordinates":[[85.4909436,19.9387795],[85.4904111,19.937056]]}},{"type":"Feature","properties":{"id":864893402,"highway":"residential"},"geometry":{"type":"LineString","coordinates":[[85.4933524,19.9374058],[85.492959,19.9366673],[85.4925879,19.9360617]]}},{"type":"Feature","properties":{"id":864893403,"highway":"residential"},"geometry":{"type":"LineString","coordinates":[[85.4955006,19.936812],[85.4957243,19.9373014],[85.4957505,19.9373797],[85.4957771,19.9374877],[85.495804,19.9377626],[85.495804,19.9378357],[85.4957905,19.9378798],[85.4957624,19.9379239],[85.4956953,19.9379542],[85.494369,19.9383803],[85.4931673,19.9386955],[85.4929675,19.9387371],[85.4928763,19.9387346],[85.4928173,19.9387169],[85.4927811,19.9386854],[85.4927623,19.9386312],[85.4927583,19.9385669],[85.4927851,19.9383803],[85.4927985,19.9383072],[85.4928254,19.9382643],[85.4929353,19.9381988],[85.4929662,19.9381673],[85.4929668,19.9381236],[85.4928616,19.9375193],[85.4928817,19.9374751],[85.4929273,19.93746],[85.4932559,19.9374209],[85.4933524,19.9374058],[85.4934812,19.9373957],[85.4935697,19.9373793],[85.4936783,19.9373264],[85.4937977,19.9372772],[85.4939452,19.9372381],[85.4949469,19.9369729],[85.4950164,19.9369527],[85.4955006,19.936812],[85.4957889,19.9367282],[85.4966181,19.9364467],[85.4974629,19.9361463],[85.4975037,19.9361249],[85.4975492,19.9360932],[85.4975883,19.9360545],[85.4976213,19.936015],[85.4976585,19.9359818],[85.4976981,19.9359546],[85.4980262,19.9358315],[85.4983045,19.9357195],[85.4986355,19.9355616],[85.4991255,19.9353512]]}},{"type":"Feature","properties":{"id":864893405,"highway":"residential"},"geometry":{"type":"LineString","coordinates":[[85.492959,19.9366673],[85.4939423,19.9364215],[85.4940121,19.9363912],[85.4940461,19.9363458],[85.4940649,19.9362816],[85.4940872,19.936203],[85.4941195,19.9361391],[85.4941579,19.9360984],[85.4942144,19.9360685],[85.4943968,19.936045],[85.4947347,19.9360114],[85.4948692,19.9360189],[85.4949896,19.936035],[85.495026,19.9360399],[85.4951566,19.9360517],[85.4952627,19.9360466],[85.4953966,19.9360217],[85.4955614,19.9359665],[85.4963016,19.9356561]]}},{"type":"Feature","properties":{"id":864893409,"highway":"unclassified"},"geometry":{"type":"LineString","coordinates":[[85.4933846,19.9290066],[85.4933668,19.9289194],[85.4927784,19.9266003],[85.4922875,19.9247164],[85.4916482,19.9222278]]}},{"type":"Feature","properties":{"id":864893410,"highway":"unclassified"},"geometry":{"type":"LineString","coordinates":[[85.4954714,19.9349764],[85.496008,19.9347252],[85.4960371,19.9347012],[85.4960597,19.9346722],[85.4960672,19.9346217],[85.4960589,19.9345699],[85.4960076,19.9343157],[85.4959953,19.9342348],[85.4960024,19.9341709],[85.4960329,19.9341187],[85.4960975,19.9340693],[85.4968178,19.9336986],[85.4969215,19.9336145],[85.4969537,19.9335607],[85.4969686,19.9334971],[85.496962,19.9334369],[85.4967198,19.9323973],[85.4965514,19.9315456],[85.4964768,19.9311882],[85.4961282,19.9295168],[85.4959156,19.9285422],[85.4957145,19.9278347],[85.4955716,19.9273322],[85.4946912,19.924845],[85.4941631,19.9232975],[85.4922618,19.9173472]]}},{"type":"Feature","properties":{"id":864893700,"highway":"residential"},"geometry":{"type":"LineString","coordinates":[[85.4965022,19.9349848],[85.4967391,19.934893],[85.4973648,19.9346507],[85.4974286,19.9346193],[85.4974589,19.9345965],[85.4974832,19.9345536],[85.4974923,19.9344937],[85.4974954,19.934428],[85.4974909,19.9342745]]}},{"type":"Feature","properties":{"id":864893701,"highway":"residential"},"geometry":{"type":"LineString","coordinates":[[85.4964998,19.9345694],[85.4967391,19.934893],[85.4968086,19.9349688],[85.4968465,19.9349977],[85.4968915,19.9350111],[85.4969413,19.9350155],[85.49701,19.9350111],[85.4974542,19.9349577],[85.4976401,19.9349354]]}},{"type":"Feature","properties":{"id":864893702,"highway":"residential"},"geometry":{"type":"LineString","coordinates":[[85.4975418,19.9354393],[85.4975097,19.935263],[85.497473,19.9350611],[85.4974542,19.9349577]]}},{"type":"Feature","properties":{"id":864893703,"highway":"residential"},"geometry":{"type":"LineString","coordinates":[[85.4962066,19.9355872],[85.4964505,19.9355656],[85.4965423,19.9355499],[85.4966777,19.9355186],[85.4975097,19.935263],[85.4978271,19.9351742]]}},{"type":"Feature","properties":{"id":864894005,"highway":"residential"},"geometry":{"type":"LineString","coordinates":[[85.490381,19.9364724],[85.4906108,19.9369827]]}},{"type":"Feature","properties":{"id":864894224,"highway":"unclassified"},"geometry":{"type":"LineString","coordinates":[[85.4720811,19.9311499],[85.4737163,19.9310085],[85.4742889,19.9309608],[85.4745209,19.9309608],[85.4747818,19.9309949],[85.4754776,19.931172],[85.476043,19.9313151],[85.476188,19.9313424],[85.4762895,19.9313424],[85.4763909,19.9313219],[85.4765069,19.9312674],[85.4778406,19.9304293],[85.4783625,19.9300817],[85.4785654,19.9299591],[85.4786597,19.9299114],[85.4787756,19.9298909],[85.4788989,19.9299046],[85.4791163,19.9299455],[85.4797397,19.9302112],[85.4814213,19.9310903],[85.4816315,19.931172],[85.4818127,19.9312129],[85.4819432,19.9312129],[85.4822041,19.9311584],[85.4851252,19.9305928],[85.4875389,19.9302589],[85.4890901,19.9300681],[85.4898874,19.9299318],[85.490373,19.9297955],[85.4919169,19.9293867],[85.4933668,19.9289194]]}},{"type":"Feature","properties":{"id":864894225,"highway":"residential"},"geometry":{"type":"LineString","coordinates":[[85.4910797,19.9356462],[85.4915131,19.9366276]]}},{"type":"Feature","properties":{"id":864894598,"highway":"residential"},"geometry":{"type":"LineString","coordinates":[[85.4946068,19.9365843],[85.4950001,19.936566]]}},{"type":"Feature","properties":{"id":864894599,"highway":"residential"},"geometry":{"type":"LineString","coordinates":[[85.4950164,19.9369527],[85.4950001,19.936566],[85.4949896,19.936035]]}},{"type":"Feature","properties":{"id":864900870,"highway":"residential"},"geometry":{"type":"LineString","coordinates":[[85.4872048,19.9391393],[85.4869526,19.9384635]]}},{"type":"Feature","properties":{"id":864911910,"highway":"residential"},"geometry":{"type":"LineString","coordinates":[[85.4960597,19.9346722],[85.4964998,19.9345694],[85.4974909,19.9342745],[85.4979115,19.9341773],[85.4987786,19.933971]]}},{"type":"Feature","properties":{"id":864931282,"highway":"residential"},"geometry":{"type":"LineString","coordinates":[[85.4957243,19.9373014],[85.4966596,19.936986],[85.4967025,19.9369481],[85.4967151,19.9368861],[85.4966181,19.9364467]]}},{"type":"Feature","properties":{"id":864931283,"highway":"residential"},"geometry":{"type":"LineString","coordinates":[[85.4975145,19.9368157],[85.4978032,19.9365442],[85.4979591,19.9364279],[85.4982203,19.9362555],[85.4984509,19.9361204],[85.4985732,19.9360487],[85.4990877,19.9357192]]}},{"type":"Feature","properties":{"id":864931284,"highway":"residential"},"geometry":{"type":"LineString","coordinates":[[85.4984509,19.9361204],[85.4986495,19.9367872],[85.4986781,19.9368376],[85.4987067,19.9368746],[85.4987496,19.936888],[85.4987961,19.936888],[85.4991603,19.9367773]]}},{"type":"Feature","properties":{"id":864931288,"highway":"residential"},"geometry":{"type":"LineString","coordinates":[[85.4997843,19.9389438],[85.4999363,19.9394471]]}},{"type":"Feature","properties":{"id":864934359,"highway":"residential"},"geometry":{"type":"LineString","coordinates":[[85.4985721,19.9351917],[85.49846,19.9349002],[85.4984238,19.9348232],[85.4983816,19.9347835],[85.4983386,19.9347658],[85.4982662,19.9347557],[85.4982032,19.9347494],[85.4981482,19.9347557],[85.4980905,19.9347835],[85.4980315,19.9348415],[85.4979269,19.9349247],[85.4978693,19.9349612],[85.4977955,19.9349965],[85.497473,19.9350611]]}},{"type":"Feature","properties":{"id":864934360,"highway":"residential"},"geometry":{"type":"LineString","coordinates":[[85.4969215,19.9336145],[85.4969975,19.9336324],[85.4970807,19.9336223],[85.4972202,19.933582],[85.497542,19.9334735],[85.4976946,19.933428],[85.4982397,19.9333145],[85.4983642,19.9332852],[85.4984265,19.9332462],[85.4984596,19.9332068],[85.4984752,19.9331465],[85.498468,19.9330803],[85.4984362,19.9329894],[85.4983487,19.9327388],[85.4980344,19.9318088],[85.4977882,19.93108],[85.4977259,19.9309189],[85.4976792,19.9308604],[85.4976221,19.9308409],[85.4975546,19.930836],[85.4974664,19.9308555],[85.4964768,19.9311882]]}},{"type":"Feature","properties":{"id":864934361,"highway":"residential"},"geometry":{"type":"LineString","coordinates":[[85.4991422,19.9336762],[85.4995651,19.9342367],[85.4998603,19.9346611]]}},{"type":"Feature","properties":{"id":864936102,"highway":"residential"},"geometry":{"type":"LineString","coordinates":[[85.4980344,19.9318088],[85.4989085,19.9315406],[85.4990658,19.9315026],[85.4991782,19.9314899],[85.4993041,19.9314983],[85.499403,19.9315448],[85.4994974,19.9316082],[85.4995738,19.9316547],[85.4996278,19.9316716],[85.4996952,19.9316716],[85.4997869,19.9316568],[85.5011485,19.9311979],[85.5016639,19.9310326],[85.5017623,19.931023],[85.5018349,19.9310677],[85.501913,19.9311519],[85.5019634,19.9312848],[85.5019986,19.9314415],[85.5020999,19.9320571],[85.5021591,19.9324436],[85.5022466,19.9328294]]}},{"type":"Feature","properties":{"id":865208039,"highway":"residential"},"geometry":{"type":"LineString","coordinates":[[85.4999311,19.9388786],[85.4997843,19.9389438],[85.499441,19.9390556]]}},{"type":"Feature","properties":{"id":865208040,"highway":"residential"},"geometry":{"type":"LineString","coordinates":[[85.5002929,19.9393929],[85.5001529,19.9394225],[85.4999363,19.9394471],[85.4996732,19.9394559],[85.4993943,19.9394744],[85.4991782,19.9394992],[85.4989314,19.9395396],[85.4986462,19.9396012],[85.4983135,19.9397183]]}},{"type":"Feature","properties":{"id":865252912,"highway":"unclassified"},"geometry":{"type":"LineString","coordinates":[[85.4927076,19.9719649],[85.4927985,19.9719218],[85.4928786,19.9719147],[85.4929611,19.9719276],[85.493094,19.9719578],[85.4935295,19.9721559],[85.493667,19.9722205],[85.4937449,19.9722464],[85.4938549,19.9722679],[85.4939466,19.9722722],[85.4940474,19.972255],[85.4942582,19.972143],[85.4944691,19.9719879],[85.4946753,19.9718716],[85.4949091,19.9717769],[85.495097,19.9717209],[85.4959128,19.9715313],[85.4960228,19.9714969],[85.4961878,19.9714365],[85.4963574,19.9713375],[85.497206,19.970792],[85.4978613,19.9704229],[85.4982005,19.9702307],[85.4986855,19.9699194],[85.4988116,19.9698161],[85.4989381,19.9696418],[85.4990506,19.9694082],[85.4991199,19.9691943],[85.4991759,19.9690159],[85.499222,19.9688951]]}},{"type":"Feature","properties":{"id":865252913,"highway":"unclassified"},"geometry":{"type":"LineString","coordinates":[[85.499222,19.9688951],[85.4993591,19.9686896]]}},{"type":"Feature","properties":{"id":866255678,"highway":"residential"},"geometry":{"type":"LineString","coordinates":[[85.4970539,19.9566546],[85.4971102,19.956811],[85.4972161,19.9569887],[85.497243,19.9570517],[85.4972698,19.9571501],[85.4972832,19.9571923],[85.4973046,19.9572257],[85.4973569,19.9572837],[85.4975313,19.9574665],[85.4976681,19.957595],[85.497709,19.9576429],[85.4977566,19.9577072],[85.4978358,19.9578285]]}},{"type":"Feature","properties":{"id":866534746,"highway":"unclassified"},"geometry":{"type":"LineString","coordinates":[[85.4934061,19.92911],[85.4933846,19.9290066]]}},{"type":"Feature","properties":{"id":866534747,"highway":"unclassified"},"geometry":{"type":"LineString","coordinates":[[85.4946424,19.9351961],[85.494379,19.9337677],[85.494039,19.9320306],[85.4935807,19.9299209],[85.4934061,19.92911]]}},{"type":"Feature","properties":{"id":866534748,"highway":"residential"},"geometry":{"type":"LineString","coordinates":[[85.4917417,19.937668],[85.491959,19.9376579],[85.4920837,19.9376491],[85.4922473,19.9376252],[85.4923117,19.9376088],[85.492411,19.9375394],[85.4924861,19.9375003],[85.492541,19.937484],[85.4926135,19.9374739],[85.4927891,19.9374713],[85.4928817,19.9374751]]}},{"type":"Feature","properties":{"id":866534749,"highway":"tertiary"},"geometry":{"type":"LineString","coordinates":[[85.4770727,19.9404819],[85.4769545,19.9404893]]}},{"type":"Feature","properties":{"id":866534750,"highway":"tertiary"},"geometry":{"type":"LineString","coordinates":[[85.4769545,19.9404893],[85.4767524,19.9405091],[85.476388,19.9406204],[85.4762757,19.9406544],[85.4760117,19.9407342],[85.4757431,19.9408265],[85.4753927,19.9408925],[85.4751286,19.9409021],[85.474695,19.9408866],[85.4741564,19.9408642],[85.4736168,19.9408899],[85.4731286,19.9409572],[85.4722971,19.9411287]]}},{"type":"Feature","properties":{"id":866539612,"highway":"residential"},"geometry":{"type":"LineString","coordinates":[[85.4998848,19.9348256],[85.4999144,19.9348446],[85.4999399,19.9348749],[85.5000763,19.9352058]]}},{"type":"Feature","properties":{"id":891560325,"highway":"unclassified"},"geometry":{"type":"LineString","coordinates":[[85.4767258,19.9526891],[85.4774469,19.9532964],[85.4783642,19.9539923],[85.479008,19.9544209],[85.4800272,19.9553689]]}},{"type":"Feature","properties":{"id":1239344954,"highway":"tertiary"},"geometry":{"type":"LineString","coordinates":[[85.481597,19.9987799],[85.4816217,19.99861],[85.4813112,19.9978381],[85.4811834,19.9974998],[85.4810492,19.9972682],[85.4808118,19.9969666],[85.4805904,19.9967358],[85.4803185,19.9964977],[85.480103,19.996322],[85.4796617,19.9960276],[85.4791058,19.9956549],[85.4787885,19.9954351],[85.4785578,19.9952601],[85.4783706,19.9951057],[85.4781938,19.994934],[85.4780062,19.9947104],[85.4777341,19.9943417],[85.4774082,19.993866],[85.4767299,19.9929586],[85.4763498,19.9925084],[85.475644,19.9917228],[85.475152,19.991217],[85.4746344,19.9908265]]}},{"type":"Feature","properties":{"id":1239344955,"highway":"tertiary"},"geometry":{"type":"LineString","coordinates":[[85.4744622,19.9908494],[85.4750678,19.9917374],[85.4763092,19.9930941],[85.4769698,19.99406],[85.4769879,19.9940834],[85.4777261,19.9950395],[85.4780511,19.9954013],[85.4783545,19.9956467],[85.4787695,19.9959462],[85.4791604,19.9961934],[85.4798137,19.9965874],[85.4802485,19.9969376],[85.4805323,19.9972368],[85.4807926,19.9975899],[85.4809914,19.9979083],[85.4813426,19.9987253],[85.4815177,19.99892]]}},{"type":"Feature","properties":{"id":1239344956,"highway":"tertiary"},"geometry":{"type":"LineString","coordinates":[[85.4608998,19.9822822],[85.460621,19.9826495]]}},{"type":"Feature","properties":{"id":1239344958,"highway":"tertiary"},"geometry":{"type":"LineString","coordinates":[[85.4647459,19.9848634],[85.4643133,19.9843921],[85.4630467,19.9835311],[85.4620854,19.9829798],[85.4608998,19.9822822]]}},{"type":"Feature","properties":{"id":1239344959,"highway":"tertiary"},"geometry":{"type":"LineString","coordinates":[[85.4577218,19.9808001],[85.4585044,19.9814171],[85.4603814,19.9825105],[85.460621,19.9826495],[85.4626594,19.9838318],[85.4636299,19.9844787],[85.4642176,19.9848432],[85.46468,19.9849537]]}},{"type":"Feature","properties":{"id":1239344960,"highway":"unclassified"},"geometry":{"type":"LineString","coordinates":[[85.4454508,19.9737596],[85.4451975,19.9740799]]}},{"type":"Feature","properties":{"id":1239344962,"highway":"tertiary"},"geometry":{"type":"LineString","coordinates":[[85.4479903,19.9754182],[85.4478157,19.9751603],[85.4465602,19.9744299],[85.4454508,19.9737596],[85.4453238,19.9736855],[85.4435698,19.9725921],[85.4426221,19.9719452],[85.4409082,19.9707868],[85.4406644,19.9707951]]}},{"type":"Feature","properties":{"id":1239344963,"highway":"tertiary"},"geometry":{"type":"LineString","coordinates":[[85.4415481,19.9715483],[85.4418555,19.9719335],[85.4428295,19.9726058],[85.4451975,19.9740799],[85.4469048,19.9750888],[85.4474242,19.9753758],[85.4478629,19.9754793]]}},{"type":"Feature","properties":{"id":1239344966,"highway":"tertiary"},"geometry":{"type":"LineString","coordinates":[[85.4390337,19.969686],[85.4390193,19.9694773],[85.4377491,19.9685807],[85.4368721,19.9679427],[85.4365802,19.9677091],[85.4362807,19.9674121],[85.4355828,19.9667213],[85.4344024,19.9655773],[85.4342769,19.9654556],[85.4329862,19.9642091],[85.4312702,19.9625863],[85.431223,19.9625416],[85.4296011,19.9611429],[85.4294321,19.9610025],[85.4287127,19.9604048],[85.4268903,19.9587373],[85.4253549,19.9574753],[85.4244222,19.9566687],[85.4239653,19.9562361],[85.4225206,19.9549532],[85.421824,19.9543727],[85.4210768,19.9537257],[85.4206394,19.9532747],[85.419874,19.9525867],[85.4192043,19.9519853],[85.4183222,19.9514769]]}},{"type":"Feature","properties":{"id":1239344967,"highway":"tertiary"},"geometry":{"type":"LineString","coordinates":[[85.4179488,19.9513303],[85.4182703,19.9517302],[85.4200335,19.9532655],[85.421259,19.9544592],[85.422144,19.9552553],[85.4225302,19.9556028],[85.4238241,19.9566871],[85.4240339,19.9568688],[85.4249813,19.9576894],[85.4266807,19.9591109],[85.42874,19.9609561],[85.4290528,19.961223],[85.4300536,19.9620769],[85.4308046,19.962743],[85.4309525,19.9628766],[85.4315024,19.963373],[85.4324243,19.9642444],[85.4336097,19.9653873],[85.4340889,19.9658458],[85.4355987,19.9672905],[85.4363081,19.9680017],[85.4365615,19.9682189],[85.4369126,19.9684818],[85.4382749,19.9694567],[85.4404914,19.9710026],[85.4407495,19.9709981]]}},{"type":"Feature","properties":{"id":1239344969,"highway":"tertiary"},"geometry":{"type":"LineString","coordinates":[[85.4135442,19.947515],[85.4134033,19.9478871]]}},{"type":"Feature","properties":{"id":1239344970,"highway":"tertiary"},"geometry":{"type":"LineString","coordinates":[[85.394393,19.9428965],[85.3950598,19.9435681],[85.3956748,19.9440624],[85.396479,19.9446228],[85.3969756,19.9448574],[85.3975473,19.9450716],[85.3984585,19.9453313],[85.3995429,19.9455613],[85.4005163,19.9457738],[85.400834,19.9458432],[85.4016637,19.9460511],[85.4024836,19.9462168],[85.4032964,19.9464236],[85.4042879,19.9467505],[85.405026,19.9470466],[85.4060147,19.9474635],[85.406242,19.9475362],[85.4067322,19.9476571],[85.4074521,19.9477733],[85.4079874,19.9478029],[85.4085455,19.9477619],[85.4091743,19.9477072],[85.4102609,19.9476207],[85.4111333,19.9475774],[85.4115944,19.947547],[85.4120815,19.9475757],[85.4126726,19.9476627],[85.4134033,19.9478871],[85.413944,19.9480831],[85.4145367,19.9484316],[85.4151875,19.9489194],[85.4160333,19.9497255],[85.4173705,19.9509784],[85.417748,19.9511579]]}},{"type":"Feature","properties":{"id":1239344971,"highway":"tertiary"},"geometry":{"type":"LineString","coordinates":[[85.4183222,19.9514769],[85.418284,19.9512472],[85.4174144,19.9504652],[85.4162491,19.9493874],[85.4156099,19.9487673],[85.4151819,19.9484066],[85.4147081,19.94807],[85.4143834,19.9478903],[85.4138076,19.9476146],[85.4135442,19.947515],[85.4132919,19.9474195],[85.4126378,19.9472688],[85.4122176,19.9472013],[85.4117951,19.9471553],[85.4114914,19.9471412],[85.4107028,19.9471878],[85.4091105,19.9473063],[85.4083838,19.9473564],[85.4078234,19.9473883],[85.4071104,19.9473108],[85.4066639,19.9472083],[85.4064166,19.9471311],[85.4057254,19.9468917],[85.4048324,19.9465386],[85.4039485,19.9462151],[85.40342,19.946042],[85.4031193,19.9459782],[85.4017229,19.9456547],[85.4006131,19.9453709],[85.3996226,19.9451445],[85.3984699,19.9448825],[85.397971,19.9447754],[85.3973605,19.944575],[85.3968093,19.9443289],[85.3963195,19.9440077],[85.3959277,19.9437617],[85.3953081,19.9432514],[85.3950689,19.9430487],[85.3948297,19.9428248]]}},{"type":"Feature","properties":{"id":1364919193,"highway":"trunk"},"geometry":{"type":"LineString","coordinates":[[85.4769774,19.9938211],[85.4773114,19.9943002]]}},{"type":"Feature","properties":{"id":1364919195,"highway":"trunk"},"geometry":{"type":"LineString","coordinates":[[85.477462,19.9942366],[85.4771166,19.9937283]]}},{"type":"Feature","properties":{"id":1364919196,"highway":"trunk"},"geometry":{"type":"LineString","coordinates":[[85.4771166,19.9937283],[85.47672,19.993156],[85.4764382,19.9928178],[85.4751801,19.9914249],[85.4750077,19.9912359]]}},{"type":"Feature","properties":{"id":1364919197,"highway":"trunk"},"geometry":{"type":"LineString","coordinates":[[85.4748978,19.9913017],[85.4750577,19.9914677],[85.4763481,19.9928926],[85.4766156,19.9932271],[85.4769774,19.9938211]]}},{"type":"Feature","properties":{"id":1364919198,"highway":"trunk"},"geometry":{"type":"LineString","coordinates":[[85.480947,19.9973706],[85.4808708,19.9972598],[85.4806732,19.9970197],[85.4804753,19.9968264],[85.4802703,19.996656],[85.4797828,19.9962799],[85.4793599,19.9959956],[85.4788711,19.9956757],[85.4785659,19.9954663],[85.4783514,19.9952924],[85.4781014,19.9950443],[85.477911,19.994834],[85.4776504,19.9945078],[85.477462,19.9942366]]}},{"type":"Feature","properties":{"id":1364919199,"highway":"trunk"},"geometry":{"type":"LineString","coordinates":[[85.4773114,19.9943002],[85.4776327,19.9947319],[85.4778062,19.9949768],[85.4780345,19.9952144],[85.4782647,19.9954175],[85.4784681,19.9955712],[85.4787795,19.9957518],[85.4792886,19.9960797],[85.4796937,19.9963575],[85.4801809,19.9967137],[85.4803615,19.9968655],[85.4805723,19.9970789],[85.4807735,19.9973156],[85.4808412,19.9974187]]}},{"type":"Feature","properties":{"id":1364919364,"highway":"tertiary"},"geometry":{"type":"LineString","coordinates":[[85.4608998,19.9822822],[85.4593244,19.9814034],[85.4587686,19.981089],[85.4583035,19.9809931]]}},{"type":"Feature","properties":{"id":1364919365,"highway":"trunk"},"geometry":{"type":"LineString","coordinates":[[85.4750077,19.9912359],[85.4746344,19.9908265],[85.4743944,19.9905633],[85.4739798,19.9901319],[85.4735734,19.9897377],[85.4731379,19.9893599],[85.4727711,19.9890699],[85.4723062,19.9887248],[85.4720536,19.988548],[85.4714338,19.9881622],[85.4708146,19.9878084],[85.4694864,19.9871849],[85.4682078,19.9865994],[85.4666622,19.9858476],[85.4656645,19.9853699],[85.465112,19.985071],[85.4647459,19.9848634],[85.4643443,19.9846019]]}},{"type":"Feature","properties":{"id":1364919366,"highway":"trunk"},"geometry":{"type":"LineString","coordinates":[[85.4642795,19.9847028],[85.46468,19.9849537],[85.4650456,19.9851645],[85.4656121,19.9854739],[85.4665356,19.9859119],[85.4681509,19.9866962],[85.4694442,19.9872971],[85.4707376,19.987898],[85.4713916,19.9882703],[85.4721912,19.9887822],[85.4726311,19.9891039],[85.4730098,19.9893968],[85.4734642,19.9898006],[85.4738866,19.9902071],[85.4744622,19.9908494],[85.4748978,19.9913017]]}},{"type":"Feature","properties":{"id":1364919367,"highway":"trunk"},"geometry":{"type":"LineString","coordinates":[[85.4643443,19.9846019],[85.4642792,19.9845596],[85.4632786,19.9838785],[85.4627883,19.9835455],[85.4623274,19.9832615],[85.4614322,19.9827563]]}},{"type":"Feature","properties":{"id":1364919368,"highway":"trunk"},"geometry":{"type":"LineString","coordinates":[[85.4613765,19.9828547],[85.462252,19.9833522],[85.4627035,19.983626],[85.4631972,19.9839586],[85.4641906,19.9846471],[85.4642795,19.9847028]]}},{"type":"Feature","properties":{"id":1364919369,"highway":"trunk"},"geometry":{"type":"LineString","coordinates":[[85.4614322,19.9827563],[85.4602524,19.9820905]]}},{"type":"Feature","properties":{"id":1364919370,"highway":"trunk"},"geometry":{"type":"LineString","coordinates":[[85.4601808,19.9821753],[85.4613765,19.9828547]]}},{"type":"Feature","properties":{"id":1364919371,"highway":"trunk"},"geometry":{"type":"LineString","coordinates":[[85.4602524,19.9820905],[85.4598785,19.9818795],[85.4586396,19.9811823]]}},{"type":"Feature","properties":{"id":1364919372,"highway":"trunk"},"geometry":{"type":"LineString","coordinates":[[85.4585813,19.9812794],[85.4598094,19.9819642],[85.4601808,19.9821753]]}},{"type":"Feature","properties":{"id":1364922033,"highway":"trunk"},"geometry":{"type":"LineString","coordinates":[[85.4586396,19.9811823],[85.4583035,19.9809931],[85.4574027,19.9804861],[85.4554466,19.9794164],[85.454463,19.978878],[85.4535,19.9783615],[85.4519165,19.9775722],[85.4511212,19.9771712],[85.4504263,19.9767899],[85.4483582,19.9756284],[85.4479903,19.9754182],[85.447642,19.9752103]]}},{"type":"Feature","properties":{"id":1364922034,"highway":"trunk"},"geometry":{"type":"LineString","coordinates":[[85.4458585,19.9741459],[85.4451052,19.9736964]]}},{"type":"Feature","properties":{"id":1364922035,"highway":"trunk"},"geometry":{"type":"LineString","coordinates":[[85.4475853,19.9753203],[85.4478629,19.9754793],[85.4482446,19.9756979],[85.4503559,19.9768788],[85.4510421,19.9772568],[85.4518525,19.9776677],[85.453385,19.9784372],[85.4543744,19.97896],[85.4553815,19.9795075],[85.4573308,19.980582],[85.4577218,19.9808001],[85.4585813,19.9812794]]}},{"type":"Feature","properties":{"id":1364922036,"highway":"trunk"},"geometry":{"type":"LineString","coordinates":[[85.4450272,19.9738177],[85.4457619,19.9742592]]}},{"type":"Feature","properties":{"id":1364922037,"highway":"trunk"},"geometry":{"type":"LineString","coordinates":[[85.447642,19.9752103],[85.4463942,19.9744656],[85.4458585,19.9741459]]}},{"type":"Feature","properties":{"id":1364922038,"highway":"trunk"},"geometry":{"type":"LineString","coordinates":[[85.4457619,19.9742592],[85.4462925,19.9745799],[85.4475853,19.9753203]]}},{"type":"Feature","properties":{"id":1364922039,"highway":"trunk"},"geometry":{"type":"LineString","coordinates":[[85.4451052,19.9736964],[85.443163,19.972506],[85.441268,19.9712082],[85.4409875,19.9710161]]}},{"type":"Feature","properties":{"id":1364922040,"highway":"trunk"},"geometry":{"type":"LineString","coordinates":[[85.4418758,19.9717741],[85.4430774,19.9726018],[85.4450272,19.9738177]]}},{"type":"Feature","properties":{"id":1364922041,"highway":"tertiary_link"},"geometry":{"type":"LineString","coordinates":[[85.4340889,19.9658458],[85.4344024,19.9655773]]}},{"type":"Feature","properties":{"id":1364922042,"highway":"trunk"},"geometry":{"type":"LineString","coordinates":[[85.4409875,19.9710161],[85.440707,19.970824],[85.4406644,19.9707951],[85.4398424,19.9702373],[85.4391448,19.969764],[85.4390337,19.969686],[85.438395,19.9692374],[85.4376644,19.9687065],[85.4367925,19.9680719],[85.4363525,19.9677075],[85.4359499,19.9673257],[85.4353815,19.9667322],[85.43483,19.9661821],[85.4346574,19.9660158]]}},{"type":"Feature","properties":{"id":1364922043,"highway":"trunk"},"geometry":{"type":"LineString","coordinates":[[85.4346574,19.9660158],[85.4341455,19.9655228]]}},{"type":"Feature","properties":{"id":1364922044,"highway":"trunk"},"geometry":{"type":"LineString","coordinates":[[85.4345786,19.9660946],[85.4347351,19.966244],[85.4353613,19.9668655],[85.435866,19.9674076],[85.4362944,19.9678083],[85.4367229,19.9681588],[85.4375571,19.9687763],[85.4383151,19.9693165],[85.4390958,19.9698586],[85.4406293,19.9709153],[85.4407495,19.9709981],[85.4412604,19.9713501],[85.4415481,19.9715483],[85.4418758,19.9717741]]}},{"type":"Feature","properties":{"id":1364922045,"highway":"trunk"},"geometry":{"type":"LineString","coordinates":[[85.4340641,19.9656036],[85.4345786,19.9660946]]}},{"type":"Feature","properties":{"id":1364922046,"highway":"trunk"},"geometry":{"type":"LineString","coordinates":[[85.4310738,19.9625673],[85.4293414,19.9610853],[85.4261816,19.9583821],[85.4244461,19.9568542],[85.4241233,19.9565777]]}},{"type":"Feature","properties":{"id":1364922047,"highway":"trunk"},"geometry":{"type":"LineString","coordinates":[[85.4227371,19.9553908],[85.4220642,19.9548164]]}},{"type":"Feature","properties":{"id":1364922048,"highway":"trunk"},"geometry":{"type":"LineString","coordinates":[[85.4240445,19.9566748],[85.4242587,19.9568611],[85.4260756,19.9584417],[85.4291505,19.9611348],[85.4309512,19.9627119]]}},{"type":"Feature","properties":{"id":1364922049,"highway":"trunk"},"geometry":{"type":"LineString","coordinates":[[85.4219851,19.9548977],[85.42265,19.9554633]]}},{"type":"Feature","properties":{"id":1364922050,"highway":"tertiary_link"},"geometry":{"type":"LineString","coordinates":[[85.4312702,19.9625863],[85.4309525,19.9628766]]}},{"type":"Feature","properties":{"id":1364922051,"highway":"trunk"},"geometry":{"type":"LineString","coordinates":[[85.4341455,19.9655228],[85.4329529,19.9643741],[85.4320126,19.963448],[85.4314339,19.9628817]]}},{"type":"Feature","properties":{"id":1364922052,"highway":"trunk"},"geometry":{"type":"LineString","coordinates":[[85.4314339,19.9628817],[85.4310738,19.9625673]]}},{"type":"Feature","properties":{"id":1364922053,"highway":"trunk"},"geometry":{"type":"LineString","coordinates":[[85.4313016,19.9630262],[85.4318843,19.9635491],[85.432871,19.9644648],[85.4340641,19.9656036]]}},{"type":"Feature","properties":{"id":1364922054,"highway":"trunk"},"geometry":{"type":"LineString","coordinates":[[85.4309512,19.9627119],[85.4313016,19.9630262]]}},{"type":"Feature","properties":{"id":1364922055,"highway":"trunk_link"},"geometry":{"type":"LineString","coordinates":[[85.4293414,19.9610853],[85.4294321,19.9610025]]}},{"type":"Feature","properties":{"id":1364922056,"highway":"trunk_link"},"geometry":{"type":"LineString","coordinates":[[85.4291505,19.9611348],[85.4290528,19.961223]]}},{"type":"Feature","properties":{"id":1364922057,"highway":"trunk_link"},"geometry":{"type":"LineString","coordinates":[[85.4244461,19.9568542],[85.4244222,19.9566687]]}},{"type":"Feature","properties":{"id":1364922058,"highway":"trunk_link"},"geometry":{"type":"LineString","coordinates":[[85.4240339,19.9568688],[85.4242587,19.9568611]]}},{"type":"Feature","properties":{"id":1364922059,"highway":"trunk_link"},"geometry":{"type":"LineString","coordinates":[[85.4005474,19.9456554],[85.4005163,19.9457738]]}},{"type":"Feature","properties":{"id":1364922060,"highway":"trunk_link"},"geometry":{"type":"LineString","coordinates":[[85.4006131,19.9453709],[85.4005768,19.9455106]]}},{"type":"Feature","properties":{"id":1364922061,"highway":"trunk"},"geometry":{"type":"LineString","coordinates":[[85.419127,19.9523164],[85.4196482,19.9527485],[85.4203733,19.953401],[85.4211993,19.9542026],[85.4215577,19.9545414],[85.4219851,19.9548977]]}},{"type":"Feature","properties":{"id":1364922062,"highway":"trunk"},"geometry":{"type":"LineString","coordinates":[[85.4220642,19.9548164],[85.4216505,19.9544646],[85.4212901,19.95413],[85.4205007,19.9533761],[85.4197277,19.9526615],[85.4192075,19.952223]]}},{"type":"Feature","properties":{"id":1364922063,"highway":"trunk"},"geometry":{"type":"LineString","coordinates":[[85.4008443,19.9457238],[85.4032759,19.9462885],[85.406074,19.9473037]]}},{"type":"Feature","properties":{"id":1364922064,"highway":"trunk"},"geometry":{"type":"LineString","coordinates":[[85.406074,19.9473037],[85.4066046,19.9474766]]}},{"type":"Feature","properties":{"id":1364922065,"highway":"trunk"},"geometry":{"type":"LineString","coordinates":[[85.4061152,19.9471512],[85.4032218,19.9460919],[85.4009045,19.9455804]]}},{"type":"Feature","properties":{"id":1364922066,"highway":"trunk"},"geometry":{"type":"LineString","coordinates":[[85.4066649,19.9473317],[85.4061152,19.9471512]]}},{"type":"Feature","properties":{"id":1364922067,"highway":"trunk"},"geometry":{"type":"LineString","coordinates":[[85.4066046,19.9474766],[85.4071954,19.9475771],[85.4078362,19.9476154],[85.4082208,19.9476127],[85.4102919,19.9474812],[85.4107143,19.9474429],[85.411262,19.9474128],[85.4117747,19.9474155],[85.4121068,19.9474511],[85.4124621,19.9475059],[85.4129628,19.9476181]]}},{"type":"Feature","properties":{"id":1364922068,"highway":"trunk"},"geometry":{"type":"LineString","coordinates":[[85.4129628,19.9476181],[85.4136579,19.9478287]]}},{"type":"Feature","properties":{"id":1364922069,"highway":"trunk"},"geometry":{"type":"LineString","coordinates":[[85.4130101,19.9474511],[85.4125273,19.9473526],[85.4118214,19.9472701],[85.4111358,19.9472746],[85.4103191,19.9473357],[85.4082566,19.9474712],[85.4078937,19.9474838],[85.4074886,19.9474708],[85.4071641,19.9474342],[85.4066649,19.9473317]]}},{"type":"Feature","properties":{"id":1364922070,"highway":"trunk"},"geometry":{"type":"LineString","coordinates":[[85.4137065,19.9476783],[85.4130101,19.9474511]]}},{"type":"Feature","properties":{"id":1364922071,"highway":"trunk"},"geometry":{"type":"LineString","coordinates":[[85.4172551,19.950487],[85.4170442,19.9502914],[85.4166551,19.9499035],[85.4150671,19.9484596],[85.414161,19.94788],[85.4137065,19.9476783]]}},{"type":"Feature","properties":{"id":1364922072,"highway":"trunk"},"geometry":{"type":"LineString","coordinates":[[85.4136579,19.9478287],[85.4139114,19.947928],[85.4144802,19.9482588],[85.4149793,19.9486017],[85.4169301,19.9504291],[85.4171148,19.9505936]]}},{"type":"Feature","properties":{"id":1364922073,"highway":"trunk"},"geometry":{"type":"LineString","coordinates":[[85.4192075,19.952223],[85.4183222,19.9514769],[85.4172551,19.950487]]}},{"type":"Feature","properties":{"id":1364922074,"highway":"trunk"},"geometry":{"type":"LineString","coordinates":[[85.4171148,19.9505936],[85.417748,19.9511579],[85.4179488,19.9513303],[85.4182511,19.9515902],[85.419127,19.9523164]]}},{"type":"Feature","properties":{"id":1364922075,"highway":"trunk"},"geometry":{"type":"LineString","coordinates":[[85.4241233,19.9565777],[85.4227371,19.9553908]]}},{"type":"Feature","properties":{"id":1364922076,"highway":"trunk"},"geometry":{"type":"LineString","coordinates":[[85.42265,19.9554633],[85.4240445,19.9566748]]}},{"type":"Feature","properties":{"id":1528997584,"highway":"unclassified"},"geometry":{"type":"LineString","coordinates":[[85.3812051,19.9869594],[85.3828508,19.9871979],[85.3830922,19.9872584],[85.3831887,19.9873239],[85.3833657,19.9875004],[85.3837144,19.9877272],[85.3839719,19.9878281],[85.3842616,19.9878936],[85.3869814,19.9882767],[85.3881937,19.9880902],[85.3910208,19.9877222],[85.3926676,19.9875205],[85.3932202,19.9873995],[85.3937405,19.9872937],[85.3940946,19.9872634],[85.3943306,19.9872937],[85.3945237,19.9873895],[85.3948295,19.9876667],[85.3957146,19.9885842],[85.3967071,19.9899303],[85.3978765,19.9909234],[85.3998023,19.9912561],[85.4008537,19.9911906],[85.4018354,19.9911049],[85.4054564,19.9905655],[85.4072857,19.9901773],[85.4089272,19.9897992],[85.4110891,19.9891085],[85.411824,19.9888212],[85.4120386,19.9886851],[85.4123819,19.9883523],[85.4128593,19.9878583],[85.4131919,19.9875407],[85.4136211,19.9872735],[85.4142004,19.9869761],[85.4147798,19.9867442],[85.4156059,19.9865476],[85.4164749,19.9863207],[85.417285,19.986114],[85.4180574,19.9857409],[85.4185939,19.985751],[85.4197311,19.98562],[85.4231322,19.9850049],[85.4252672,19.9843798],[85.4258037,19.9841075],[85.4274452,19.9832807],[85.4283893,19.9829984],[85.4298592,19.9827766],[85.4329598,19.9821615],[85.4346871,19.9817986],[85.4360711,19.9814255],[85.4378629,19.9811633],[85.4385066,19.9810423],[85.4388177,19.9808407],[85.4390216,19.9805987],[85.4402449,19.9786551]]}},{"type":"Feature","properties":{"id":1529307462,"highway":"unclassified"},"geometry":{"type":"LineString","coordinates":[[85.4402449,19.9786551],[85.4401991,19.9797063],[85.4399335,19.9818389],[85.4400623,19.982706],[85.4406202,19.9844302],[85.4408991,19.9851561],[85.4413015,19.9870618],[85.4418004,19.9881406],[85.4421544,19.9885389],[85.442546,19.9890783],[85.4427123,19.9896732],[85.4428357,19.9901521],[85.4439676,19.99235],[85.4442626,19.9930054],[85.4445952,19.9940791],[85.4446703,19.9945832],[85.4445791,19.9961258],[85.4446006,19.996645]]}},{"type":"Feature","properties":{"id":1529415138,"highway":"unclassified"},"geometry":{"type":"LineString","coordinates":[[85.3980648,19.9616719],[85.3986329,19.9622465],[85.3990298,19.9631137],[85.3991371,19.963396],[85.3996146,19.9639406],[85.3998774,19.9641675],[85.4000491,19.9643843],[85.4002637,19.9647423],[85.4004031,19.9650246],[85.4005883,19.9656161],[85.400666,19.9658641],[85.400843,19.9661515],[85.4010013,19.9662902],[85.4013205,19.966512],[85.4015565,19.9666935],[85.4019749,19.9673187],[85.4021895,19.9674549],[85.4027367,19.967591],[85.4030317,19.967596],[85.4034501,19.9675355],[85.4038739,19.9674095],[85.4040241,19.9673893],[85.4041743,19.9674902],[85.4048502,19.9681809],[85.4052097,19.968912],[85.4056388,19.9694868],[85.4066259,19.9702783],[85.4072857,19.9707472],[85.4076558,19.9711254],[85.4078972,19.9714279],[85.4079777,19.9716749],[85.4079992,19.9720329],[85.4080743,19.9724614],[85.4083532,19.9728497],[85.4084766,19.9730715],[85.4085517,19.9733337],[85.4086858,19.9735202],[85.4089808,19.9738479],[85.4092115,19.9741908],[85.4092759,19.9744025],[85.4092812,19.9746697],[85.4093027,19.9748512],[85.4094261,19.9749722],[85.4100805,19.9752546],[85.4103541,19.9754411],[85.4105955,19.9757839],[85.4114538,19.9767419],[85.4119956,19.9773317],[85.4122961,19.9778208],[85.4124784,19.978335],[85.4126018,19.9789148],[85.4127574,19.9800794],[85.4128593,19.9809365],[85.41287,19.9820305],[85.412913,19.9836336],[85.4130363,19.9849747],[85.4132724,19.9867795],[85.4131919,19.9875407]]}},{"type":"Feature","properties":{"id":1529738178,"highway":"unclassified"},"geometry":{"type":"LineString","coordinates":[[85.4954284,19.9926525],[85.4962599,19.9923047],[85.4964906,19.9922593],[85.497188,19.9921736],[85.4974669,19.992103],[85.4978049,19.9918409],[85.4982984,19.9916796],[85.4993284,19.9915586],[85.4995,19.9915939],[85.4997146,19.9919719],[85.499441,19.9922996],[85.4996073,19.9926727],[85.4990923,19.9929398],[85.4989207,19.9931516],[85.4990011,19.993701],[85.4986846,19.9938674],[85.4983896,19.9941951],[85.4980141,19.994558],[85.4978532,19.9947647]]}},{"type":"Feature","properties":{"id":1529738179,"highway":"unclassified"},"geometry":{"type":"LineString","coordinates":[[85.4904503,19.992587],[85.4916197,19.9925315],[85.4920649,19.9924811],[85.4926979,19.9925265],[85.4938191,19.9926071],[85.494656,19.9926727],[85.4951656,19.992713],[85.4954284,19.9926525],[85.4958388,19.992045],[85.4963645,19.9913645],[85.4966891,19.990873],[85.49685,19.9905528],[85.496909,19.9900689],[85.4969653,19.9899252]]}}]}