{"type":"FeatureCollection","features":[{"type":"Feature","properties":{"id":867244614,"highway":"residential"},"geometry":{"type":"LineString","coordinates":[[86.0008701,20.0649286],[86.0006441,20.0649049],[86.0004229,20.0648801],[86.00039,20.0648706],[86.0003718,20.0648471],[86.0003394,20.0647346],[86.0003187,20.0647108],[86.0002869,20.064697],[86.0002362,20.064697],[86.000155,20.0647056],[86.0000156,20.0647194],[85.9994387,20.0647766],[85.9989328,20.064827],[85.998868,20.0648299],[85.9988174,20.0648192],[85.9987694,20.0647918]]}},{"type":"Feature","properties":{"id":867268706,"highway":"residential"},"geometry":{"type":"LineString","coordinates":[[85.9999064,20.0572858],[85.9999288,20.0573905],[85.9999422,20.0574867],[85.9999616,20.0576877],[86.0000005,20.0580257],[86.0000068,20.0582885],[86.0000092,20.0584115],[86.0000023,20.0584457],[85.9999809,20.0584709],[85.9999423,20.0584805],[85.999304,20.0584874]]}},{"type":"Feature","properties":{"id":868641689,"highway":"unclassified"},"geometry":{"type":"LineString","coordinates":[[86.0077685,19.9841027],[86.0077434,19.98417],[86.0076471,19.9843605],[86.0075976,19.984475],[86.0075773,19.9845641],[86.0075703,19.9846518],[86.007577,19.9848423],[86.0076073,19.9853022],[86.0076712,19.985897],[86.0076972,19.9861196],[86.0077202,19.9863094],[86.0077399,19.9865275],[86.0077373,19.9865796],[86.0077273,19.9866395],[86.0077143,19.9866995],[86.0076961,19.9867521],[86.0076611,19.9868308],[86.0076204,19.9868992],[86.0075646,19.9869719],[86.0074676,19.9870805],[86.0071216,19.9874027],[86.0067596,19.9877045],[86.0064181,19.9879544],[86.0062492,19.9880923],[86.0061137,19.9882176],[86.0059277,19.9884192],[86.0057534,19.9886446],[86.0054772,19.9890383],[86.0053738,19.9892298],[86.0052943,19.9894072],[86.0051989,19.989732],[86.0050642,19.9904217],[86.0050398,19.9904882],[86.0050052,19.9905375],[86.0049685,19.9905716],[86.0049147,19.9906057],[86.0048139,19.9906795],[86.0045978,19.9908724],[86.0042343,19.9913352],[86.0039294,19.991678],[86.0035791,19.9920402],[86.0032305,19.992378],[86.0030449,19.992575],[86.0028772,19.9928024],[86.0027201,19.9930678],[86.002459,19.9936157],[86.001396,19.9956241],[86.0012275,19.9960143],[86.0011485,19.9963091],[86.0011289,19.9964802],[86.0011394,19.9966853],[86.0011547,19.9968731],[86.0012006,19.9970408],[86.0012982,19.997246],[86.0016234,19.9977841],[86.0017866,19.9980693],[86.0023852,19.9990652],[86.0024866,19.9992134],[86.0025557,19.9993109],[86.0026391,19.9994016],[86.0027178,19.9994838],[86.0028298,19.9995855],[86.0028581,19.9996082],[86.0031788,19.9998663],[86.0043519,20.0007635],[86.005029,20.0012113],[86.0052891,20.0013855],[86.0055635,20.0016184],[86.0058398,20.0018964],[86.0061346,20.0022444],[86.0064417,20.0026347],[86.0066007,20.0028322],[86.0069123,20.0031803],[86.007126,20.0034219],[86.0072131,20.0035311],[86.0072909,20.0036433],[86.0073859,20.0037875],[86.0074528,20.0039113],[86.0075842,20.0041966],[86.0077189,20.0044817],[86.0077573,20.0045747],[86.0077843,20.0046515],[86.0078256,20.0048473],[86.0078484,20.005015],[86.007851,20.0051339],[86.0078446,20.0052495],[86.0078209,20.0053431],[86.0077782,20.0054484],[86.0077145,20.0055593],[86.0076392,20.0056594],[86.0075376,20.0057753],[86.0073688,20.0059451],[86.0071871,20.0061108],[86.0070262,20.006252],[86.0069073,20.0063518],[86.0066808,20.0065286],[86.0064557,20.0066715],[86.0062756,20.0067707],[86.0061012,20.0068617],[86.0058129,20.0069961],[86.0045654,20.007525],[86.0044046,20.0076025],[86.0042815,20.0076796],[86.0041994,20.0077567],[86.0040956,20.007886],[86.0038706,20.0083328],[86.0035621,20.0089453],[86.0035259,20.0090383],[86.003497,20.0091517],[86.0034801,20.009281],[86.0034801,20.0094103],[86.0035114,20.0103675],[86.0035347,20.0109205],[86.0035367,20.0112519],[86.0035332,20.0116718],[86.0035347,20.0120265],[86.0035347,20.0121673],[86.0035452,20.0122623],[86.0035626,20.0123933],[86.0035975,20.0125309],[86.0037543,20.0130254],[86.0038345,20.0132252],[86.0038798,20.013366],[86.0039321,20.0135527],[86.0040122,20.0137918],[86.0040554,20.0139002],[86.0041085,20.0139895],[86.0042343,20.0140946],[86.0043685,20.0141813],[86.0046453,20.0143599],[86.0048601,20.014512],[86.0050144,20.0146332],[86.0053751,20.0149616],[86.005459,20.0150378],[86.0055513,20.0151455],[86.0056352,20.0152979],[86.0057023,20.015487],[86.0057414,20.0156683],[86.0057694,20.0159915],[86.0057719,20.0162915],[86.005761,20.0164827],[86.0057291,20.0166979],[86.0057053,20.0168418],[86.005704,20.0169842],[86.0057093,20.0171493],[86.0057361,20.0174151],[86.0057697,20.017802],[86.0058099,20.0182745],[86.0058166,20.0184308],[86.0058126,20.0185316],[86.0057965,20.0186891],[86.0057697,20.0188743],[86.0057268,20.019178],[86.005653,20.0195346],[86.005594,20.0198042],[86.0055497,20.0199391],[86.0055189,20.0199907],[86.0054693,20.0200411],[86.0054103,20.0201016],[86.0051434,20.0202806],[86.0048993,20.0204192],[86.0042824,20.0207279],[86.0037111,20.0210101],[86.0035273,20.0211122],[86.0026476,20.0215872],[86.0022023,20.021843],[86.001623,20.0221694],[86.0012072,20.0224],[86.000365,20.0229443],[86.0000458,20.023151],[85.9999198,20.0232429],[85.9998192,20.0233324],[85.999724,20.0234382],[85.9996207,20.0235831],[85.9993123,20.0240683],[85.999209,20.0242648],[85.9990615,20.0245622],[85.9986739,20.0254203],[85.9986216,20.025574],[85.9985948,20.0257],[85.9985746,20.0258512],[85.9985626,20.026044],[85.9985331,20.0268957],[85.9985223,20.0275384],[85.9985037,20.028139],[85.9984885,20.0286618],[85.9984565,20.0292338],[85.9984152,20.0297663],[85.9983908,20.0302177],[85.9983889,20.030327],[85.9983983,20.0304099],[85.9984152,20.0304787],[85.9984471,20.0305404],[85.9984865,20.0305986],[85.9985466,20.0306585],[85.9986592,20.0307432],[85.9988731,20.0308895],[85.9991697,20.0310676],[85.9995668,20.0313027],[85.999647,20.0313519],[85.9996889,20.0313846],[85.9997447,20.0314371],[85.999783,20.0314829],[85.9998667,20.0316025],[85.9999086,20.0316779],[85.9999505,20.0317762],[85.9999871,20.0318876],[86.0000063,20.0319859],[86.000022,20.03204],[86.0000499,20.032094],[86.0000952,20.0321563],[86.0001632,20.0322366],[86.0002678,20.0323496],[86.0003481,20.0324315],[86.0004597,20.0325282],[86.0005608,20.0326019],[86.0006463,20.0326494],[86.000723,20.0326822],[86.0008154,20.0327035],[86.0009392,20.032715],[86.0010379,20.0327228],[86.0011729,20.0327428],[86.0012566,20.0327641],[86.0013525,20.0327985],[86.0014885,20.0328657],[86.0018024,20.0330508],[86.0020309,20.0332048],[86.0021373,20.0332851],[86.0021948,20.0333392],[86.0022419,20.0333933],[86.0023587,20.033562],[86.0024669,20.0337439],[86.0025523,20.0338635],[86.0027197,20.0340846],[86.0029272,20.0343451],[86.0031609,20.0346351],[86.003426,20.0349824],[86.0036945,20.0353199],[86.0038846,20.0355313],[86.0040276,20.035682],[86.0042997,20.0359523],[86.0045002,20.0361457],[86.0048176,20.036416],[86.0050861,20.0366175],[86.0052727,20.0367666],[86.005339,20.0368256],[86.0053878,20.0368763],[86.0054122,20.036914],[86.0054349,20.0369583],[86.0054768,20.0370697],[86.0055692,20.0374104],[86.0055971,20.0375153],[86.0056128,20.0376087],[86.0056215,20.0377004],[86.0056198,20.0377922],[86.0056058,20.0379118],[86.0054994,20.0384393],[86.0054053,20.0388407],[86.0053198,20.0391896],[86.0053041,20.039283],[86.0052989,20.039378],[86.0053041,20.0394534],[86.005325,20.0395304],[86.0054105,20.0397499],[86.0056093,20.0402447],[86.0056924,20.040418]]}},{"type":"Feature","properties":{"id":872807459,"highway":"tertiary"},"geometry":{"type":"LineString","coordinates":[[86.0024838,20.0470803],[86.0024513,20.0469371],[86.0024381,20.0468843],[86.0024146,20.0467777],[86.0023873,20.0466177],[86.0023664,20.0464822],[86.002349,20.0463069],[86.0022803,20.0455297],[86.0022445,20.0450329],[86.0022198,20.0447026],[86.0021986,20.0444634],[86.0021905,20.044219],[86.002188,20.0441824],[86.002179,20.0437283],[86.0021671,20.04347],[86.0021611,20.0433406],[86.0021378,20.0430526],[86.0021113,20.0428269],[86.0020897,20.0426657],[86.0020681,20.0424449],[86.0020612,20.0422414],[86.0020602,20.0422001],[86.0020523,20.0419705],[86.00204,20.0418128],[86.0020325,20.0417584],[86.00202,20.0416841],[86.0019611,20.0414808],[86.0018645,20.0412017],[86.0017679,20.0409557],[86.0016473,20.040622],[86.0016297,20.0405731],[86.0015853,20.040434],[86.0015311,20.0401912],[86.0015094,20.0400814],[86.0014982,20.0399716],[86.0014917,20.0398034],[86.0014781,20.0396783],[86.0014415,20.039518],[86.0013433,20.0391168],[86.0012593,20.0387356],[86.0012521,20.0387061],[86.0012308,20.038631],[86.0011943,20.0385027],[86.0011392,20.0383378],[86.0011157,20.0382481],[86.0010939,20.0381484],[86.0010869,20.0380977],[86.0010574,20.0378855],[86.0010383,20.0376429],[86.0010352,20.0375398],[86.0010371,20.0374286],[86.0010382,20.0373929],[86.0010445,20.0371869],[86.0010487,20.0371164],[86.0010583,20.0369824],[86.0010631,20.036873],[86.001069,20.0367792],[86.0010806,20.0365824],[86.0010903,20.036389],[86.0010925,20.0363447],[86.001093,20.0362534],[86.0010938,20.0361253],[86.001081,20.0359291],[86.0010699,20.0357892],[86.0010543,20.0355363],[86.0010183,20.0351372],[86.0010159,20.0350754],[86.0010052,20.0347994],[86.0009998,20.0344353],[86.001005,20.0339973],[86.0010055,20.0336164],[86.0009991,20.0335596],[86.0009875,20.0335213],[86.0009614,20.0334802],[86.0009073,20.033426],[86.0008289,20.0333563],[86.0003344,20.0329167],[85.9997526,20.0324158],[85.9994253,20.0321366],[85.9990875,20.0318275],[85.9986788,20.0314721],[85.9985142,20.0313152],[85.9983936,20.0311786],[85.9982592,20.0309918],[85.9981562,20.030793],[85.998085,20.0306307],[85.9980305,20.0304749],[85.9979971,20.0303357],[85.9979797,20.0302198],[85.9979738,20.0300901],[85.9979399,20.0291777],[85.9978924,20.028162],[85.9977792,20.0251236],[85.9978461,20.0246551],[85.9979566,20.0242904],[85.9984168,20.0231745],[85.9986736,20.0225203],[85.9987998,20.0221987],[85.9993646,20.0209182],[85.9996276,20.020322],[86.0004348,20.0184598],[86.0014733,20.0161434],[86.0018723,20.0152616],[86.0019078,20.0151217],[86.0019785,20.0149107],[86.0020181,20.0148063],[86.0020389,20.0146724],[86.002044,20.0144575],[86.0019515,20.0134889],[86.0018952,20.0128693],[86.0018852,20.0127313],[86.0018919,20.0125694],[86.0018939,20.0124673],[86.0018899,20.0123149],[86.0018798,20.0122172],[86.0018624,20.0120282],[86.0018476,20.0118738],[86.0018456,20.0116495],[86.0018437,20.0115455],[86.0018362,20.0111357],[86.0018392,20.0111064],[86.00185,20.0110828],[86.0018664,20.0110686],[86.0018865,20.0110617],[86.001912,20.0110557],[86.0023867,20.0110128],[86.0024152,20.0110081],[86.002432,20.0110012],[86.0024465,20.0109861],[86.0024531,20.0109725],[86.0024553,20.0109546],[86.0024473,20.0108322],[86.0024028,20.010411],[86.0023966,20.0103332],[86.0023887,20.0102836],[86.002381,20.0102179],[86.0023635,20.0101193],[86.002295,20.009807],[86.0022877,20.0097523],[86.0022833,20.0096742],[86.0022848,20.0095783],[86.0022979,20.0094482],[86.0023284,20.0092803],[86.002368,20.0091146],[86.0023986,20.0088914],[86.002395,20.0087967],[86.0023878,20.0087122],[86.0023662,20.0086412],[86.0022878,20.0084533],[86.0022025,20.008232],[86.0020657,20.0078449],[86.0019609,20.0075754]]}},{"type":"Feature","properties":{"id":872891393,"highway":"residential"},"geometry":{"type":"LineString","coordinates":[[85.999042,20.0071194],[85.9990994,20.0071553],[85.9991741,20.0072007],[85.9992187,20.0072231],[85.9992908,20.0072464],[85.9993381,20.007258],[85.9993884,20.0072675],[85.9995114,20.0072814],[85.9996353,20.007284],[85.9998202,20.0072787],[85.9999349,20.0072686],[86.0000445,20.007253],[86.0000948,20.0072492],[86.0001488,20.0072489],[86.0001877,20.0072517],[86.0002641,20.0072639],[86.0003191,20.0072692],[86.00037,20.0072705],[86.0004193,20.0072695],[86.0004837,20.0072629],[86.0005474,20.0072541],[86.0006275,20.007245],[86.0006637,20.0072412],[86.000708,20.0072295],[86.0007506,20.0072125],[86.0007653,20.0071942],[86.0007704,20.0071763],[86.0007643,20.0071407],[86.0007526,20.0071048],[86.0007405,20.0070758],[86.000709,20.007021],[86.0006768,20.0069643],[86.0006373,20.006871],[86.0006192,20.0067935],[86.0005957,20.0066562],[86.0005853,20.0065435],[86.0005835,20.0065095],[86.0005818,20.0064846],[86.0005798,20.0064681],[86.0005789,20.0064364],[86.0005917,20.0060525],[86.000595,20.0060179],[86.0006104,20.0059788]]}},{"type":"Feature","properties":{"id":872977524,"highway":"residential"},"geometry":{"type":"LineString","coordinates":[[85.997172,20.0111457],[85.9972646,20.0110899],[85.9974006,20.0109821],[85.9977474,20.0106959],[85.9979557,20.0105305],[85.9980007,20.0104971],[85.9980644,20.0104549],[85.9980815,20.0104472],[85.9980963,20.010442],[85.9981192,20.0104414],[85.9981408,20.0104437],[85.9981797,20.0104522],[85.9982048,20.0104547],[85.9982333,20.010454],[85.998255,20.0104499],[85.9982784,20.0104429],[85.9983116,20.0104308],[85.998743,20.0102571],[85.9988181,20.0102325],[85.9989118,20.0102071],[85.9990373,20.0101871],[85.9991553,20.0101663],[85.999329,20.0101279],[85.9994417,20.010095],[85.9996158,20.0100638],[85.9998309,20.0100436],[86.0002208,20.0100409],[86.0003208,20.0100309],[86.0003627,20.0100307],[86.000416,20.0100391],[86.0004589,20.0100548],[86.0005719,20.0101042],[86.0006052,20.0101134],[86.0006386,20.0101178],[86.0006869,20.0101191],[86.0007954,20.0101111],[86.0009591,20.010095],[86.0011312,20.0100748],[86.0011859,20.0100748],[86.001225,20.0100913],[86.0012739,20.0101501],[86.001345,20.010241],[86.0013571,20.0102549],[86.0013765,20.010263],[86.001401,20.0102646],[86.0014245,20.0102624],[86.0015437,20.0102401],[86.00162,20.010231],[86.0016982,20.0102383],[86.0017803,20.0102604],[86.0018742,20.0102989],[86.0019113,20.0103081],[86.0019993,20.0103136],[86.0023887,20.0102836]]}},{"type":"Feature","properties":{"id":873351034,"highway":"residential"},"geometry":{"type":"LineString","coordinates":[[85.9998353,20.0203927],[85.9998809,20.0204015],[85.9999087,20.0204053],[85.9999399,20.0204053],[86.000011,20.0203977],[86.0005608,20.0203158],[86.0025068,20.0200399],[86.0035354,20.0198862],[86.0035978,20.0198773],[86.0036547,20.0198616],[86.0036876,20.0198414],[86.0037138,20.0198181],[86.0037258,20.0197898],[86.0037359,20.0197507],[86.0037459,20.0195774],[86.0037808,20.018931],[86.003813,20.018679],[86.0038371,20.0185316],[86.0038603,20.0184292],[86.0038675,20.0184106],[86.003879,20.018398],[86.0038948,20.0183867],[86.0039106,20.0183813],[86.003931,20.0183766],[86.0039488,20.0183758],[86.0040437,20.0183722],[86.0051487,20.0183753],[86.0052708,20.0183652],[86.0053311,20.0183489],[86.0053687,20.0183287],[86.0053995,20.0182985],[86.0054223,20.0182455],[86.0054277,20.0181321],[86.0054089,20.017836],[86.0053807,20.0176079],[86.0053352,20.0174265],[86.0052466,20.0171417],[86.005026,20.0164216]]}},{"type":"Feature","properties":{"id":874009151,"highway":"residential"},"geometry":{"type":"LineString","coordinates":[[86.0027491,20.077496],[86.0025326,20.0775472],[86.0023517,20.0775823],[86.0022399,20.0775908],[86.0021206,20.0775973],[86.0020347,20.0775967],[86.0019502,20.0775847],[86.0017301,20.0775209],[86.0016606,20.0775016],[86.0015653,20.0774953],[86.001477,20.0774934],[86.0014099,20.077489],[86.0013568,20.0774803],[86.0012984,20.0774591],[86.0012426,20.0774154],[86.001145,20.0773331],[86.0010885,20.0772982],[86.0010347,20.0772707],[86.0009922,20.0772583],[86.0009464,20.0772533],[86.0008568,20.0772601],[86.0007259,20.0772726],[86.0002013,20.0773531],[86.000036,20.0773774],[85.9995538,20.0774903],[85.9994403,20.0775146],[85.9993385,20.0775319],[85.9992729,20.0775383],[85.9991381,20.0775439],[85.9989934,20.0775489],[85.9987895,20.0775427],[85.9987131,20.077529],[85.99865,20.077509],[85.9985956,20.0774965],[85.9985039,20.077489],[85.9983492,20.0774828],[85.9982144,20.0775003],[85.9977738,20.0775874],[85.9977152,20.0776042],[85.997659,20.0776239],[85.997638,20.0776413],[85.9976189,20.077672],[85.9976059,20.0777108],[85.9975874,20.0777369],[85.9975572,20.0777589],[85.997485,20.0777914],[85.9971191,20.077887]]}},{"type":"Feature","properties":{"id":874009157,"highway":"residential"},"geometry":{"type":"LineString","coordinates":[[86.0031503,20.0794136],[86.0029852,20.0794131],[86.0028219,20.0793991],[86.0022467,20.0793322],[86.0018629,20.0792664],[86.0017945,20.0792602],[86.0017322,20.0792612],[86.0016757,20.0792702],[86.001582,20.0792972],[86.0011505,20.0794418],[86.000866,20.0795494],[86.0008085,20.0795739],[86.0006822,20.0796385],[86.0002076,20.0798441],[85.999913,20.0799637],[85.9995961,20.0800703],[85.9993536,20.0801299],[85.9992675,20.0801521],[85.9992137,20.0801622],[85.9991698,20.0801622],[85.9991398,20.0801507],[85.999126,20.0801247],[85.9991052,20.0800199],[85.9990921,20.0799802],[85.9990675,20.0799412],[85.9990268,20.0799108],[85.9989498,20.0798754]]}},{"type":"Feature","properties":{"id":874009161,"highway":"unclassified"},"geometry":{"type":"LineString","coordinates":[[85.9973342,20.0887582],[85.9975527,20.088785],[85.997698,20.088785],[85.997805,20.0887705],[85.9979126,20.0887395],[85.9982649,20.0885928],[85.9986318,20.088457],[85.999028,20.0882973],[85.9992057,20.0882439],[85.9996133,20.0881536],[85.9999564,20.0880806],[86.0000718,20.0880719],[86.0002241,20.0880691],[86.0003472,20.0880719],[86.000541,20.0880936],[86.0007295,20.0881232],[86.0007979,20.0881478],[86.000931,20.0882265],[86.0013817,20.0885668],[86.0016263,20.0887618],[86.0016917,20.0888066],[86.0017825,20.0888413],[86.0018502,20.0888579],[86.0019225,20.0888608],[86.0020325,20.0888586],[86.002144,20.0888571],[86.002221,20.088869],[86.0023087,20.0889089],[86.0024482,20.0889924],[86.0029555,20.0893205],[86.003338,20.0895369],[86.0034947,20.0896036],[86.0035718,20.0896249],[86.0036807,20.0896429]]}},{"type":"Feature","properties":{"id":1491779886,"highway":"primary"},"geometry":{"type":"LineString","coordinates":[[85.9987694,20.0647918],[85.998882,20.0646799],[85.9996888,20.0637528],[86.0003315,20.0629758],[86.0007742,20.062496],[86.000816,20.0624507]]}}]}