{"type":"FeatureCollection","features":[{"type":"Feature","properties":{"id":218557133,"highway":"unclassified"},"geometry":{"type":"LineString","coordinates":[[85.5012549,20.0159838],[85.5011755,20.0160677],[85.5011013,20.0161161],[85.5010469,20.0161515],[85.500956,20.0162206],[85.5008824,20.0162351],[85.5007876,20.0162261],[85.5006947,20.0161915],[85.5005321,20.0161169],[85.5004295,20.0160624],[85.5002476,20.0160151],[85.5000057,20.0159587],[85.4996502,20.0159207],[85.4992479,20.0159308],[85.498395,20.0159761],[85.4978746,20.0159408],[85.4972362,20.0158703],[85.4958147,20.015961],[85.4952568,20.0160316],[85.4948169,20.0160769],[85.4946613,20.0160719],[85.4942805,20.0158703],[85.4939908,20.015714],[85.4938084,20.0156939],[85.4936421,20.0158047],[85.4931459,20.0165205],[85.4927443,20.0168339],[85.4923707,20.0171253],[85.4920167,20.0173017],[85.4916626,20.0174832],[85.4913729,20.0175487],[85.4904073,20.0176394],[85.4899514,20.0177554],[85.4898548,20.0176999],[85.4897475,20.0171656],[85.4896295,20.0169136],[85.4894686,20.0167221],[85.489254,20.0165306],[85.4889643,20.0163239],[85.4888517,20.0160568],[85.4887122,20.0158299],[85.4885727,20.0156989],[85.4882938,20.0156082],[85.4881597,20.015467],[85.4877466,20.0150487],[85.4869634,20.0145698],[85.4864109,20.0143077],[85.4858154,20.0141364],[85.4853487,20.0141162],[85.4846513,20.0141716],[85.4844099,20.0141716],[85.4843019,20.0141333],[85.4841685,20.014086],[85.4838574,20.0139146],[85.4830903,20.0133047],[85.4828811,20.0131636],[85.4823178,20.0129871],[85.4819316,20.0128662],[85.4814649,20.0126645],[85.4810199,20.0124137],[85.480687,20.012226],[85.4801291,20.0119639],[85.4795283,20.0117825],[85.4789597,20.0115758],[85.4786861,20.0114548],[85.4784608,20.0112532],[85.4781711,20.0110717],[85.4778548,20.0108876],[85.4772474,20.010534],[85.4770714,20.0104316],[85.4768032,20.0102199],[85.4766422,20.0099931],[85.4765081,20.0098973],[85.476256,20.0098922],[85.4759771,20.0099124],[85.4757839,20.0098066],[85.4748666,20.0099124],[85.4749578,20.0092218]]}},{"type":"Feature","properties":{"id":218557134,"highway":"unclassified"},"geometry":{"type":"LineString","coordinates":[[85.4949761,20.0118202],[85.4950678,20.0114217],[85.4952924,20.0102942]]}},{"type":"Feature","properties":{"id":218557142,"highway":"unclassified"},"geometry":{"type":"LineString","coordinates":[[85.4791604,19.9961934],[85.4789811,19.9962286],[85.4788894,19.996244],[85.478784,19.9962595],[85.4783736,19.9964459],[85.4760522,19.9982077],[85.4759046,19.9983363],[85.4757062,19.9985707],[85.4747325,19.9994352],[85.4736757,20.0004761],[85.4716916,20.0028643],[85.4711169,20.0035561],[85.470897,20.0037376],[85.4706341,20.0038081],[85.4703283,20.0038535],[85.4700762,20.0038535],[85.4694378,20.0038031],[85.4688477,20.0037023],[85.4684937,20.0035763],[85.4681665,20.0034452],[85.4637986,20.0015145],[85.4618257,20.0006425],[85.4573464,19.9986362],[85.4550558,19.9976784],[85.4542619,19.9974012],[85.4521,19.9969072],[85.4506731,19.9966097],[85.4495305,19.9964888],[85.4488116,19.9964636],[85.4467034,19.9965543],[85.4452819,19.9966249],[85.4446006,19.996645],[85.4440159,19.9965392],[85.4435062,19.9965492],[85.4429805,19.9966047],[85.4427123,19.9967055],[85.4423958,19.996892],[85.4421705,19.9969677],[85.441795,19.9970332],[85.4413605,19.997008],[85.441044,19.9969576],[85.4404995,19.9968744],[85.4403037,19.9968567],[85.4401213,19.9968794],[85.439955,19.9970004],[85.4395983,19.9972474],[85.4393783,19.997381],[85.4391959,19.9975373],[85.4390269,19.9977515],[85.4389089,19.9980842],[85.4387748,19.998795],[85.4387239,19.9995133],[85.4387641,19.9998536],[85.438866,20.0001838],[85.4389277,20.0005039],[85.4389358,20.0009702],[85.4390216,20.0011768],[85.4391342,20.0012978],[85.4393408,20.0014238],[85.4393971,20.001502],[85.4394293,20.0015927],[85.4394266,20.0017061],[85.4393461,20.0018523],[85.4392523,20.0021674],[85.4392496,20.0023211],[85.4393381,20.0025152],[85.4393488,20.0026714],[85.4393032,20.0028781],[85.4392442,20.0030923],[85.4392067,20.0032738],[85.4392415,20.0035183],[85.4393193,20.0037653],[85.4394829,20.0040047],[85.4397082,20.0042366],[85.4402018,20.0047256],[85.4404821,20.0049938],[85.4414773,20.0059461],[85.442251,20.0066864],[85.4427659,20.0073014],[85.4431254,20.0079667],[85.4441178,20.0101392],[85.445314,20.0118228],[85.4463279,20.0129871],[85.4487526,20.0153612],[85.4512846,20.0180477],[85.4514456,20.0181435],[85.4516333,20.0181687],[85.4520518,20.0182292],[85.4523736,20.0184005],[85.4529691,20.0186072],[85.4531085,20.0187231],[85.4532802,20.0189852],[85.4541814,20.0206031],[85.4559302,20.0222009],[85.4560053,20.0223622],[85.4560375,20.0224781],[85.4559731,20.0226394],[85.4558605,20.0228662],[85.4557908,20.0231283],[85.4557532,20.0254467],[85.4558068,20.0261473],[85.4557908,20.0267571],[85.4557854,20.0273166],[85.455721,20.0274325],[85.4555654,20.0274476],[85.455367,20.0275585],[85.4551846,20.0278004],[85.4551041,20.0279365],[85.4549137,20.0290579],[85.4549127,20.0291813],[85.454911,20.0293931],[85.4550263,20.0297005],[85.4549916,20.0301579],[85.4549861,20.0302297],[85.4549269,20.0304845],[85.4548708,20.0307261],[85.4546481,20.0313302],[85.4546013,20.0314574],[85.4544389,20.0318979],[85.4540044,20.0328252],[85.4539454,20.0330621],[85.452497,20.0337123],[85.4521,20.0339441],[85.4521215,20.0344078],[85.4522181,20.0349672],[85.4525131,20.0363833],[85.4527599,20.0382128],[85.4529315,20.0393064],[85.4528886,20.0396491],[85.4525775,20.0401177],[85.452556,20.0403798]]}},{"type":"Feature","properties":{"id":387309130,"highway":"tertiary"},"geometry":{"type":"LineString","coordinates":[[85.4382384,20.1063546],[85.4377556,20.10574],[85.4372084,20.104929],[85.436613,20.1040575],[85.4364091,20.1032061],[85.4362643,20.1024807],[85.4362267,20.1020374],[85.4362804,20.1017805],[85.4367632,20.1010047],[85.4367068,20.1000777],[85.43673,20.09993],[85.4365969,20.0994808],[85.4372084,20.0991206],[85.4381204,20.098778],[85.4396975,20.098506],[85.4413497,20.0978208],[85.4429376,20.0970047],[85.4440427,20.0960173],[85.4441178,20.0953322],[85.4452121,20.0944757],[85.4457486,20.0938309],[85.4461884,20.0933573],[85.447315,20.0931558],[85.448581,20.0932666],[85.4493749,20.0931054],[85.4501581,20.0925513],[85.4508877,20.0919266],[85.4517245,20.0912817],[85.4526901,20.0905461],[85.4536986,20.0897602],[85.4546535,20.0891153],[85.4553723,20.0886216],[85.4562092,20.0880876],[85.4569924,20.0877853],[85.4577649,20.0872613],[85.4586071,20.0867273],[85.458768,20.0865761],[85.4587358,20.0864401],[85.458414,20.0861983],[85.4583228,20.0860874],[85.4581886,20.085367],[85.4577273,20.0839714],[85.457325,20.0827572],[85.4571748,20.0819712],[85.4569065,20.0809938],[85.4558873,20.0787568],[85.4556835,20.0778801],[85.455544,20.077336],[85.4546749,20.0756229],[85.4545784,20.0751997],[85.4545784,20.0749376],[85.4546642,20.0744741],[85.4553616,20.073547],[85.4554367,20.0733152],[85.4554851,20.0728355],[85.4555333,20.0723579],[85.4556459,20.0722219],[85.4559678,20.0720757],[85.4562145,20.0716979],[85.456354,20.0710479],[85.4562843,20.0704281],[85.4562092,20.0700502],[85.4561931,20.0694758],[85.4562199,20.06937],[85.4567939,20.0690072],[85.4573035,20.068463],[85.457443,20.0682968],[85.4574591,20.0681809],[85.4574645,20.067808],[85.4576683,20.0669867],[85.4578829,20.066513],[85.458017,20.0663367],[85.4581672,20.0661704],[85.4582101,20.0659689],[85.4581028,20.0644623],[85.4581189,20.0642002],[85.4582208,20.0639029],[85.4587036,20.0627843],[85.4587358,20.0625273],[85.4587036,20.0622905],[85.4586017,20.0618622],[85.4584461,20.0611668],[85.4582691,20.0604513],[85.4582691,20.0603203],[85.4583174,20.0601893],[85.4584783,20.0601288],[85.459004,20.0598365],[85.4596853,20.0593629],[85.4609299,20.0588086],[85.4611605,20.0586221],[85.4615414,20.0583399],[85.4617345,20.0582341],[85.4622334,20.0580678],[85.4624373,20.0579368],[85.462507,20.0577655],[85.4624963,20.0575337],[85.4625285,20.0573976],[85.46257,20.0573288],[85.4629791,20.0572011],[85.4632795,20.0570499],[85.4635853,20.0567728],[85.4636282,20.0563999],[85.463655,20.0560623],[85.4637355,20.0553618],[85.4637998,20.0551704],[85.4639447,20.054999],[85.464583,20.0544951],[85.4651678,20.0538955],[85.4656076,20.0532807],[85.4660904,20.0523938],[85.4664981,20.0516127],[85.4667878,20.0509828],[85.4670399,20.0504234],[85.4671204,20.0501463],[85.4673243,20.0497355]]}},{"type":"Feature","properties":{"id":561537823,"highway":"unclassified"},"geometry":{"type":"LineString","coordinates":[[85.4841792,20.0413273],[85.4843027,20.040662],[85.484426,20.0401379],[85.4844314,20.0398557],[85.4844152,20.0395735],[85.4843616,20.0392812],[85.4842597,20.0388982],[85.4840827,20.0385],[85.4839003,20.0381674],[85.483734,20.0379961],[85.4834765,20.0379053],[85.4832727,20.0378096],[85.4830339,20.037535],[85.4827282,20.0365874],[85.4827255,20.0362775],[85.4826745,20.0360709],[85.482535,20.0358996],[85.4820871,20.035451],[85.4816687,20.0348865],[85.4816408,20.0348292],[85.481497,20.0345338],[85.4811108,20.0342011],[85.4810062,20.0341028],[85.4807353,20.0338483],[85.4805475,20.0336997],[85.4803947,20.033488],[85.4804429,20.0332335],[85.4805556,20.0331554],[85.4805502,20.0329664],[85.4805369,20.0327723],[85.4805744,20.0325077],[85.4805261,20.0322507],[85.4804671,20.0320113],[85.4804564,20.0318903],[85.4805073,20.031729],[85.4805835,20.0316255],[85.4807192,20.0314822],[85.4809069,20.0312729],[85.4809902,20.0311243],[85.4811644,20.0309579],[85.4812656,20.0308415],[85.4812932,20.0307563],[85.4812395,20.030454],[85.4812181,20.0302675],[85.4811832,20.030076],[85.4811591,20.0299273]]}},{"type":"Feature","properties":{"id":561539061,"highway":"unclassified"},"geometry":{"type":"LineString","coordinates":[[85.445137,20.0332385],[85.4454321,20.0331478],[85.4457968,20.0328303],[85.4461724,20.0323868],[85.4465693,20.0319634],[85.4468912,20.0312478],[85.4474705,20.0309202],[85.4485702,20.0304162],[85.4495788,20.0301289],[85.4501849,20.0301138],[85.4515421,20.0301138],[85.4526257,20.0301894],[85.4537523,20.030139],[85.4541707,20.030139],[85.4544767,20.0302585],[85.4545838,20.0303003],[85.4549269,20.0304845],[85.4550719,20.0305976],[85.4552328,20.0307438],[85.4557714,20.0308728],[85.456008,20.0309076],[85.4562055,20.0309307],[85.4564023,20.0310336],[85.4565505,20.0310691],[85.4566651,20.0310965],[85.4569387,20.031147],[85.4572548,20.0311328],[85.4573867,20.0311269],[85.4577376,20.0310505],[85.4577461,20.0310487],[85.4579955,20.0308572],[85.4582178,20.0307397],[85.4582396,20.0308471],[85.458304,20.0310512],[85.4583469,20.0311722],[85.4586929,20.0310386],[85.4591784,20.0310059],[85.4592937,20.0311495],[85.4596639,20.0310537],[85.4600501,20.031026],[85.4604202,20.0310285],[85.4607931,20.0308723],[85.4610103,20.0307967],[85.4612115,20.0308118],[85.461638,20.0306631],[85.4622388,20.0304817],[85.4630005,20.030522],[85.4632258,20.0306531],[85.4634082,20.0311772],[85.4635262,20.0318526],[85.4637623,20.0323263],[85.464009,20.0328101],[85.4643631,20.0332335],[85.4645723,20.0332688],[85.4647306,20.0332335],[85.4650471,20.0331881],[85.4653582,20.0331428],[85.4656157,20.033105],[85.4658169,20.033052],[85.4661253,20.033052],[85.4666162,20.0329689],[85.4668602,20.0329437],[85.4669434,20.0329613],[85.4669756,20.0332133],[85.4670882,20.0335107],[85.4671472,20.0339239],[85.467276,20.0341608],[85.4675227,20.0343826],[85.4683971,20.0340953],[85.4688799,20.0341255],[85.4695183,20.0341104],[85.4699743,20.0339794],[85.4704839,20.0338383],[85.4709935,20.0338685],[85.4713583,20.0338332],[85.4719752,20.0337173],[85.4726136,20.0336417],[85.4733431,20.0336115],[85.473901,20.0336165],[85.4742175,20.0336417],[85.4744991,20.0335989],[85.4751643,20.0334653],[85.4754165,20.033488],[85.4758564,20.0335207],[85.4762534,20.0334578],[85.4765108,20.0334174],[85.4768085,20.0334174],[85.4769373,20.0336266]]}},{"type":"Feature","properties":{"id":561539069,"highway":"unclassified"},"geometry":{"type":"LineString","coordinates":[[85.4768085,20.0334174],[85.4771143,20.0331226],[85.4773906,20.0330067],[85.47764,20.0328932],[85.4779463,20.0328097],[85.4782033,20.0327396],[85.4786485,20.0326313],[85.4788148,20.0326136],[85.4789436,20.032349],[85.4791823,20.0322255],[85.4794278,20.0321877],[85.4796249,20.0321574],[85.4801586,20.0321549],[85.4801801,20.0322961],[85.4805261,20.0322507]]}},{"type":"Feature","properties":{"id":561539085,"highway":"unclassified"},"geometry":{"type":"LineString","coordinates":[[85.4636282,20.0563999],[85.4631829,20.0563747],[85.4625767,20.0563445],[85.4620993,20.0562991],[85.4616809,20.0562639],[85.4611391,20.0561832],[85.4609942,20.0563898],[85.4608548,20.0568585],[85.4605436,20.0571709],[85.460431,20.0574228],[85.4607636,20.0573321],[85.4611874,20.0573271],[85.4618472,20.0573069],[85.4623514,20.0572918],[85.46257,20.0573288]]}},{"type":"Feature","properties":{"id":585099633,"highway":"unclassified"},"geometry":{"type":"LineString","coordinates":[[85.4238725,20.0508442],[85.4239207,20.0514212],[85.4238671,20.0521242],[85.4238027,20.0527541],[85.4237759,20.0534167],[85.4237142,20.0541096],[85.4234111,20.0567426],[85.4233682,20.0583097],[85.4235721,20.0602951],[85.423792,20.0618723],[85.424087,20.0631421],[85.4242694,20.0639936],[85.4244357,20.0652785],[85.4246771,20.0666441],[85.4252082,20.0678483],[85.4257313,20.0685046],[85.4259431,20.0687704],[85.427172,20.0702421],[85.4272306,20.0703122],[85.4277563,20.0717885],[85.4279441,20.0723126],[85.4281479,20.0736629],[85.4283357,20.0751392],[85.4286683,20.0773309],[85.4287326,20.0820115],[85.4287541,20.085503],[85.4287997,20.0857826],[85.4287755,20.0860623],[85.4287235,20.0863761]]}},{"type":"Feature","properties":{"id":585101792,"highway":"unclassified"},"geometry":{"type":"LineString","coordinates":[[85.4840183,20.0679441],[85.4854345,20.0677526],[85.4854399,20.0672437],[85.4850376,20.0664324],[85.485059,20.0662309],[85.4850537,20.0658832],[85.4852307,20.0656313],[85.4860353,20.0651929],[85.4861319,20.0646638],[85.4867864,20.0645429],[85.4876232,20.0642053],[85.4884225,20.0637215],[85.488621,20.0634847],[85.4885781,20.061968],[85.4885128,20.0614301],[85.4884815,20.0611719],[85.4893237,20.0603908],[85.4902303,20.0596098],[85.4904178,20.0594972],[85.4908848,20.0592167],[85.4918933,20.0590101],[85.4926658,20.058869],[85.493331,20.058859],[85.493331,20.0579318],[85.4933095,20.0576798],[85.4936421,20.0573573],[85.4937761,20.0564995],[85.4937869,20.0564301],[85.4945335,20.0560292],[85.4945791,20.0560085],[85.49445,20.05579],[85.4941893,20.0555533],[85.493794,20.054642],[85.4937762,20.0546009],[85.4945272,20.0543087],[85.4949188,20.0550797],[85.4954696,20.0555792],[85.4955411,20.055644],[85.4959763,20.056086],[85.4961365,20.0562487],[85.4965496,20.0567023],[85.4965872,20.0573825],[85.4963994,20.0581031],[85.4963455,20.0584572],[85.496335,20.0585264],[85.4962116,20.059247],[85.4960775,20.0594737],[85.4954392,20.0596199],[85.4948062,20.0594888],[85.4942322,20.0590656],[85.4936796,20.0589396],[85.493331,20.058859]]}},{"type":"Feature","properties":{"id":604533939,"highway":"primary"},"geometry":{"type":"LineString","coordinates":[[85.4174781,20.0405915],[85.417572,20.0407452],[85.4177007,20.0409216],[85.4178643,20.0411433],[85.4180413,20.041355],[85.4181781,20.041549],[85.4183739,20.0418539],[85.4185832,20.0420933],[85.4186636,20.0422419],[85.4187166,20.0423232],[85.4188246,20.0424889],[85.4189667,20.0426199],[85.4190338,20.0427182],[85.4191885,20.0430174],[85.4192161,20.0430709],[85.4193342,20.0434237],[85.4196453,20.0440688],[85.4196726,20.0441664],[85.4198599,20.0448348],[85.4200852,20.0454697],[85.4205572,20.0466086],[85.4207826,20.0473646],[85.4212975,20.0482616],[85.4219305,20.0489066],[85.4226708,20.0494005],[85.4230142,20.0500052],[85.4236793,20.0507359],[85.4238725,20.0508442],[85.4240173,20.0508442],[85.4245591,20.0507409],[85.4254496,20.0505796],[85.4265761,20.0504385],[85.4277992,20.0503478],[85.4284204,20.0503152],[85.4295266,20.0502571],[85.4307496,20.0502471],[85.4326057,20.0502571],[85.4344404,20.0501967],[85.4359317,20.0500354],[85.4377234,20.0500959],[85.4394615,20.0500656],[85.441457,20.0499749],[85.4440319,20.050116],[85.4451585,20.0502168],[85.4462635,20.0505192],[85.4471058,20.0506275],[85.4473874,20.0506829],[85.4479989,20.0507359],[85.4488143,20.0507535],[85.4497477,20.0507762],[85.4505014,20.0507409],[85.4512256,20.050756],[85.4521698,20.0507636],[85.4529262,20.050625],[85.4536772,20.0505872],[85.453929,20.0505915],[85.4544121,20.0505998],[85.4549459,20.0505166],[85.4555145,20.050494],[85.4566061,20.0504814],[85.4571319,20.0504511],[85.4578105,20.0503453],[85.4585159,20.0502697],[85.4594734,20.0501387],[85.460034,20.0500455],[85.460777,20.0499422],[85.4615065,20.0497734],[85.4620779,20.0496776],[85.4627203,20.0495585],[85.4628932,20.0495264],[85.4635316,20.0494231],[85.4637843,20.0493755],[85.4642531,20.0492871],[85.4644297,20.0492615],[85.464778,20.0492111],[85.4651061,20.0491636],[85.4658598,20.0490754],[85.4661648,20.0490988],[85.4663855,20.0491157],[85.4668039,20.0494408],[85.4673243,20.0497355],[85.4674905,20.0497445],[85.4678848,20.0497658],[85.4686332,20.0497935],[85.4689711,20.0497507],[85.4697785,20.0497482],[85.4702479,20.0497381],[85.4710337,20.049665],[85.4716131,20.0496045],[85.4722461,20.0495718],[85.4728764,20.0494508],[85.4731527,20.0493752],[85.4736301,20.0492266],[85.4741692,20.0490779],[85.4758671,20.0484052],[85.4761729,20.0483119]]}},{"type":"Feature","properties":{"id":746551636,"highway":"unclassified"},"geometry":{"type":"LineString","coordinates":[[85.4192161,20.0430709],[85.4199564,20.0428794],[85.4205894,20.0427383],[85.4212975,20.0426476],[85.4217911,20.0425367],[85.4216516,20.0419723],[85.4215443,20.0414986],[85.421555,20.0411156],[85.4215527,20.041084],[85.4215336,20.0408233],[85.4209649,20.0407628],[85.4207182,20.0404],[85.4203641,20.0401782],[85.419935,20.0399464],[85.4197572,20.0398281],[85.4196775,20.0397751],[85.4195563,20.0397979],[85.4190338,20.039896],[85.4187783,20.0400024],[85.4180896,20.0402891],[85.4174781,20.0405915]]}},{"type":"Feature","properties":{"id":746551637,"highway":"tertiary"},"geometry":{"type":"LineString","coordinates":[[85.4893586,20.0487554],[85.4892295,20.0489525],[85.4890582,20.049214],[85.4887176,20.0499195],[85.4882777,20.0507963],[85.487783,20.0510238],[85.4874998,20.0511541],[85.4874236,20.0511918],[85.4867059,20.0515472],[85.4859549,20.0519402],[85.4850697,20.0525298],[85.4838252,20.0536233],[85.4814327,20.056022],[85.4813379,20.0562916],[85.481025,20.057181],[85.4816687,20.0590051],[85.4822588,20.0605974],[85.4828167,20.061968],[85.4831922,20.0638122],[85.4834497,20.0653037],[85.4834323,20.0655178],[85.4833531,20.0664929],[85.4840183,20.0679441],[85.4840827,20.0681708],[85.4840988,20.0685336]]}},{"type":"Feature","properties":{"id":1155775335,"highway":"unclassified"},"geometry":{"type":"LineString","coordinates":[[85.5035743,20.0575638],[85.5026238,20.0573996],[85.5022485,20.057264],[85.4995852,20.0574606],[85.4988995,20.0573386],[85.498517,20.0574267],[85.4968859,20.0589182],[85.496094,20.0595392]]}},{"type":"Feature","properties":{"id":1155775398,"highway":"unclassified"},"geometry":{"type":"LineString","coordinates":[[85.4963455,20.0584572],[85.4955876,20.0583691],[85.4952252,20.0572521],[85.4949292,20.0564803],[85.4946291,20.0560881]]}},{"type":"Feature","properties":{"id":1155775443,"highway":"unclassified"},"geometry":{"type":"LineString","coordinates":[[85.4945791,20.0560085],[85.4952456,20.055766],[85.4954696,20.0555792]]}},{"type":"Feature","properties":{"id":1155775599,"highway":"unclassified"},"geometry":{"type":"LineString","coordinates":[[85.4945272,20.0543087],[85.4945464,20.0540593],[85.496154,20.0535415],[85.4961387,20.0543326],[85.4961285,20.0551524],[85.4964807,20.055742],[85.4959763,20.056086]]}},{"type":"Feature","properties":{"id":1155775669,"highway":"unclassified"},"geometry":{"type":"LineString","coordinates":[[85.493794,20.054642],[85.4929643,20.0549318],[85.4928163,20.055464],[85.4927602,20.0556174],[85.4924642,20.0560105],[85.4922601,20.0567679],[85.4929439,20.0566625],[85.4937761,20.0564995]]}},{"type":"Feature","properties":{"id":1155776004,"highway":"unclassified"},"geometry":{"type":"LineString","coordinates":[[85.496094,20.0595392],[85.4957539,20.0597891],[85.4950802,20.0601918],[85.4950853,20.0606568],[85.4941208,20.061026],[85.4935951,20.0612992],[85.4929674,20.0615245],[85.492309,20.0617834],[85.4914873,20.0624018],[85.4906402,20.0626031],[85.49063,20.061769],[85.4906095,20.0607911],[85.4905636,20.0600768],[85.4905075,20.0596885],[85.4904178,20.0594972]]}},{"type":"Feature","properties":{"id":1155776446,"highway":"unclassified"},"geometry":{"type":"LineString","coordinates":[[85.4885128,20.0614301],[85.4893694,20.0612704],[85.4894255,20.0614526],[85.4893439,20.0624114],[85.4892724,20.0633558],[85.488621,20.0634847]]}},{"type":"Feature","properties":{"id":1155776919,"highway":"unclassified"},"geometry":{"type":"LineString","coordinates":[[85.4813379,20.0562916],[85.4805811,20.0568121],[85.4791674,20.0578668],[85.4790347,20.0581688],[85.4781212,20.0587584],[85.4776972,20.0591237],[85.4771975,20.0595542],[85.4760135,20.0600672],[85.4746406,20.0605801],[85.4734413,20.0611218],[85.472982,20.0615197],[85.4724665,20.061582],[85.4720838,20.0619272],[85.47165,20.0620135],[85.4711702,20.0624545],[85.4705782,20.0627517],[85.4703588,20.0628189],[85.4703588,20.0634181],[85.4700015,20.0644392],[85.4698382,20.0650767],[85.4700474,20.065489],[85.4702669,20.0656184],[85.4709531,20.0656184],[85.4723028,20.0651981],[85.4724254,20.0639846],[85.4746051,20.0635914],[85.4746051,20.0627304],[85.4776365,20.0626355],[85.4777808,20.0603169],[85.4779829,20.0599372],[85.4776972,20.0591237]]}},{"type":"Feature","properties":{"id":1155777089,"highway":"unclassified"},"geometry":{"type":"LineString","coordinates":[[85.4840183,20.0679441],[85.4832562,20.068039],[85.4831191,20.0669679],[85.4826427,20.0656256],[85.4834323,20.0655178]]}},{"type":"Feature","properties":{"id":1155777351,"highway":"unclassified"},"geometry":{"type":"LineString","coordinates":[[85.4941793,20.1013684],[85.4940464,20.1003186],[85.4939626,20.0994297],[85.4939525,20.0993222],[85.4940083,20.0988679],[85.4940824,20.0982649],[85.4947104,20.0969364],[85.4951795,20.0962653],[85.4950135,20.0951944],[85.4948042,20.0913105],[85.4945804,20.0902463],[85.4937721,20.0887144],[85.4927689,20.0869249],[85.4924696,20.0859574],[85.4924585,20.0859217],[85.4920399,20.0847151],[85.49191,20.0837797],[85.4896076,20.0829595],[85.4875651,20.0819833],[85.4834583,20.0804649],[85.4828881,20.0801192],[85.4825778,20.0779907],[85.4823324,20.0770891],[85.4827438,20.0754757],[85.4833068,20.073903],[85.4837759,20.0726827],[85.4839924,20.0720794],[85.4838192,20.0707439],[85.4839058,20.0698762],[85.4841729,20.0690491],[85.4840988,20.0685336]]}},{"type":"Feature","properties":{"id":1155777546,"highway":"unclassified"},"geometry":{"type":"LineString","coordinates":[[85.4828881,20.0801192],[85.4825128,20.0800175],[85.4805713,20.0800446]]}},{"type":"Feature","properties":{"id":1155937080,"highway":"unclassified"},"geometry":{"type":"LineString","coordinates":[[85.4924696,20.0859574],[85.4941867,20.0856745]]}},{"type":"Feature","properties":{"id":1155939227,"highway":"unclassified"},"geometry":{"type":"LineString","coordinates":[[85.4940954,20.1015872],[85.4928371,20.1011063],[85.4918415,20.1003487],[85.4909059,20.0997361],[85.4903051,20.099591],[85.4904338,20.0994782],[85.4902965,20.0989945],[85.4900476,20.098116]]}},{"type":"Feature","properties":{"id":1155939297,"highway":"unclassified"},"geometry":{"type":"LineString","coordinates":[[85.4939626,20.0994297],[85.4930774,20.0995749],[85.4923307,20.0996071],[85.4915067,20.0994862],[85.4909832,20.0994862],[85.4904338,20.0994782]]}},{"type":"Feature","properties":{"id":1155939320,"highway":"unclassified"},"geometry":{"type":"LineString","coordinates":[[85.4972006,20.0999593],[85.4968883,20.0988978],[85.4965264,20.0982015],[85.4963647,20.0978903],[85.4960987,20.0972293],[85.495515,20.0965442],[85.4951795,20.0962653]]}},{"type":"Feature","properties":{"id":1155939361,"highway":"unclassified"},"geometry":{"type":"LineString","coordinates":[[85.4940083,20.0988679],[85.494794,20.0986238],[85.4950598,20.0985739],[85.4956953,20.0984545],[85.4965264,20.0982015]]}},{"type":"Feature","properties":{"id":1155939369,"highway":"unclassified"},"geometry":{"type":"LineString","coordinates":[[85.4956567,20.1006794],[85.4950598,20.0985739]]}},{"type":"Feature","properties":{"id":1239344951,"highway":"unclassified"},"geometry":{"type":"LineString","coordinates":[[85.4977096,20.0137121],[85.4974651,20.0134676],[85.4964103,20.012776],[85.4955037,20.0121519],[85.4949761,20.0118202],[85.4936585,20.0110448],[85.4932754,20.0109236]]}},{"type":"Feature","properties":{"id":1364919192,"highway":"trunk"},"geometry":{"type":"LineString","coordinates":[[85.4808412,19.9974187],[85.4809678,19.9976114],[85.4811608,19.9979534],[85.4814837,19.9988074],[85.4815177,19.99892],[85.4816808,19.9993333],[85.4819039,19.9998349],[85.4822775,20.0005666],[85.4827017,20.0013446],[85.4835023,20.0028479],[85.4841597,20.0039726],[85.4843878,20.0043307],[85.4847094,20.0048386],[85.484901,20.0051151],[85.4851541,20.0054122],[85.4854005,20.0056796],[85.4857577,20.0059857],[85.4860628,20.0062043],[85.4868032,20.0067187],[85.4878023,20.0073861],[85.4884769,20.0078747],[85.4889923,20.0082711],[85.4901052,20.0091095],[85.4905832,20.0094659],[85.490918,20.009695],[85.4912393,20.009886],[85.4935463,20.0112117],[85.4970861,20.0134758],[85.498917,20.0146433],[85.5001137,20.0153857],[85.5006279,20.0157107],[85.5011755,20.0160677],[85.5014369,20.0162381],[85.5019711,20.0166091],[85.5022478,20.0168364],[85.5028401,20.017411],[85.5037077,20.0183378],[85.5041663,20.0188179],[85.5051832,20.019906],[85.5055783,20.0203288]]}},{"type":"Feature","properties":{"id":1364919194,"highway":"trunk"},"geometry":{"type":"LineString","coordinates":[[85.5056733,20.0202573],[85.5052421,20.0197963],[85.50291,20.017303],[85.502321,20.016758],[85.5020653,20.0165409],[85.5015124,20.01615],[85.5012549,20.0159838],[85.5001513,20.0152649],[85.4989655,20.0145398],[85.4977096,20.0137121],[85.493645,20.011134],[85.4932754,20.0109236],[85.4921114,20.010261],[85.4912917,20.0097852],[85.4909564,20.0095768],[85.490662,20.009366],[85.4892449,20.0083187],[85.4885655,20.0078004],[85.4879281,20.0073354],[85.4869592,20.0066856],[85.4861553,20.0061291],[85.4858328,20.0058909],[85.4855093,20.0056194],[85.485256,20.0053562],[85.4850154,20.0050667],[85.4848283,20.0048091],[85.4842449,20.0038527],[85.483634,20.002828],[85.4828128,20.0013073],[85.4823897,20.000529],[85.48202,19.999804],[85.4818023,19.9993226],[85.4816467,19.9989113],[85.481597,19.9987799],[85.4812567,19.9979073],[85.4810733,19.9975543],[85.480947,19.9973706]]}},{"type":"Feature","properties":{"id":1366640882,"highway":"unclassified"},"geometry":{"type":"LineString","coordinates":[[85.4946291,20.0560881],[85.4945791,20.0560085]]}},{"type":"Feature","properties":{"id":1477384305,"highway":"residential"},"geometry":{"type":"LineString","coordinates":[[85.4554851,20.0728355],[85.4548353,20.072817],[85.4544477,20.0728396],[85.4540178,20.0729138],[85.453477,20.0729886],[85.4530657,20.073098],[85.452405,20.0733824],[85.4521361,20.0734276],[85.4518636,20.0734277],[85.4512275,20.0734292],[85.4507886,20.0734346],[85.4504391,20.0735348],[85.4501257,20.0737655],[85.4496008,20.0742677],[85.4492096,20.0745121],[85.4487608,20.0747455],[85.4482769,20.074871],[85.4478465,20.0749414],[85.4471545,20.0750705],[85.4465902,20.0752137],[85.4461986,20.0753864],[85.4458419,20.0756066],[85.4452794,20.0760294],[85.4448996,20.0763088],[85.444406,20.0766133],[85.4441029,20.0767497],[85.4437808,20.0769015],[85.4430923,20.077388],[85.442615,20.077745],[85.4420045,20.0781901],[85.4413555,20.0785828],[85.4408154,20.0788724],[85.4404252,20.079062],[85.4401316,20.079103],[85.439865,20.0791157],[85.4396174,20.079171],[85.4393373,20.0792892],[85.4390266,20.0793895],[85.4387996,20.0794254],[85.4385784,20.0795756],[85.4381689,20.0799755],[85.4377968,20.0804811],[85.4375715,20.080827],[85.4368595,20.0817453],[85.4364293,20.0821371],[85.4361756,20.082492],[85.4356349,20.0830451],[85.4354739,20.0831775],[85.435196,20.0834059],[85.4347672,20.0836399],[85.4345487,20.0836845],[85.4341878,20.0837059],[85.4339054,20.0836569],[85.4338332,20.0836623],[85.4337406,20.0836691],[85.4336209,20.0837168],[85.4333372,20.083717],[85.4331357,20.083717],[85.4325406,20.0836641],[85.4323132,20.0836915],[85.4321138,20.0837463],[85.4318196,20.0838943],[85.4315274,20.0840997],[85.4311682,20.0843127],[85.430791,20.0845967],[85.4306506,20.0848015],[85.4305212,20.0852638],[85.430405,20.0855618],[85.4301793,20.0857421],[85.429811,20.0859503],[85.429271,20.0862229],[85.4289154,20.0863744],[85.4287235,20.0863761],[85.4287034,20.0864995],[85.4286691,20.0871181],[85.428649,20.087661],[85.4286899,20.0878124],[85.4288906,20.0881288],[85.4294544,20.0889173],[85.4296841,20.0890843],[85.4299721,20.0892454],[85.4301558,20.0894609],[85.4302205,20.0896225],[85.4303178,20.0900275],[85.4302481,20.0903945],[85.4302694,20.0905864],[85.4303196,20.0907115],[85.4303524,20.0909304],[85.4304508,20.091894],[85.4304508,20.0920356],[85.4304352,20.0921531],[85.4303514,20.092449],[85.4303514,20.0926153],[85.4303981,20.0928481],[85.4305973,20.0937921],[85.4306779,20.0939485],[85.4307643,20.0941665],[85.4308404,20.0944653],[85.4309021,20.094997],[85.4309174,20.0956937],[85.4309669,20.096214],[85.4310633,20.0965928],[85.4312401,20.0968055],[85.4314339,20.0970363],[85.4315065,20.0971329],[85.4315397,20.0972483],[85.4315319,20.0974165],[85.4315319,20.0975777],[85.4316439,20.0977155],[85.4323459,20.0984899],[85.4324885,20.0986485],[85.4326044,20.0988614],[85.4327379,20.099299],[85.4328962,20.0996312],[85.4329885,20.0999225],[85.4330625,20.1003216],[85.4331749,20.1006103],[85.4331989,20.1010065]]}},{"type":"Feature","properties":{"id":1477384306,"highway":"residential"},"geometry":{"type":"LineString","coordinates":[[85.4354739,20.0831775],[85.4353224,20.0830851],[85.4350915,20.0829915],[85.434922,20.0829281],[85.434751,20.0829281],[85.4345154,20.0829571],[85.4343252,20.083039],[85.4342074,20.0832241],[85.4340596,20.0834078],[85.433933,20.0835303],[85.4338332,20.0836623]]}},{"type":"Feature","properties":{"id":1528734680,"highway":"unclassified"},"geometry":{"type":"LineString","coordinates":[[85.4852521,20.0425871],[85.4846755,20.0419345],[85.4845226,20.0417506],[85.4841792,20.0413273]]}},{"type":"Feature","properties":{"id":1528734681,"highway":"unclassified"},"geometry":{"type":"LineString","coordinates":[[85.4863196,20.0459787],[85.4863733,20.0457192],[85.4864967,20.0455604],[85.4865772,20.0454748],[85.4865798,20.0453941],[85.4864001,20.0450263],[85.4862499,20.0446584],[85.4862285,20.0444644],[85.4862821,20.0442477],[85.4863062,20.0441015],[85.4861963,20.0439075],[85.4856491,20.0432221],[85.4852521,20.0425871]]}},{"type":"Feature","properties":{"id":1528734683,"highway":"primary"},"geometry":{"type":"LineString","coordinates":[[85.3969055,20.0457923],[85.3976968,20.0456915],[85.3978792,20.0456814],[85.398016,20.0457116],[85.398767,20.0466792],[85.4000973,20.047163],[85.4024362,20.046659],[85.4042387,20.0458729],[85.4087877,20.0440587],[85.4113412,20.0430105],[85.4131607,20.0422668],[85.4143989,20.0417607],[85.4144982,20.0417197],[85.415107,20.0414684],[85.4159331,20.0411761],[85.416888,20.0408737],[85.4174781,20.0405915]]}},{"type":"Feature","properties":{"id":1528734684,"highway":"primary"},"geometry":{"type":"LineString","coordinates":[[85.4761729,20.0483119],[85.476779,20.0482464]]}},{"type":"Feature","properties":{"id":1528734685,"highway":"primary"},"geometry":{"type":"LineString","coordinates":[[85.476779,20.0482464],[85.4774415,20.0480247],[85.4783025,20.0479113],[85.4789811,20.0478307],[85.4792762,20.0477072],[85.4811001,20.0469816],[85.4831171,20.0462357],[85.484941,20.0457519],[85.4852843,20.0458326],[85.4863196,20.0459787],[85.4867971,20.046145],[85.4872906,20.0463668],[85.4877922,20.0466792],[85.4880784,20.0469598],[85.4881007,20.0469816],[85.4883849,20.0473721],[85.4886703,20.0476282],[85.4887174,20.0476783],[85.488747,20.0477098],[85.4889167,20.0479774],[85.4890394,20.0481708],[85.4891655,20.0485059],[85.4893586,20.0487554],[85.4894686,20.0488109],[85.490241,20.0489973],[85.490344,20.048965],[85.4912066,20.048695],[85.4925799,20.0482515],[85.4944682,20.0476669],[85.4960346,20.0472033],[85.4968285,20.0469211],[85.4983735,20.0463768],[85.5001545,20.0456915],[85.5020857,20.0450464],[85.5041241,20.0445626],[85.5059642,20.0438773],[85.5067849,20.0434136],[85.5075788,20.0428291],[85.508535,20.0415004],[85.5086088,20.0413978],[85.5092954,20.0401682],[85.5098533,20.0392409],[85.5104327,20.0387772],[85.5118274,20.0377693],[85.5137586,20.0366605],[85.514811,20.035974],[85.5153036,20.0356526],[85.5158052,20.03535],[85.5165269,20.0349145],[85.5177038,20.0341765],[85.5181655,20.0338509],[85.5189225,20.0333667]]}},{"type":"Feature","properties":{"id":1528734697,"highway":"unclassified"},"geometry":{"type":"LineString","coordinates":[[85.4872906,20.0463668],[85.4875374,20.0462912],[85.487575,20.0462702],[85.4875894,20.0462622],[85.4876822,20.0462105],[85.4879343,20.0460593],[85.4882187,20.0459434],[85.4886156,20.0459334],[85.4889679,20.0459478],[85.4893774,20.0460845],[85.4900318,20.0465079],[85.4901244,20.0465948],[85.4902679,20.0467296],[85.4904503,20.0469765],[85.4906219,20.0474754],[85.4906112,20.0477375],[85.4903001,20.0485891],[85.4902625,20.0488764],[85.490344,20.048965]]}},{"type":"Feature","properties":{"id":1529307431,"highway":"unclassified"},"geometry":{"type":"LineString","coordinates":[[85.4725358,20.0208854],[85.4722193,20.0208753],[85.4712617,20.0209837],[85.4710767,20.0209761],[85.4702747,20.02115],[85.4701325,20.021271],[85.4699635,20.02147],[85.4695424,20.0216666],[85.4693252,20.0218229],[85.4692098,20.0218682],[85.4690167,20.0220648],[85.4689282,20.0221732],[85.4687378,20.022221],[85.4681289,20.0223143],[85.4678848,20.0223168],[85.4675871,20.0223067],[85.467343,20.022347],[85.4668763,20.0223143],[85.4666886,20.0223244],[85.4665666,20.0224442]]}},{"type":"Feature","properties":{"id":1529307432,"highway":"unclassified"},"geometry":{"type":"LineString","coordinates":[[85.4687592,20.0212634],[85.4689014,20.02146],[85.4690462,20.0217019],[85.4692098,20.0218682],[85.4694727,20.0222513],[85.46969,20.0224126],[85.4698616,20.0225789],[85.4699072,20.0226621]]}},{"type":"Feature","properties":{"id":1529307434,"highway":"unclassified"},"geometry":{"type":"LineString","coordinates":[[85.4699582,20.0243933],[85.4696873,20.0244639]]}},{"type":"Feature","properties":{"id":1529307435,"highway":"unclassified"},"geometry":{"type":"LineString","coordinates":[[85.4700145,20.023156],[85.470036,20.0235315],[85.469985,20.023718],[85.4699045,20.0237432]]}},{"type":"Feature","properties":{"id":1529307437,"highway":"unclassified"},"geometry":{"type":"LineString","coordinates":[[85.4684696,20.0230048],[85.4684669,20.0230804],[85.4687351,20.0232593],[85.4691052,20.0233954],[85.4694968,20.0234861],[85.4699045,20.0237432],[85.469808,20.0238465],[85.4696631,20.0239826],[85.4696444,20.0241539],[85.4696873,20.0244639],[85.4697034,20.0247109],[85.4695371,20.0253812],[85.4692769,20.0257391],[85.4691803,20.0257945]]}},{"type":"Feature","properties":{"id":1529307456,"highway":"unclassified"},"geometry":{"type":"LineString","coordinates":[[85.452556,20.0403798],[85.4529047,20.0419169],[85.4529026,20.0419281]]}},{"type":"Feature","properties":{"id":1529307457,"highway":"unclassified"},"geometry":{"type":"LineString","coordinates":[[85.4529026,20.0419281],[85.4528457,20.0422293],[85.4527384,20.0425519],[85.4526418,20.0429248],[85.4525775,20.0430256],[85.4524541,20.0433582],[85.4525185,20.0439176],[85.4529464,20.0460308],[85.4529583,20.0460896],[85.4534626,20.0482565],[85.453929,20.0505915]]}},{"type":"Feature","properties":{"id":1529307458,"highway":"unclassified"},"geometry":{"type":"LineString","coordinates":[[85.4810062,20.0341028],[85.4803544,20.0342263],[85.4797751,20.034317],[85.4797614,20.0343213],[85.4795498,20.0343876],[85.4793513,20.0343624],[85.4790455,20.0342213],[85.4787397,20.0339491],[85.4784125,20.0337425],[85.4781175,20.0334149],[85.4779726,20.0330873],[85.4779463,20.0328097],[85.4778975,20.0325128],[85.47786,20.0322658],[85.4778707,20.0320088],[85.4778393,20.0319203],[85.4778117,20.0318425],[85.4776776,20.0316409],[85.4775113,20.0315199],[85.4773879,20.0313334],[85.4772645,20.0309655],[85.4771519,20.0307488],[85.4770553,20.0303557],[85.477007,20.030018],[85.4769212,20.0293931],[85.4767495,20.0288336],[85.4765457,20.0283952],[85.4762882,20.0282036],[85.4762024,20.0280071],[85.4758698,20.0272309],[85.4754513,20.0266815],[85.4751778,20.0262027],[85.4750329,20.0260919],[85.4747486,20.0259507],[85.4744536,20.0259759],[85.4742283,20.0258852],[85.4738796,20.0258499],[85.4735899,20.0258449],[85.4733968,20.0258046],[85.4733109,20.0257038],[85.4732144,20.0255475],[85.4730749,20.0252149],[85.4729301,20.0249881],[85.4728496,20.0247915],[85.4727611,20.0245647],[85.4725546,20.0242774],[85.4724591,20.0241382],[85.4723749,20.0240153],[85.4722488,20.0238641],[85.4720807,20.0236798],[85.4720557,20.0236524],[85.4719162,20.0233828],[85.4719162,20.0230376],[85.4718545,20.0227452],[85.471589,20.0227679],[85.4714736,20.0228712],[85.471243,20.0230275],[85.4708755,20.0232669],[85.4706073,20.0233223],[85.4703605,20.023277],[85.4700145,20.023156],[85.4699072,20.0226621],[85.469175,20.022846],[85.4684696,20.0230048],[85.4682523,20.0229393],[85.4679894,20.0228662],[85.4670936,20.0226041],[85.4665666,20.0224442],[85.4648673,20.0219287],[85.4630595,20.0213541],[85.4624802,20.0212785],[85.4619062,20.0212483],[85.4614395,20.0212936],[85.460844,20.0213743],[85.4576844,20.022095],[85.4561609,20.0224529],[85.4560375,20.0224781]]}},{"type":"Feature","properties":{"id":1529307460,"highway":"unclassified"},"geometry":{"type":"LineString","coordinates":[[85.5062388,20.0212248],[85.505822,20.0216994],[85.5056074,20.0218304],[85.5054894,20.0219035],[85.5054116,20.022027],[85.5053553,20.0221933],[85.5053392,20.0223697],[85.5053258,20.0229191],[85.5052909,20.0231888],[85.5051702,20.0237482],[85.5050361,20.0242043],[85.5049154,20.0244715],[85.5048242,20.0245748],[85.5046177,20.0247663],[85.5038774,20.0252577],[85.5034804,20.0254694],[85.5031478,20.0256005],[85.502952,20.0256206],[85.5026355,20.025608],[85.5022064,20.0255324],[85.5018604,20.0254669],[85.501501,20.0254014],[85.5006802,20.0251065],[85.5002511,20.0249982],[85.4999104,20.0249226],[85.499374,20.0248797],[85.4992023,20.0248444],[85.4989877,20.0247537],[85.4988295,20.0246076],[85.4986685,20.024479],[85.4984513,20.024411],[85.4983094,20.0243585],[85.4981858,20.0243127],[85.4979148,20.0241867],[85.4975983,20.0240657],[85.4973301,20.0240103],[85.4970431,20.023975],[85.4968393,20.0239826],[85.4967803,20.0240355],[85.4967535,20.0241539],[85.4967535,20.0242976],[85.4968366,20.0245067],[85.4968607,20.0245723],[85.4968393,20.0246907],[85.4967374,20.0247462],[85.4965657,20.024789],[85.4962116,20.0248646],[85.495981,20.0248444],[85.4958254,20.0248192],[85.4956537,20.0248696],[85.4955465,20.0249805],[85.4954419,20.0250007],[85.4949322,20.025046],[85.4946855,20.0250939],[85.4945701,20.025172],[85.494436,20.0253812],[85.4943314,20.0254971],[85.494082,20.0256458],[85.4937386,20.0258474],[85.4927301,20.0263061],[85.4925987,20.0263766],[85.4925451,20.0264799],[85.4925075,20.0266715],[85.4922983,20.0275434],[85.4920113,20.0285363],[85.4920059,20.0286396],[85.4920891,20.0287832],[85.4921722,20.0289773],[85.4921749,20.029126],[85.4920247,20.0297761],[85.4919764,20.0298769],[85.4919282,20.029887],[85.4917806,20.0298441],[85.4916573,20.0298441],[85.4913756,20.0298996],[85.4912549,20.0299651],[85.4911181,20.0301516],[85.4910028,20.0302095],[85.4907158,20.0303229],[85.4904932,20.0304263],[85.4903698,20.0304691],[85.4902169,20.0304842],[85.4900801,20.0305195],[85.489895,20.0306203],[85.4893827,20.0309907],[85.4890126,20.0311117],[85.488798,20.0312478],[85.4885137,20.0313486],[85.4879451,20.0315098],[85.4865342,20.0318929],[85.4860032,20.0320743],[85.4849571,20.0323213],[85.4849222,20.0324271],[85.4850161,20.0326413],[85.485346,20.0335182],[85.485346,20.0337072],[85.4852575,20.0338534],[85.4850242,20.0339491],[85.4847318,20.0339466],[85.4844958,20.0338987],[85.4835033,20.0334678],[85.4832298,20.0333494],[85.4831305,20.0333746],[85.4830995,20.0334212],[85.4830769,20.0334552],[85.4830876,20.0338761],[85.4830179,20.034118],[85.4830018,20.0343498],[85.4829749,20.0345337],[85.4828918,20.0345766],[85.4827604,20.0345741],[85.4826826,20.0346144],[85.4826504,20.0346875],[85.4825538,20.0352166],[85.482586,20.0355997],[85.482535,20.0358996]]}},{"type":"Feature","properties":{"id":1529332416,"highway":"unclassified"},"geometry":{"type":"LineString","coordinates":[[85.4639232,20.005149],[85.4636764,20.0059757]]}},{"type":"Feature","properties":{"id":1529332417,"highway":"unclassified"},"geometry":{"type":"LineString","coordinates":[[85.4637986,20.0015145],[85.4639232,20.005149],[85.4642934,20.006142]]}},{"type":"Feature","properties":{"id":1529332421,"highway":"unclassified"},"geometry":{"type":"LineString","coordinates":[[85.4716916,20.0028643],[85.4715568,20.0040501],[85.4715568,20.0044987],[85.4715675,20.0049826],[85.4716104,20.0053153],[85.4717499,20.0058345],[85.4718465,20.0062428],[85.4720557,20.0072358],[85.4723507,20.0078306],[85.4725707,20.0079768],[85.4730642,20.0081885],[85.4731671,20.0082891],[85.4733324,20.0084506],[85.47418,20.0090353],[85.4746628,20.0091614],[85.4749578,20.0092218],[85.4751831,20.0092521],[85.4755586,20.0091059],[85.476138,20.0088539],[85.4766744,20.0085262],[85.4768836,20.0084859],[85.477125,20.0085666],[85.477227,20.0087732],[85.4772001,20.0091815],[85.477109,20.0096755],[85.4772474,20.010534]]}},{"type":"Feature","properties":{"id":1529332422,"highway":"unclassified"},"geometry":{"type":"LineString","coordinates":[[85.4973301,20.0240103],[85.4973865,20.0237129],[85.4974347,20.0232845],[85.4973811,20.0228712],[85.4973274,20.0226948],[85.4971933,20.0225083],[85.4961312,20.0215658],[85.4954177,20.0209761],[85.4952514,20.0207291],[85.495187,20.0205477],[85.4950529,20.019963],[85.4949027,20.0196606],[85.4943341,20.0184157],[85.4942751,20.0181435],[85.4941302,20.0178007],[85.4940605,20.0175689],[85.4940927,20.0174076],[85.4941946,20.0173521],[85.4947472,20.0168179],[85.4949456,20.0166364],[85.4950958,20.016339],[85.4952568,20.0160316]]}},{"type":"Feature","properties":{"id":1529415139,"highway":"unclassified"},"geometry":{"type":"LineString","coordinates":[[85.4284204,20.0503152],[85.4285663,20.0509677],[85.4288667,20.0516429],[85.4290813,20.0522275],[85.4297411,20.0529682],[85.4299718,20.0532303],[85.4304975,20.0542028],[85.4307336,20.054732],[85.4312807,20.0561278],[85.4319727,20.0577252],[85.4324073,20.058864],[85.4325682,20.0594284],[85.4326004,20.05964],[85.4327667,20.0602044],[85.4329544,20.060542],[85.4331368,20.0607385],[85.4333031,20.0608141],[85.434097,20.0610862],[85.4346603,20.0612726],[85.4347783,20.0613986],[85.4348454,20.0616732],[85.4349527,20.0625223],[85.435363,20.063394],[85.4356849,20.0638878],[85.4362106,20.0644673],[85.4365969,20.0645479],[85.4378092,20.064689],[85.4384905,20.0647999],[85.438925,20.0649661],[85.4392576,20.0651526],[85.4397726,20.0654902],[85.4406363,20.0660293],[85.4409903,20.0662762],[85.4412961,20.0664425],[85.4414999,20.0666441],[85.4416877,20.0667247],[85.4434901,20.0665382],[85.4439998,20.066503],[85.444268,20.0664879],[85.4443914,20.0666289],[85.4446381,20.0669212],[85.4447132,20.0672739],[85.4448634,20.0676165],[85.4450458,20.0678685],[85.4455984,20.0686192],[85.4458076,20.0687956],[85.4461187,20.0689115],[85.446521,20.0689971],[85.4473901,20.0690526],[85.4484522,20.0691836],[85.4494232,20.0692239],[85.4505122,20.0694657],[85.4511613,20.0696421],[85.4516494,20.0697983],[85.4525346,20.0699646],[85.4531407,20.0704483],[85.4542297,20.0713754],[85.4551148,20.0719599],[85.4556459,20.0722219]]}},{"type":"Feature","properties":{"id":1529415179,"highway":"unclassified"},"geometry":{"type":"LineString","coordinates":[[85.3998246,20.0654163],[85.4012346,20.0643514],[85.4025596,20.0633386],[85.4027742,20.0632076]]}},{"type":"Feature","properties":{"id":1529415183,"highway":"unclassified"},"geometry":{"type":"LineString","coordinates":[[85.4186717,20.0845735],[85.4180145,20.0845483],[85.417757,20.084319],[85.4174218,20.0839412],[85.4168639,20.0836464],[85.4167351,20.0836263],[85.4165769,20.083717],[85.416365,20.0839639],[85.4163489,20.08445],[85.4161665,20.0845609],[85.416019,20.0846692],[85.4158768,20.0848304],[85.4156569,20.0851831]]}},{"type":"Feature","properties":{"id":1529415184,"highway":"unclassified"},"geometry":{"type":"LineString","coordinates":[[85.4287235,20.0863761],[85.4285851,20.0863242],[85.4281291,20.0861454],[85.4272976,20.0857952],[85.4263186,20.0855181],[85.4256749,20.0853191],[85.4248381,20.0850849],[85.4239637,20.0848657],[85.4225582,20.084639],[85.4219493,20.0845231],[85.4216677,20.0845256],[85.4210561,20.084702],[85.4205304,20.084712],[85.4198036,20.0846944],[85.4186717,20.0845735],[85.4186127,20.0844903],[85.4185778,20.0842737],[85.418492,20.0840319],[85.4183793,20.08379],[85.4181138,20.0833719],[85.4179502,20.0831351],[85.4177114,20.0827018],[85.4173171,20.0821602],[85.4171509,20.0818327],[85.4169068,20.0813011],[85.4166841,20.0807243],[85.4165661,20.0801952],[85.4164588,20.0799483],[85.4162309,20.0796385],[85.4159921,20.0791372],[85.415917,20.0790238]]}},{"type":"Feature","properties":{"id":1529415188,"highway":"unclassified"},"geometry":{"type":"LineString","coordinates":[[85.4125168,20.0729531],[85.4136854,20.0739451],[85.41471,20.0747613],[85.4153484,20.0752349],[85.4155469,20.0756581],[85.4156917,20.0766658]]}},{"type":"Feature","properties":{"id":1529415189,"highway":"unclassified"},"geometry":{"type":"LineString","coordinates":[[85.3920308,20.0832604],[85.3925496,20.0836263],[85.3931183,20.083848],[85.3936332,20.0839437],[85.3939551,20.0839563],[85.3942394,20.0839487],[85.3951165,20.0838379],[85.3956073,20.0837119],[85.3966212,20.0835935],[85.3971764,20.0835255],[85.3974929,20.0835356],[85.397906,20.0835356],[85.398075,20.0835104],[85.3985283,20.0833542],[85.3996682,20.0829033],[85.4003012,20.0826287],[85.4016986,20.082072],[85.4025677,20.0816463],[85.4030961,20.0814825],[85.4035413,20.0814095],[85.4040241,20.0812986],[85.4045337,20.0811374],[85.4049602,20.0809182],[85.4053894,20.0807318],[85.4060921,20.0805781],[85.4068002,20.0803867],[85.4085678,20.0800416],[85.4090238,20.0801776],[85.409351,20.0801977],[85.4101878,20.0802834],[85.4109496,20.0802935],[85.4113787,20.0802884],[85.411604,20.0802179],[85.4119581,20.0799861],[85.4122531,20.0798803],[85.4123685,20.0797972],[85.4124731,20.0798098],[85.4130068,20.0799131],[85.4133716,20.0800315],[85.4135326,20.0800088],[85.4136291,20.0798954],[85.4137391,20.07984],[85.4139107,20.0797947],[85.4140556,20.0797544],[85.4141709,20.0796763],[85.4145062,20.0794622],[85.4149193,20.0792808],[85.4157776,20.0790944],[85.415917,20.0790238],[85.4159492,20.0789684],[85.4157078,20.0784293],[85.4156488,20.0781673],[85.4156542,20.0778196],[85.4157561,20.0774871],[85.415681,20.0770336],[85.4156917,20.0766658],[85.4159278,20.076167],[85.4161155,20.075643],[85.4163194,20.0752702],[85.4165876,20.0750233],[85.4168183,20.0748873],[85.4169041,20.0747159],[85.4169095,20.0744842],[85.4167485,20.0741617],[85.4164964,20.0737234],[85.4170918,20.0734664],[85.4188085,20.0727963],[85.4192162,20.0726048]]}},{"type":"Feature","properties":{"id":1529415190,"highway":"unclassified"},"geometry":{"type":"LineString","coordinates":[[85.3974554,20.063845],[85.3977558,20.0642431],[85.3981715,20.0648124],[85.3984773,20.0651123],[85.3985475,20.0651555],[85.3986329,20.065208],[85.3997058,20.0653944],[85.3998246,20.0654163],[85.4002261,20.0654902],[85.4006714,20.0657925],[85.4012775,20.0660041],[85.4014867,20.0661452],[85.4016048,20.0663619],[85.4018247,20.0666289],[85.401932,20.0666743],[85.4022056,20.066634],[85.40308,20.0664274],[85.4039919,20.0662813],[85.4060626,20.0654851],[85.4075861,20.0648855],[85.4084605,20.064553],[85.4090667,20.0644522],[85.4091686,20.0645781],[85.4092812,20.0653592],[85.4093778,20.0661805],[85.4094207,20.0671731],[85.4093993,20.0684731],[85.4093671,20.0689871],[85.4094261,20.0691584],[85.4095012,20.0692541],[85.4096782,20.0692995],[85.4099625,20.0693095],[85.4107457,20.0693498],[85.411014,20.0694708],[85.4111856,20.0696068],[85.4113412,20.0698184],[85.4117489,20.0705239],[85.4121405,20.071189],[85.4123336,20.0718843],[85.4125168,20.0729531],[85.4125375,20.0730734],[85.4126769,20.073809],[85.4131222,20.0755423],[85.4134333,20.076681],[85.4135165,20.0774065],[85.413602,20.0776837],[85.4136237,20.0777541],[85.4136747,20.0783033],[85.4136157,20.0785527],[85.4136291,20.0791548],[85.4136479,20.079636],[85.4136291,20.0798954]]}},{"type":"Feature","properties":{"id":1529415191,"highway":"unclassified"},"geometry":{"type":"LineString","coordinates":[[85.3977558,20.0642431],[85.3982171,20.063913],[85.3989279,20.0631975],[85.3995448,20.0625374],[85.4007894,20.0607536],[85.4009825,20.0604916],[85.4022968,20.0582744],[85.403386,20.0568792],[85.403831,20.0563092],[85.4053438,20.0546513],[85.4084444,20.0514514],[85.4100162,20.0501261],[85.4119152,20.0485639],[85.4139322,20.0467951],[85.4160833,20.0451422],[85.418205,20.0434943],[85.4185912,20.0432952],[85.4191885,20.0430174]]}},{"type":"Feature","properties":{"id":1529415209,"highway":"unclassified"},"geometry":{"type":"LineString","coordinates":[[85.4189908,20.0326993],[85.4185885,20.0315149]]}},{"type":"Feature","properties":{"id":1529415210,"highway":"unclassified"},"geometry":{"type":"LineString","coordinates":[[85.4197572,20.0398281],[85.420061,20.0396869],[85.4203883,20.039639],[85.4209837,20.0397549],[85.42137,20.039765],[85.421724,20.0397776],[85.4218313,20.0397121],[85.4219413,20.0389788],[85.421952,20.037865],[85.4217213,20.0365446],[85.4216516,20.0363329],[85.4213351,20.0361011],[85.4209918,20.035451],[85.4203695,20.0342717],[85.4202461,20.034055],[85.419876,20.0337123],[85.4194951,20.033047],[85.4193234,20.032921],[85.4189908,20.0326993]]}},{"type":"Feature","properties":{"id":1529415211,"highway":"unclassified"},"geometry":{"type":"LineString","coordinates":[[85.4180413,20.0257995],[85.418154,20.0249276]]}},{"type":"Feature","properties":{"id":1529415212,"highway":"unclassified"},"geometry":{"type":"LineString","coordinates":[[85.4185885,20.0315149],[85.4184812,20.0311822],[85.4184061,20.0306732],[85.4182506,20.0300785],[85.4182666,20.0296551],[85.4181701,20.0292872],[85.4181433,20.0288891],[85.4180306,20.0281734],[85.4174888,20.0275333],[85.4173976,20.0271452],[85.4173922,20.0269638],[85.4173654,20.0265354],[85.4176444,20.0263086],[85.4180413,20.0257995]]}},{"type":"Feature","properties":{"id":1529415232,"highway":"unclassified"},"geometry":{"type":"LineString","coordinates":[[85.4123819,19.9883523],[85.4129022,19.9894715],[85.413444,19.990268],[85.4145759,19.9911754],[85.4147798,19.9920022],[85.4151016,19.9922744],[85.4151633,19.9923702],[85.4151902,19.9925063],[85.4151499,19.993018],[85.4152465,19.9937136],[85.415276,19.9939178],[85.4152653,19.9942732],[85.4152304,19.994611],[85.4151204,19.9951579],[85.4151124,19.9954906],[85.4151982,19.9958233],[85.4153591,19.9960754],[85.4157051,19.9964081],[85.4163381,19.9969576],[85.4169068,19.9974617],[85.4169524,19.9977238],[85.4170033,19.9985177],[85.4169711,19.9987622],[85.4166251,20.0003048],[85.4163676,20.00219],[85.4156649,20.0054817],[85.4154718,20.0059605],[85.4152036,20.0068074],[85.4151231,20.0072711],[85.4151553,20.0078155],[85.4151767,20.0082944],[85.4152036,20.0089093],[85.4151928,20.0090101],[85.4151633,20.0090731],[85.4150936,20.0091135],[85.4149675,20.0091286],[85.4145316,20.0091635],[85.4144955,20.0091664],[85.4143774,20.0092672],[85.4143131,20.0094487],[85.4142916,20.0098469],[85.4142004,20.0113086],[85.4139429,20.0125486],[85.4139429,20.012846],[85.414077,20.0135618],[85.4140341,20.0138037],[85.4139751,20.0144942],[85.4139697,20.0150235],[85.4139483,20.015462],[85.4138946,20.0157543],[85.4137713,20.0159308],[85.413723,20.0162533],[85.4135835,20.0169993]]}},{"type":"Feature","properties":{"id":1529415233,"highway":"unclassified"},"geometry":{"type":"LineString","coordinates":[[85.4392415,20.0035183],[85.4365647,20.0047104],[85.4360336,20.0048566],[85.4356527,20.0048768],[85.4352772,20.0045995],[85.4350734,20.0042669],[85.4345262,20.0034049],[85.4336035,20.0020136],[85.4333299,20.0018271],[85.431962,20.000945],[85.4284215,19.9986765],[85.4272467,19.9979758],[85.4270697,19.9979758],[85.4224241,19.9980716],[85.4179448,19.9977238],[85.4170248,19.9974617],[85.4169068,19.9974617]]}},{"type":"Feature","properties":{"id":1529415238,"highway":"unclassified"},"geometry":{"type":"LineString","coordinates":[[85.4414773,20.0059461],[85.4450726,20.0060916],[85.4485434,20.0059001],[85.4489284,20.0059381],[85.450024,20.0060462],[85.4508984,20.0060866],[85.4513276,20.0060563],[85.4514885,20.0059958]]}},{"type":"Feature","properties":{"id":1529415252,"highway":"unclassified"},"geometry":{"type":"LineString","coordinates":[[85.4580089,20.046465],[85.4596102,20.0470672],[85.4602888,20.0472688],[85.4608655,20.0473973],[85.4613295,20.0476316],[85.4618606,20.0480978],[85.4623005,20.0485614],[85.4625955,20.0490754],[85.4627203,20.0495585]]}},{"type":"Feature","properties":{"id":1529415253,"highway":"unclassified"},"geometry":{"type":"LineString","coordinates":[[85.4644297,20.0492615],[85.464288,20.0488638],[85.4642075,20.0482968],[85.4641807,20.04806],[85.46406,20.0477072],[85.4637837,20.047362],[85.4633707,20.0470975],[85.4631239,20.0468052],[85.4629925,20.0464499],[85.4626277,20.0456688],[85.4625585,20.0456463],[85.4624882,20.0456234],[85.4619786,20.0457872],[85.4615387,20.0458023],[85.4609084,20.046019],[85.4600045,20.0462609],[85.4595968,20.0463693],[85.4589289,20.0464348],[85.4582503,20.0464398],[85.4580089,20.046465],[85.4572552,20.0461526],[85.4569253,20.0458855],[85.4566973,20.0457116],[85.456515,20.0457015],[85.4552999,20.0457469],[85.4550934,20.0458124],[85.4546508,20.0457922],[85.4540393,20.0457293],[85.4536021,20.0457368],[85.4532802,20.0459056],[85.4529464,20.0460308]]}},{"type":"Feature","properties":{"id":1529415254,"highway":"unclassified"},"geometry":{"type":"LineString","coordinates":[[85.4674905,20.0497445],[85.4677346,20.0493601],[85.4679385,20.0489822],[85.4681504,20.0482011],[85.4681209,20.0474326],[85.4680163,20.0467548],[85.4679599,20.046334],[85.4678473,20.0460795],[85.467563,20.0461526],[85.4671258,20.0462055],[85.4666457,20.046276],[85.4664338,20.0464247],[85.4661655,20.0465683],[85.4659027,20.0468228],[85.4656827,20.0470849],[85.4654494,20.0476593],[85.4651222,20.0484833],[85.464778,20.0492111]]}}]}