{"type":"FeatureCollection","features":[{"type":"Feature","properties":{"id":746551629,"highway":"secondary"},"geometry":{"type":"LineString","coordinates":[[85.406242,19.9475362],[85.4052139,19.9499698],[85.4045756,19.9514296],[85.4035349,19.9533136],[85.4027746,19.9544753],[85.4018751,19.955872],[85.4004517,19.9580614],[85.3994349,19.9596136],[85.3980648,19.9616719],[85.397993,19.9617798],[85.39764,19.9623016],[85.3973151,19.9627818],[85.396397,19.963807],[85.3948996,19.9654924],[85.3944929,19.9659152],[85.3942403,19.9661179],[85.3920897,19.9674789],[85.3907772,19.9683129],[85.3898344,19.9688747],[85.3894523,19.9690716],[85.3891565,19.9691701],[85.3876838,19.969535],[85.3874898,19.9695952],[85.3871508,19.9697979],[85.3853084,19.9720334],[85.3850865,19.9723519],[85.3850249,19.9726068],[85.3840821,19.9762032],[85.3836384,19.9779233],[85.3830346,19.9805235],[85.3826032,19.9829732],[85.3825091,19.9838411],[85.3821758,19.9846778],[85.3812051,19.9869594],[85.3808324,19.9878355],[85.3795937,19.9906826],[85.3792256,19.991554],[85.378631,19.9926781],[85.3769959,19.995718],[85.3758152,19.9979291],[85.3750281,19.999403],[85.3740938,20.0011789],[85.3736903,20.001711],[85.3731594,20.0022432],[85.3694858,20.0059014],[85.3689266,20.0064667],[85.3686788,20.006766],[85.3680701,20.008522],[85.3671994,20.0112024],[85.3661023,20.0145744],[85.3658829,20.0149801],[85.3656776,20.0150599],[85.3654157,20.0152328],[85.36463,20.0159046],[85.3606661,20.0187711],[85.3573746,20.0209924],[85.3552582,20.0223757],[85.3549892,20.0226018],[85.3548052,20.0227947],[85.3548476,20.0263593],[85.3549397,20.0308483],[85.3550034,20.0324177],[85.3550104,20.0327702],[85.3549043,20.0334086],[85.3544088,20.0357361],[85.3536514,20.0395133],[85.3528515,20.0433701],[85.35271,20.0441681],[85.3523985,20.0457973],[85.3520729,20.0467016],[85.3502608,20.0496008],[85.348831,20.0519613],[85.34784,20.0534973],[85.3476985,20.0536968],[85.347564,20.0542819],[85.3473233,20.0561636],[85.3471817,20.057141],[85.3469836,20.0576331],[85.346842,20.0578126],[85.3465518,20.0579323],[85.3460884,20.0581004],[85.3459289,20.0581583],[85.3453473,20.0584946],[85.3450103,20.0599121],[85.3449468,20.060179],[85.3447855,20.0605857],[85.344614,20.0610183],[85.3445216,20.0612499],[85.3443737,20.0613656],[85.3440471,20.0619965],[85.3438574,20.0624626]]}},{"type":"Feature","properties":{"id":1529415231,"highway":"unclassified"},"geometry":{"type":"LineString","coordinates":[[85.418154,20.0249276],[85.4181701,20.0244891],[85.4180038,20.0237734],[85.4177999,20.0229015],[85.4176229,20.0225991],[85.4174244,20.0223924],[85.4172581,20.0222009],[85.4172957,20.0219942],[85.417183,20.0216465],[85.4170167,20.0210971],[85.4165715,20.0206787],[85.4162496,20.0205779],[85.4160672,20.0204519],[85.4158902,20.0199983],[85.4156381,20.0190104],[85.4153752,20.0184711],[85.415386,20.017957],[85.4154557,20.0173622],[85.4153377,20.0172765],[85.4146779,20.0171656],[85.4144197,20.0171163],[85.4135835,20.0169993],[85.4133619,20.0169587],[85.4110837,20.0165406],[85.409764,20.0162332],[85.4082781,20.0157392],[85.4070604,20.0152957],[85.4059982,20.0148521],[85.404464,20.0141112],[85.4031444,20.0136273],[85.4015136,20.0131182],[85.4007173,20.0128729],[85.4005319,20.0128158],[85.3998556,20.0127018],[85.3997245,20.0126797],[85.3993705,20.0126771],[85.3990245,20.0126671],[85.3988072,20.0126545],[85.3986704,20.0127099],[85.3985202,20.0128208],[85.3984076,20.0128561],[85.3981957,20.0128561],[85.3974044,20.0129619],[85.3964764,20.0128662],[85.396117,20.0127956],[85.3956529,20.0125864],[85.3954813,20.0124806],[85.3953257,20.0123495],[85.3950924,20.0122185],[85.394851,20.0121731],[85.3945425,20.0121731],[85.394218,20.0122613],[85.393534,20.012468],[85.3929654,20.0126973],[85.392673,20.0128536],[85.3926113,20.0129972],[85.3925818,20.0133022],[85.3925067,20.0135038],[85.3923994,20.0135794],[85.3922707,20.0136046],[85.3921634,20.0136046],[85.3919944,20.0135769],[85.3918442,20.0135365],[85.3915089,20.0133122],[85.391356,20.0132366],[85.3912407,20.0132392],[85.3911763,20.013287],[85.3910905,20.0134055],[85.3909886,20.0136248],[85.3908545,20.0140582],[85.3907874,20.0143077],[85.3908196,20.0145169],[85.3909135,20.0147815],[85.3909081,20.0148874],[85.3908759,20.015031],[85.3905621,20.0154948],[85.3903368,20.0156762],[85.3901169,20.0157997],[85.3899881,20.0159056],[85.3898245,20.0161021],[85.3897382,20.0161908],[85.3896797,20.0162508],[85.3894919,20.0163315],[85.3889528,20.0165658],[85.3886175,20.0169842],[85.3881362,20.0173502],[85.3879282,20.0175084],[85.3879089,20.0175225],[85.3875768,20.0177654],[85.3871289,20.0182947],[85.3869036,20.0186752],[85.386681,20.0188995],[85.3864503,20.0191188],[85.3860667,20.0192171],[85.3857341,20.0192549],[85.3845084,20.019333],[85.3841221,20.0193128],[85.3833738,20.019081],[85.3826952,20.0189121],[85.3822473,20.0188567],[85.3815928,20.0187912],[85.3810751,20.0187307],[85.3800747,20.0184484],[85.3794792,20.018267],[85.3790125,20.0181183],[85.3787014,20.0180275],[85.3777304,20.0180301],[85.3773522,20.0179847],[85.377143,20.0179015],[85.3763437,20.0175512],[85.3758985,20.0172967],[85.3752145,20.0169338],[85.3745574,20.0166793],[85.3740907,20.0165205],[85.3735408,20.0164172],[85.3731734,20.0163693],[85.3727281,20.0163441],[85.372138,20.0164449],[85.3716284,20.016523],[85.371328,20.0164802],[85.3709847,20.0163869],[85.3702739,20.0161072],[85.3697026,20.0159837],[85.3690046,20.0158166],[85.3688604,20.0157821],[85.367007,20.0153687],[85.3658829,20.0149801]]}}]}