{"type":"FeatureCollection","features":[{"type":"Feature","properties":{"id":146694044,"highway":"secondary"},"geometry":{"type":"LineString","coordinates":[[85.5097989,20.1400563],[85.5091693,20.1400282],[85.509127,20.1400244],[85.5091078,20.1400195],[85.5081614,20.1397777],[85.5074939,20.1395968],[85.5064993,20.1393273],[85.504097,20.1385166],[85.5003552,20.1372538],[85.4965401,20.1359854],[85.4950181,20.1354794],[85.4935671,20.1348813],[85.4927743,20.1345822],[85.4915993,20.1339442],[85.4893413,20.1328543],[85.489135,20.1327517],[85.4862692,20.1313258],[85.4849173,20.1308007],[85.483268,20.1301694],[85.4816966,20.1297174],[85.4803517,20.1293453],[85.4795165,20.1290661],[85.4793029,20.1289609],[85.4790847,20.1288535],[85.4786033,20.1285477],[85.4776407,20.127717],[85.4769612,20.1272584],[85.4767692,20.1271868],[85.4759277,20.1268729],[85.4748872,20.1264542],[85.4727354,20.1255636],[85.470626,20.1246797],[85.4672001,20.1232441],[85.4642908,20.1221541],[85.4635901,20.121968],[85.4626699,20.1217287],[85.4619054,20.1215426],[85.4609428,20.1212768],[85.4598315,20.1207517],[85.4579769,20.1199342],[85.4572974,20.1197614],[85.4562436,20.1198408]]}},{"type":"Feature","properties":{"id":602562836,"highway":"unclassified"},"geometry":{"type":"LineString","coordinates":[[85.4367632,20.1010047],[85.4359907,20.1011608],[85.4354918,20.1015639],[85.4351217,20.1018863],[85.4348856,20.1020575],[85.4339093,20.1023598],[85.4336142,20.1025009],[85.4329973,20.1019266],[85.4331207,20.1010248],[85.4331989,20.1010065],[85.4342794,20.1007528],[85.4353523,20.1002289],[85.4360846,20.0996697],[85.4365969,20.0994808]]}},{"type":"Feature","properties":{"id":617657412,"highway":"unclassified"},"geometry":{"type":"LineString","coordinates":[[85.5097989,20.1400563],[85.5097955,20.14024],[85.5098136,20.1404527],[85.5098156,20.1404765],[85.5098016,20.1405597],[85.5097842,20.1406628],[85.5097731,20.140729],[85.5097023,20.1408918],[85.5095147,20.141038],[85.5091254,20.141264],[85.5089131,20.1413969],[85.508722,20.1416893],[85.5083822,20.1421611],[85.5079575,20.1426894],[85.5075717,20.1430449],[85.5065984,20.143952],[85.5059578,20.1446232],[85.5056747,20.1451549],[85.5054977,20.1460719],[85.5053739,20.1470687],[85.5051863,20.1480788],[85.504929,20.1491759],[85.5048996,20.1493015],[85.504344,20.1518001],[85.5043337,20.1518491],[85.5040502,20.1531989],[85.5034732,20.1560523],[85.5027739,20.1584033],[85.5016193,20.1610289],[85.5014891,20.1612327],[85.5009607,20.1620594],[85.5007331,20.1620975],[85.5007493,20.1624105],[85.5006518,20.1626585],[85.5006558,20.1628684],[85.5010746,20.1639179],[85.5013388,20.1644445],[85.5017332,20.1648414],[85.5017901,20.1650704],[85.5016722,20.1654597],[85.5014242,20.1659672],[85.5012656,20.1665397],[85.501347,20.1674975],[85.5015177,20.168505],[85.5016315,20.1693904],[85.5018755,20.1700735],[85.5024446,20.1715045],[85.5032821,20.1732714],[85.5036602,20.1743475],[85.5036846,20.1751069],[85.5036399,20.1769042],[85.5037293,20.1774499],[85.5036236,20.1776712],[85.5033187,20.1780299],[85.5030301,20.1785107],[85.5025137,20.1795639],[85.5024324,20.1805065],[85.5025585,20.1808537],[85.5027211,20.1810025],[85.5028796,20.1812887],[85.5029894,20.1817428],[85.5029569,20.182567],[85.5028309,20.1827426],[85.5023755,20.1830287],[85.5018755,20.1831814],[85.5016478,20.1834027],[85.5014567,20.1836393],[85.500977,20.1839827],[85.5008754,20.1840857],[85.500855,20.1842803],[85.500664,20.1844139],[85.5003468,20.1845856],[85.5000541,20.1848298],[85.4998834,20.1852839],[85.4995785,20.1854022],[85.4987552,20.1855357],[85.4982552,20.1857246],[85.4975945,20.186089],[85.4973221,20.186276],[85.4969725,20.1866728],[85.4968323,20.186772],[85.4966696,20.1868255],[85.4963342,20.1868808],[85.4959988,20.1869819],[85.4956345,20.1871637],[85.4952381,20.1872202],[85.4949125,20.1872767],[85.4945551,20.187383],[85.4944956,20.1874705],[85.4945622,20.1876687],[85.4949055,20.1882566],[85.495493,20.1891634],[85.4958398,20.1898942],[85.4960628,20.1902364],[85.4964167,20.1908874],[85.4965123,20.1909472],[85.4966043,20.1909572],[85.4966963,20.1909572],[85.4967671,20.1909638],[85.4968556,20.1910701],[85.4969157,20.1911233],[85.4969759,20.1911532],[85.4970714,20.1911631],[85.497167,20.191203],[85.4972342,20.1912561],[85.4973156,20.191379],[85.4976413,20.1920533],[85.4978465,20.193103],[85.4980766,20.1941825],[85.4982111,20.1952023],[85.4982606,20.1961821],[85.4983633,20.1970225],[85.4983015,20.198131],[85.4982961,20.1994953],[85.4983551,20.1998377],[85.4983444,20.2002304],[85.4981727,20.2005878],[85.4980761,20.2008395],[85.498044,20.2017054],[85.4981566,20.2022391],[85.4983873,20.202954],[85.4987789,20.203689],[85.4989988,20.204132],[85.4992349,20.2046405],[85.4998089,20.2055718],[85.4999698,20.2060904],[85.5000342,20.2062414],[85.5007154,20.2073086],[85.5006511,20.2087182],[85.5007691,20.2098509],[85.5007101,20.2101429],[85.5007744,20.2105054],[85.5009783,20.2109131],[85.5009944,20.2113108],[85.5008817,20.2116582],[85.5006511,20.2119854],[85.5003453,20.2124284],[85.4997338,20.2134302],[85.4995299,20.2141903],[85.4993743,20.2144772],[85.499149,20.2146182],[85.4990096,20.214739],[85.4989881,20.2149303],[85.4991437,20.2152273],[85.4992134,20.2154387],[85.4992134,20.2159925],[85.4990793,20.2162542],[85.4991812,20.2169741],[85.4993958,20.2174624],[85.4997552,20.2179355],[85.5001522,20.2183987],[85.5004794,20.2190178],[85.5009461,20.2199642],[85.5011145,20.2205985]]}},{"type":"Feature","properties":{"id":619211120,"highway":"unclassified"},"geometry":{"type":"LineString","coordinates":[[85.4314783,20.1869806],[85.4314783,20.1871999],[85.4315562,20.1873128],[85.4318464,20.187346],[85.4324056,20.1873527],[85.4327595,20.1873859],[85.4342955,20.1877912],[85.435697,20.1881898],[85.436504,20.1884356],[85.4383231,20.1889604],[85.4385638,20.1891398],[85.4387195,20.1893391],[85.4386699,20.1896646],[85.4388044,20.19003],[85.4394273,20.1917573],[85.4398308,20.1921559],[85.4413102,20.1931923],[85.4419189,20.1935842],[85.4434549,20.1948531],[85.444007,20.1953447],[85.4446724,20.1959758],[85.4444459,20.1973841],[85.4447608,20.1976407],[85.4447909,20.1980815],[85.4448681,20.1992115],[85.4447823,20.1998861],[85.4451042,20.1999868],[85.4450317,20.2003421],[85.4449188,20.2008957]]}},{"type":"Feature","properties":{"id":619211123,"highway":"residential"},"geometry":{"type":"LineString","coordinates":[[85.4435749,20.2005598],[85.4438596,20.1996546],[85.4436558,20.1993626]]}},{"type":"Feature","properties":{"id":619211124,"highway":"residential"},"geometry":{"type":"LineString","coordinates":[[85.4443531,20.1992014],[85.4448681,20.1992115],[85.4457015,20.1994443],[85.4457693,20.1994632],[85.4459999,20.1995058],[85.4465443,20.1996065],[85.4468521,20.1996634],[85.4471292,20.1997426],[85.4469763,20.2001253]]}},{"type":"Feature","properties":{"id":619211125,"highway":"residential"},"geometry":{"type":"LineString","coordinates":[[85.4446724,20.1959758],[85.4461663,20.1971272],[85.4469924,20.1976911],[85.4475932,20.1978925],[85.4480975,20.1982952],[85.4486661,20.1986174],[85.449342,20.1987282],[85.4493313,20.1995237],[85.4504686,20.1996948],[85.4513666,20.1997918],[85.4522388,20.1998861],[85.4522956,20.1998913],[85.4531533,20.1999701],[85.4531521,20.200036],[85.4531106,20.2004135],[85.4533446,20.2005121],[85.4537731,20.2006312],[85.4538086,20.2008293],[85.4537945,20.2009232],[85.4538864,20.2010659],[85.4551584,20.201394],[85.455652,20.2015934]]}},{"type":"Feature","properties":{"id":619211130,"highway":"residential"},"geometry":{"type":"LineString","coordinates":[[85.4493313,20.1995237],[85.4488241,20.1995368],[85.4482263,20.1993615],[85.4476753,20.19923],[85.4474566,20.1990785],[85.4475072,20.1985463],[85.4468067,20.1984324],[85.4461529,20.1982658],[85.4459194,20.1982833],[85.4457015,20.1994443]]}},{"type":"Feature","properties":{"id":619211131,"highway":"residential"},"geometry":{"type":"LineString","coordinates":[[85.4459194,20.1982833],[85.4459754,20.1978012],[85.4458446,20.1977839],[85.4447608,20.1976407]]}},{"type":"Feature","properties":{"id":619211132,"highway":"residential"},"geometry":{"type":"LineString","coordinates":[[85.4458446,20.1977839],[85.4461663,20.1971272]]}},{"type":"Feature","properties":{"id":619212568,"highway":"unclassified"},"geometry":{"type":"LineString","coordinates":[[85.4678674,20.1948407],[85.467996,20.1946836],[85.4687188,20.194228],[85.4691227,20.1940226],[85.4710202,20.193362],[85.4716762,20.1932636],[85.4719791,20.1931064],[85.4720756,20.1929618],[85.472108,20.1928206],[85.4720529,20.1926798],[85.4718141,20.1924356],[85.4717068,20.1920932],[85.4723935,20.1918516],[85.4726751,20.191333],[85.4727167,20.191007],[85.4728751,20.1908583],[85.4733189,20.1906923],[85.4759125,20.1903411],[85.4773288,20.189737],[85.4807834,20.1883675],[85.4815559,20.1878439],[85.4823284,20.1873202],[85.4830794,20.1869577],[85.4842167,20.1870181],[85.4847317,20.1871793],[85.4868345,20.1873807],[85.4899888,20.1876425],[85.4921989,20.1875619],[85.494173,20.1875216],[85.4944956,20.1874705]]}},{"type":"Feature","properties":{"id":619944090,"highway":"residential"},"geometry":{"type":"LineString","coordinates":[[85.4540201,20.1207451],[85.4538216,20.1208685],[85.4533925,20.1209793],[85.4529848,20.1214477],[85.452502,20.121624],[85.4521694,20.1218457],[85.4514827,20.1222537],[85.4509838,20.1225307],[85.4508605,20.1227221],[85.450763,20.1227947],[85.4506781,20.1228581],[85.4507693,20.1230344],[85.4508766,20.1232157],[85.4508711,20.1232407],[85.4508531,20.1233229],[85.450839,20.123387]]}},{"type":"Feature","properties":{"id":621757653,"highway":"residential"},"geometry":{"type":"LineString","coordinates":[[85.4462417,20.2004968],[85.4465443,20.1996065]]}},{"type":"Feature","properties":{"id":621757654,"highway":"residential"},"geometry":{"type":"LineString","coordinates":[[85.4468521,20.1996634],[85.4469859,20.1992648],[85.4471374,20.1991742],[85.4473064,20.199149],[85.4474566,20.1990785]]}},{"type":"Feature","properties":{"id":621757655,"highway":"residential"},"geometry":{"type":"LineString","coordinates":[[85.4471374,20.1991742],[85.4469604,20.1991112],[85.4466922,20.1990634],[85.4464427,20.1990735],[85.4462161,20.1990324],[85.4461034,20.1990778],[85.4459999,20.1995058]]}},{"type":"Feature","properties":{"id":621757656,"highway":"residential"},"geometry":{"type":"LineString","coordinates":[[85.4488241,20.1995368],[85.4488225,20.1991557]]}},{"type":"Feature","properties":{"id":621757657,"highway":"residential"},"geometry":{"type":"LineString","coordinates":[[85.4512976,20.2003987],[85.4513666,20.1997918]]}},{"type":"Feature","properties":{"id":621757658,"highway":"residential"},"geometry":{"type":"LineString","coordinates":[[85.4522956,20.1998913],[85.4523675,20.1993224],[85.4523675,20.1992141],[85.4523354,20.199116]]}},{"type":"Feature","properties":{"id":621757660,"highway":"residential"},"geometry":{"type":"LineString","coordinates":[[85.4522038,20.2004786],[85.4522388,20.1998861]]}},{"type":"Feature","properties":{"id":621757662,"highway":"residential"},"geometry":{"type":"LineString","coordinates":[[85.4531533,20.1999701],[85.4532473,20.1995364],[85.4531883,20.1995011],[85.4528906,20.1994432],[85.4526814,20.1993878]]}},{"type":"Feature","properties":{"id":621757675,"highway":"residential"},"geometry":{"type":"LineString","coordinates":[[85.4616982,20.1968553],[85.4615029,20.1984166]]}},{"type":"Feature","properties":{"id":621757676,"highway":"residential"},"geometry":{"type":"LineString","coordinates":[[85.4628478,20.1975662],[85.4630035,20.1976592],[85.4632725,20.1976194],[85.4636901,20.1974932],[85.46449,20.1974932]]}},{"type":"Feature","properties":{"id":621757677,"highway":"tertiary"},"geometry":{"type":"LineString","coordinates":[[85.4556634,20.2016852],[85.455652,20.2015934],[85.4554808,20.200866],[85.4555444,20.2006963],[85.4557598,20.2001209],[85.4557812,20.198389],[85.4562747,20.1970196],[85.4562747,20.196014],[85.4562366,20.1953142],[85.4566801,20.1943615],[85.456773,20.1940508]]}},{"type":"Feature","properties":{"id":622056134,"highway":"tertiary"},"geometry":{"type":"LineString","coordinates":[[85.4571885,20.1915257],[85.4572038,20.1910697]]}},{"type":"Feature","properties":{"id":622056136,"highway":"tertiary"},"geometry":{"type":"LineString","coordinates":[[85.4571885,20.1915257],[85.4571232,20.1923472],[85.4569604,20.1932175],[85.456773,20.1940508]]}},{"type":"Feature","properties":{"id":624423213,"highway":"residential"},"geometry":{"type":"LineString","coordinates":[[85.4447909,20.1980815],[85.4440759,20.1980575],[85.4438588,20.1980224],[85.4434338,20.1980049],[85.4431256,20.1980312],[85.4429341,20.1980399],[85.4428174,20.198235],[85.4426913,20.1982656]]}},{"type":"Feature","properties":{"id":640983832,"highway":"trunk"},"geometry":{"type":"LineString","coordinates":[[85.3116409,20.1720753],[85.3162277,20.1723878],[85.3223139,20.1728489],[85.3225017,20.1728631],[85.3290849,20.1734486],[85.3317358,20.1736875],[85.3322064,20.1737277],[85.3327913,20.1737776],[85.333399,20.1738326],[85.333956,20.1738877],[85.3342812,20.1738902],[85.3350852,20.1738719],[85.3353846,20.1738651],[85.335819,20.1738451],[85.3360509,20.1738777],[85.3362391,20.1739292],[85.338819,20.1746647],[85.3435792,20.1760206],[85.3478383,20.1771864],[85.3521507,20.1784122],[85.3530349,20.1786607],[85.3545691,20.1790918],[85.3555516,20.1793679],[85.361314,20.1811341],[85.3661648,20.182575],[85.3713567,20.184116],[85.372087,20.1843261],[85.3724335,20.1843712],[85.3745452,20.1844701],[85.3756371,20.1845212],[85.3766161,20.1845989],[85.3767473,20.1846093],[85.377908,20.1847014],[85.3784219,20.1848039],[85.3785849,20.1848364],[85.3833078,20.1859521],[85.384525,20.1862256],[85.3890755,20.187248],[85.3928655,20.1880735],[85.3943899,20.1884193],[85.3963943,20.188874],[85.3977909,20.1891641],[85.3982547,20.1892442],[85.3998059,20.188969],[85.4005042,20.188879],[85.4009306,20.188894],[85.4013517,20.188954],[85.4019496,20.189135],[85.4058294,20.1903098],[85.4093475,20.1914005],[85.410936,20.1918908],[85.4124446,20.1925311],[85.4188466,20.1953578],[85.4225315,20.1969659],[85.4230893,20.1971357],[85.423617,20.1972242],[85.4250871,20.1972879],[85.426003,20.1973338],[85.426792,20.197393],[85.4314296,20.1981034],[85.4369363,20.1989339],[85.4380495,20.1991699],[85.4408222,20.1998613],[85.4418984,20.2001408],[85.4435749,20.2005598],[85.444479,20.2007858],[85.4449188,20.2008957],[85.4455558,20.2010549],[85.4460806,20.2011861],[85.4465492,20.2013032],[85.4474712,20.201534],[85.4480727,20.2016845],[85.4492418,20.2019783],[85.4500236,20.2021747],[85.4514028,20.2025382],[85.4518174,20.2026475],[85.4521502,20.2027541],[85.4525257,20.2028744],[85.4536654,20.2032395],[85.4538163,20.2032878],[85.4544161,20.2034864],[85.4545866,20.2035429],[85.4554329,20.2036654],[85.455704,20.2037059],[85.4557376,20.2037089],[85.4563231,20.2037983],[85.4566655,20.2038494],[85.4582967,20.2043385],[85.4595678,20.2047196],[85.4606036,20.205043],[85.4638158,20.2060461],[85.4673476,20.2071568],[85.4709435,20.2082781],[85.474317,20.2093534],[85.4762431,20.2099512],[85.4770949,20.2102165],[85.4796429,20.2114368],[85.4832652,20.2131665],[85.4842106,20.2136152]]}},{"type":"Feature","properties":{"id":644549166,"highway":"unclassified"},"geometry":{"type":"LineString","coordinates":[[85.4677762,20.1949716],[85.4678674,20.1948407]]}},{"type":"Feature","properties":{"id":644549167,"highway":"unclassified"},"geometry":{"type":"LineString","coordinates":[[85.4562747,20.196014],[85.4563713,20.1960178],[85.4575448,20.1964432],[85.4593258,20.1968661],[85.4613857,20.1968862],[85.4616982,20.1968553],[85.4634242,20.1966848],[85.4642507,20.1966228],[85.4644971,20.1966043],[85.4652481,20.1961008],[85.466219,20.1957685],[85.4667999,20.1956438],[85.4673149,20.1954877],[85.4674797,20.1953595],[85.4677762,20.1949716]]}},{"type":"Feature","properties":{"id":644549181,"highway":"residential"},"geometry":{"type":"LineString","coordinates":[[85.472108,20.1928206],[85.4722112,20.1927816],[85.4724982,20.1928558],[85.4726551,20.1931201],[85.4728737,20.1933291],[85.4729623,20.1933278],[85.4734313,20.1932123]]}},{"type":"Feature","properties":{"id":644549186,"highway":"residential"},"geometry":{"type":"LineString","coordinates":[[85.4733189,20.1906923],[85.4735094,20.191538],[85.4735094,20.191976],[85.4733753,20.1923863],[85.4733834,20.1925852],[85.4733351,20.1926179],[85.4733565,20.1928961],[85.4734075,20.1931491],[85.4734313,20.1932123],[85.4735403,20.1935015],[85.4740834,20.1935456],[85.4745126,20.1936374],[85.4746708,20.1937142],[85.4753253,20.1939345]]}},{"type":"Feature","properties":{"id":644549190,"highway":"residential"},"geometry":{"type":"LineString","coordinates":[[85.4321498,20.1390722],[85.4320854,20.1393013]]}},{"type":"Feature","properties":{"id":644549191,"highway":"residential"},"geometry":{"type":"LineString","coordinates":[[85.4307443,20.1396262],[85.4320854,20.1393013],[85.4322892,20.1394096]]}},{"type":"Feature","properties":{"id":644549192,"highway":"tertiary"},"geometry":{"type":"LineString","coordinates":[[85.4318628,20.1383998],[85.4321498,20.1390722],[85.4322892,20.1394096],[85.4326406,20.140228],[85.4326916,20.1405579],[85.4328203,20.1422048],[85.4328391,20.1425699],[85.4328927,20.1438542],[85.4329303,20.144378],[85.4331154,20.1454507],[85.4334426,20.1469464],[85.433633,20.1473921],[85.434486,20.1494909],[85.4345356,20.149564],[85.4349071,20.149846],[85.4350104,20.1500399],[85.4356742,20.152111],[85.4361489,20.1539441],[85.4364574,20.1557822],[85.4366076,20.1569127],[85.4367793,20.1578721],[85.4370716,20.1587886],[85.4374927,20.1600928],[85.4376376,20.1604202],[85.4376885,20.1607097],[85.4376698,20.1612284],[85.4376751,20.1614349],[85.437828,20.1617018],[85.4378361,20.1619762],[85.437718,20.1623035],[85.4376215,20.1626107],[85.4374257,20.162797],[85.4371467,20.1630387],[85.4368785,20.1634542],[85.4367337,20.1638797],[85.4366747,20.1644235],[85.4366049,20.1646199],[85.4363287,20.1649699],[85.4361785,20.1652897],[85.4357359,20.1660828],[85.4356232,20.1664302],[85.4354677,20.167173],[85.435406,20.1673442],[85.4352531,20.1676136],[85.4351699,20.1677999],[85.4351136,20.1682984],[85.4351538,20.168462],[85.4352745,20.1686333],[85.4353979,20.1687314],[85.4362911,20.1691318],[85.436511,20.1692753],[85.4378843,20.170864],[85.4384878,20.1715916],[85.4392576,20.1723444],[85.4399765,20.1730619],[85.4402152,20.1735453],[85.4407677,20.1741898],[85.4413122,20.1747613],[85.441964,20.1755116],[85.4420981,20.1757935],[85.4422268,20.1759144],[85.4430369,20.1761787],[85.4431763,20.1762442],[85.443399,20.1765136],[85.4438067,20.1769668],[85.444327,20.1774048],[85.446395,20.1790236],[85.4468778,20.1794138],[85.4505363,20.1825759],[85.4510781,20.1829359],[85.4516736,20.1833639],[85.4549222,20.1860463],[85.4553992,20.1864402],[85.4555413,20.1866013],[85.4557988,20.1870419],[85.4568073,20.1884944],[85.4568931,20.1886581]]}},{"type":"Feature","properties":{"id":644549202,"highway":"residential"},"geometry":{"type":"LineString","coordinates":[[85.4566801,20.1943615],[85.4579638,20.1944961]]}},{"type":"Feature","properties":{"id":746551633,"highway":"secondary"},"geometry":{"type":"LineString","coordinates":[[85.4562436,20.1198408],[85.4560383,20.1195675],[85.455833,20.1193648],[85.455695,20.1191754],[85.4554472,20.1186603],[85.4551747,20.1181419],[85.4549057,20.1175968],[85.4546792,20.1169787],[85.4544669,20.1165999],[85.4543678,20.1162875],[85.4542899,20.1160183],[85.4541554,20.1158521],[85.4538853,20.1155172],[85.4536576,20.1152576],[85.4535275,20.1150514],[85.4534015,20.1148758],[85.4533243,20.1147728],[85.4530438,20.1146697],[85.452503,20.1143567],[85.451569,20.1134674],[85.4511023,20.1128981],[85.4503405,20.1120922],[85.4495627,20.1111401],[85.4488492,20.110173],[85.4481411,20.1093418],[85.4479748,20.109241],[85.4472506,20.1091957],[85.4464352,20.1093569],[85.4457217,20.1089791],[85.4448098,20.1087423],[85.4437423,20.1085811],[85.4432219,20.1084854],[85.4426587,20.1085559],[85.4421759,20.1083041],[85.4417199,20.1077248],[85.4414248,20.1070044],[85.4409206,20.1068432],[85.4400623,20.1066971],[85.4391664,20.1064805],[85.4386997,20.1063495],[85.4382384,20.1063546]]}},{"type":"Feature","properties":{"id":746551638,"highway":"tertiary"},"geometry":{"type":"LineString","coordinates":[[85.4562436,20.1198408],[85.4561507,20.1198478],[85.4555773,20.1200073],[85.4550323,20.12022],[85.4546996,20.1204327],[85.4544519,20.120539],[85.4540201,20.1207451]]}},{"type":"Feature","properties":{"id":966258165,"highway":"tertiary"},"geometry":{"type":"LineString","coordinates":[[85.4568931,20.1886581],[85.4570246,20.189081],[85.4572311,20.1899646],[85.4572418,20.1902919],[85.4572038,20.1910697]]}},{"type":"Feature","properties":{"id":1155699836,"highway":"unclassified"},"geometry":{"type":"LineString","coordinates":[[85.4767692,20.1271868],[85.4778276,20.1262307],[85.478126,20.1257816],[85.4784197,20.1253394],[85.4802467,20.1250806]]}},{"type":"Feature","properties":{"id":1155699874,"highway":"unclassified"},"geometry":{"type":"LineString","coordinates":[[85.4793029,20.1289609],[85.4793485,20.1279845],[85.4793185,20.1279305],[85.478126,20.1257816]]}},{"type":"Feature","properties":{"id":1155699953,"highway":"unclassified"},"geometry":{"type":"LineString","coordinates":[[85.4793185,20.1279305],[85.4798078,20.1256173]]}},{"type":"Feature","properties":{"id":1155700465,"highway":"unclassified"},"geometry":{"type":"LineString","coordinates":[[85.478126,20.1257816],[85.4777052,20.1252244],[85.4775112,20.1235663],[85.4780216,20.1231638],[85.4789096,20.1230871],[85.4791342,20.1232788],[85.4795424,20.1233076],[85.4799405,20.1233172],[85.4804202,20.1232597],[85.4816961,20.1224642],[85.4827066,20.1214579],[85.4845643,20.1210649],[85.4857177,20.1208445],[85.4870242,20.1198957],[85.4891779,20.1184005],[85.4902496,20.1174325],[85.4903721,20.1173175],[85.4916174,20.1171258],[85.4916276,20.1143367],[85.4921785,20.1131205],[85.4922094,20.1130524],[85.4922385,20.1127136],[85.4922604,20.1124582],[85.4929341,20.1118639],[85.4932097,20.1104933],[85.4932913,20.1094582],[85.4932097,20.1072536],[85.4933832,20.1059213],[85.4930566,20.1043781],[85.4936792,20.102672],[85.4940954,20.1015872],[85.4941793,20.1013684],[85.4956567,20.1006794],[85.4972006,20.0999593],[85.4979579,20.1000017],[85.498058,20.1000073],[85.5004465,20.0986078],[85.5019265,20.0972754],[85.5028553,20.0966811],[85.5035188,20.0967865],[85.5041414,20.0971029]]}},{"type":"Feature","properties":{"id":1156477761,"highway":"unclassified"},"geometry":{"type":"LineString","coordinates":[[85.4965401,20.1359854],[85.4965722,20.1356561],[85.4965904,20.1351318],[85.4966632,20.134505],[85.4967846,20.133354],[85.4974522,20.1332001],[85.4980348,20.1331374],[85.4984172,20.1328924],[85.4994004,20.1322713],[85.5006081,20.1313026],[85.5015185,20.1306872],[85.501476,20.1300034],[85.5018948,20.1299521],[85.501828,20.1291771],[85.5046051,20.1291544]]}},{"type":"Feature","properties":{"id":1156575176,"highway":"unclassified"},"geometry":{"type":"LineString","coordinates":[[85.489135,20.1327517],[85.4884665,20.1354247],[85.4878439,20.1379738],[85.4874152,20.138798],[85.4872621,20.1397754],[85.4853125,20.142382],[85.4843428,20.1441069],[85.4834752,20.1454101],[85.4829547,20.146263],[85.4817503,20.1473075],[85.4812093,20.1474799],[85.48075,20.1481699],[85.4804335,20.1491664],[85.4811991,20.1511308],[85.4803723,20.1517824],[85.4785657,20.1534785],[85.4769938,20.155232],[85.4739215,20.1576179],[85.4719719,20.1596396],[85.4711758,20.1609906],[85.471288,20.1637789],[85.4708491,20.1647849],[85.4690119,20.1658868],[85.4670317,20.1666916],[85.4648066,20.1681767],[85.4638573,20.1686079]]}},{"type":"Feature","properties":{"id":1194683598,"highway":"unclassified"},"geometry":{"type":"LineString","coordinates":[[85.4934676,20.1136661],[85.4934011,20.1136173],[85.4933427,20.113564],[85.4933233,20.1135244],[85.4933087,20.1135046],[85.4932746,20.1134878],[85.4930815,20.1134299],[85.4929664,20.1133903],[85.4928236,20.113334],[85.492676,20.1132852],[85.4925462,20.1132395],[85.4924521,20.1131984],[85.492371,20.1131679],[85.4923337,20.1131466],[85.4922542,20.1131238],[85.4921785,20.1131205]]}},{"type":"Feature","properties":{"id":1194684017,"highway":"unclassified"},"geometry":{"type":"LineString","coordinates":[[85.4922385,20.1127136],[85.4921932,20.1127215],[85.4921441,20.1127338],[85.4920914,20.1127527],[85.4920144,20.1127834],[85.4918709,20.1128551],[85.4917382,20.1129169],[85.4916135,20.1129723],[85.4915062,20.1130163],[85.4914351,20.1130579],[85.4910551,20.1132885],[85.4908526,20.1134384],[85.4907198,20.113558],[85.4906219,20.1136613],[85.4904811,20.1138074],[85.4904288,20.1138766],[85.4903658,20.113956],[85.4902706,20.1140466]]}},{"type":"Feature","properties":{"id":1510888779,"highway":"unclassified"},"geometry":{"type":"LineString","coordinates":[[85.3886309,20.1653929],[85.3886443,20.1649422],[85.3887436,20.1644865],[85.3888643,20.164212],[85.3890333,20.1639603],[85.389103,20.1638016],[85.3890869,20.1636707],[85.3888375,20.1632704],[85.3887624,20.1629682],[85.3887624,20.1626183],[85.3888375,20.1624647],[85.3891218,20.1623488],[85.389457,20.1620643],[85.3895134,20.1619938],[85.3898782,20.1613669],[85.3900686,20.1608482],[85.3901142,20.1607802],[85.3901437,20.160609],[85.3900927,20.1603874],[85.3900927,20.160254],[85.3901678,20.1599544],[85.3901705,20.1597756],[85.3900659,20.159481],[85.3900686,20.1590555],[85.3901008,20.1589749],[85.3902456,20.1588641],[85.3908974,20.1586879],[85.3911334,20.1585519],[85.3912595,20.1584285],[85.3920937,20.1578998],[85.3922707,20.1578217],[85.3925604,20.1577713],[85.392791,20.1577915],[85.3929466,20.1578821],[85.393019,20.1579375],[85.3934991,20.1585091],[85.3936627,20.1585972],[85.3938854,20.1586098],[85.3952023,20.158562],[85.3953364,20.1585267],[85.3954062,20.1584738],[85.3955001,20.1582246],[85.3955966,20.1576706],[85.3958058,20.1572526],[85.3958568,20.1570411],[85.3958112,20.1563965],[85.3958541,20.1554901],[85.3958139,20.1553466],[85.3957039,20.1551552],[85.3956637,20.1550268],[85.3956342,20.1548077],[85.3957441,20.1542135],[85.3957736,20.1539214],[85.3957763,20.1530804],[85.3958443,20.1529034],[85.3958836,20.1528009],[85.3959319,20.1527279],[85.3960901,20.1526423],[85.3971818,20.1523502],[85.3977585,20.1520606],[85.3979167,20.1519322],[85.3979623,20.1518566],[85.3983352,20.1507814],[85.3989091,20.1499455],[85.3996655,20.1487091],[85.4001591,20.1477724],[85.4005077,20.1472864],[85.400674,20.1471051],[85.400784,20.1467752],[85.4010147,20.1465536],[85.4015297,20.1458964],[85.4023316,20.145282],[85.4024228,20.1451712],[85.4027393,20.1445593],[85.4028011,20.1439622],[85.4028225,20.143756],[85.4027903,20.1436477],[85.4023933,20.1430433],[85.4020017,20.1423156],[85.4017351,20.14147],[85.4015055,20.1407417],[85.4015136,20.1406234],[85.4016235,20.1403514],[85.401653,20.140228],[85.4016235,20.1399208],[85.4015726,20.1397471],[85.4015216,20.1396765],[85.4013795,20.139601],[85.4011944,20.1395582],[85.4010522,20.1395531],[85.4009852,20.1395003],[85.400615,20.1383922],[85.4004085,20.1371583],[85.4001805,20.1364331],[85.3993759,20.1343832],[85.3984773,20.1335446],[85.3982708,20.1330988],[85.3982359,20.1329729],[85.3981125,20.1327992],[85.3979677,20.1326732],[85.3978416,20.1326027],[85.3974044,20.132502],[85.3971308,20.132565],[85.396817,20.1325373],[85.3951138,20.131404],[85.3944916,20.1309557],[85.3943387,20.1308273],[85.3942314,20.1306812],[85.3941804,20.1305578],[85.3939497,20.1294472],[85.3935903,20.1281175],[85.3933597,20.1273545],[85.3932953,20.1269616],[85.3930914,20.1261028],[85.3925469,20.123398],[85.3925523,20.1231361],[85.3926516,20.1228036],[85.3927562,20.1226147],[85.3930244,20.1220153],[85.3931102,20.1218668],[85.3931183,20.1216149],[85.3931665,20.1214109],[85.3933006,20.1200962],[85.3932987,20.1199048],[85.393298,20.1198318],[85.3929209,20.1187192],[85.3927508,20.1182174],[85.392327,20.1170564],[85.3915733,20.1152178],[85.3914982,20.1149105],[85.3914821,20.1146511],[85.391466,20.1143086]]}},{"type":"Feature","properties":{"id":1527140086,"highway":"unclassified"},"geometry":{"type":"LineString","coordinates":[[85.4055637,20.1260247],[85.4052821,20.126191],[85.4047725,20.1267652],[85.4033643,20.12811],[85.4026508,20.1286288],[85.4023236,20.1288252],[85.4021198,20.1291073],[85.4016638,20.1301902],[85.4016262,20.1304521],[85.4013956,20.1307341],[85.4010254,20.1308953],[85.4007143,20.1310917],[85.4005909,20.1313688],[85.400548,20.1316861],[85.4005372,20.1317767],[85.400453,20.1318563]]}},{"type":"Feature","properties":{"id":1527140087,"highway":"unclassified"},"geometry":{"type":"LineString","coordinates":[[85.4074924,20.1135493],[85.407393,20.1147267],[85.4071677,20.1151599],[85.4068887,20.1154974],[85.4068083,20.1158751],[85.4068834,20.1161875],[85.4070067,20.1165955],[85.4076129,20.1177943],[85.4076505,20.1180411],[85.4077148,20.1191291],[85.4082298,20.1208367],[85.4084605,20.1215771],[85.4085195,20.1228918],[85.4085141,20.1233904],[85.4085517,20.12401],[85.4085463,20.1244633],[85.4085785,20.1246849],[85.4089064,20.1252961]]}},{"type":"Feature","properties":{"id":1527140088,"highway":"unclassified"},"geometry":{"type":"LineString","coordinates":[[85.3932987,20.1199048],[85.3950119,20.1206856],[85.3953767,20.1211591],[85.3961277,20.1212447],[85.3969699,20.1214109],[85.3974473,20.1215066],[85.398252,20.1213908],[85.3987026,20.1214462],[85.3990996,20.1214512],[85.3993678,20.1214714],[85.3994429,20.1215771],[85.3994751,20.1219952],[85.3994107,20.1229522],[85.3994322,20.1235516],[85.3995019,20.1241158],[85.3996307,20.1242669],[85.3998452,20.1243072],[85.4000062,20.1241863],[85.4004407,20.1238085],[85.4006982,20.1237279],[85.4009718,20.1237531],[85.4018408,20.1240452],[85.4022753,20.1250828],[85.4025489,20.125375],[85.4027796,20.1257679],[85.4030478,20.1258384],[85.4037023,20.1259039],[85.4042709,20.1260399],[85.4048717,20.1260852],[85.4055637,20.1260247],[85.4062825,20.1258938],[85.407114,20.1255009],[85.4074413,20.1254052],[85.407908,20.1253851],[85.4089064,20.1252961],[85.4092652,20.1252642],[85.4095817,20.1252642],[85.4098821,20.1254908],[85.4107994,20.1254102]]}},{"type":"Feature","properties":{"id":1527140090,"highway":"unclassified"},"geometry":{"type":"LineString","coordinates":[[85.3979677,20.1326732],[85.3980911,20.1325373],[85.39837,20.1322804],[85.3989869,20.1320537],[85.4001081,20.1317616],[85.4003119,20.1317818],[85.400453,20.1318563],[85.4005694,20.1319178],[85.4008859,20.1322703],[85.4012132,20.1324819],[85.4016316,20.1325272],[85.4018247,20.1326632],[85.4026508,20.1325776]]}}]}