{"type":"FeatureCollection","features":[{"type":"Feature","properties":{"id":746551632,"highway":"secondary"},"geometry":{"type":"LineString","coordinates":[[85.4382384,20.1063546],[85.4370689,20.1066871],[85.4360819,20.1067677],[85.4349875,20.106808],[85.434494,20.106949],[85.4339468,20.1070699],[85.4322517,20.107483],[85.4315543,20.1077046],[85.4296231,20.1083998],[85.4288721,20.1086315],[85.4284537,20.1086718],[85.427928,20.1086416],[85.427413,20.1086013],[85.4262221,20.1085005],[85.4248595,20.1081882],[85.4240441,20.1081076],[85.4230142,20.1080975],[85.422585,20.1081781],[85.4208469,20.1087323],[85.4184973,20.1095382],[85.4168129,20.1100218],[85.4144847,20.1106263],[85.4135406,20.1109487],[85.4128432,20.111261],[85.4112232,20.1121274],[85.4105151,20.11247],[85.409807,20.112873],[85.4090452,20.1134069],[85.4085839,20.1135983],[85.4081976,20.1136789],[85.4077041,20.1135883],[85.4074924,20.1135493],[85.4050219,20.1130946],[85.4005694,20.1123894],[85.399754,20.1123793],[85.3988957,20.1124297],[85.3982735,20.1125204],[85.3954305,20.1134575],[85.3952479,20.1135177],[85.3938317,20.1139409],[85.3927374,20.1142078],[85.3921795,20.1142733],[85.391466,20.1143086],[85.3913426,20.1138703],[85.3913426,20.1131349],[85.3913786,20.113014],[85.3915089,20.1125758],[85.3913447,20.1119108],[85.3913373,20.1118806],[85.3911817,20.1116942],[85.3905702,20.1111804],[85.3870672,20.1084703],[85.3837895,20.1058508],[85.3776419,20.1010853],[85.3764435,20.100082],[85.3753674,20.099181],[85.3735843,20.0978323],[85.3726637,20.0970752],[85.3723184,20.0968097],[85.3719931,20.0966515],[85.3718188,20.0965667],[85.3714205,20.0964734],[85.3711939,20.0964203],[85.3688824,20.0955811],[85.3687685,20.0955398],[85.3644776,20.093982],[85.3586905,20.0918856],[85.3568173,20.091207],[85.3563559,20.0910399],[85.355916,20.0909895],[85.3556846,20.0909995],[85.3552186,20.0910197],[85.3541737,20.0911587],[85.3520571,20.0914403],[85.3491201,20.091831],[85.347569,20.0920374],[85.3427082,20.0927319]]}},{"type":"Feature","properties":{"id":1510326296,"highway":"unclassified"},"geometry":{"type":"LineString","coordinates":[[85.3934535,20.1760428],[85.3937244,20.1766672],[85.3939363,20.1769214],[85.3940302,20.1771304],[85.3940731,20.1774098],[85.3940034,20.1778454],[85.3939363,20.1789909],[85.393998,20.1796908],[85.3940436,20.1797839],[85.3941321,20.1798217],[85.3962457,20.1798645],[85.3973401,20.1799199],[85.3982896,20.1799753],[85.399223,20.1800357],[85.3997433,20.1800646],[85.3998372,20.180086],[85.3999083,20.1801402],[85.3999525,20.1802195],[85.4001296,20.1808061],[85.4006499,20.1820145],[85.4010496,20.1829208],[85.4012212,20.183379],[85.4013258,20.1836534],[85.401409,20.1840134],[85.4017872,20.1860123],[85.4018944,20.1861583],[85.4021761,20.1864201],[85.4022834,20.186702],[85.4023182,20.1869865],[85.4022914,20.1872735],[85.402219,20.187631],[85.4019496,20.189135]]}}]}