{"type":"FeatureCollection","features":[{"type":"Feature","properties":{"id":866959596,"highway":"residential"},"geometry":{"type":"LineString","coordinates":[[85.9999906,20.1753739],[86.000079,20.1759359],[86.0001331,20.1762283],[86.0003328,20.176974],[86.0003704,20.1771301],[86.0003767,20.177164],[86.0003749,20.1771806],[86.0003704,20.1771955],[86.0003614,20.1772077],[86.0003489,20.1772157],[86.0002631,20.1772459],[86.0000378,20.1772963],[85.999803,20.1773516]]}},{"type":"Feature","properties":{"id":867180754,"highway":"residential"},"geometry":{"type":"LineString","coordinates":[[85.9979065,20.1802571],[85.9980606,20.1802809],[85.9982464,20.1802936],[85.9984468,20.1802723],[85.9986662,20.1802367],[85.998881,20.1802168],[85.9990776,20.1802108],[85.9991533,20.1802269],[85.9992185,20.180236],[85.9992876,20.1802359],[85.999474,20.1802184],[85.9996623,20.1801917],[86.0003493,20.1799004],[86.000505,20.1798344],[86.0006601,20.1797688],[86.0006971,20.1797536],[86.0007174,20.1797489],[86.000742,20.1797433],[86.0007873,20.1797396],[86.0008245,20.1797476],[86.0009885,20.1798464],[86.0011289,20.1799469],[86.0012524,20.1800672],[86.0015201,20.1804292],[86.0015883,20.1805102],[86.0016671,20.1805829],[86.00176,20.1806529]]}},{"type":"Feature","properties":{"id":867180762,"highway":"residential"},"geometry":{"type":"LineString","coordinates":[[86.0016693,20.1806701],[86.0015944,20.1805982],[86.0014968,20.1805328],[86.0014283,20.1805032],[86.0013535,20.1804839],[86.0012899,20.1804822],[86.0012262,20.1804878],[86.0011764,20.1804994],[86.0011375,20.1805139],[86.000595,20.1807199],[85.9999876,20.1810554]]}},{"type":"Feature","properties":{"id":867188074,"highway":"tertiary"},"geometry":{"type":"LineString","coordinates":[[85.995395,20.1803666],[85.9954315,20.1803516],[85.9955299,20.1803111],[85.9966194,20.1798464],[85.9968832,20.1797344],[85.9975602,20.1794539],[85.998135,20.1792468],[85.9988147,20.1789805],[85.9993279,20.1787704],[85.9996698,20.1786286],[86.0001092,20.1784463],[86.000252,20.1784038],[86.0003811,20.1783825],[86.0005767,20.1783332],[86.0007625,20.1782583],[86.0013035,20.1779017],[86.00203,20.1775384],[86.0021997,20.1774316],[86.0022834,20.1773816],[86.0023817,20.1773322]]}},{"type":"Feature","properties":{"id":867196034,"highway":"unclassified"},"geometry":{"type":"LineString","coordinates":[[85.9912877,20.1873435],[85.9912941,20.1873197],[85.9912992,20.1871241],[85.9912133,20.1868221],[85.9912026,20.1866761],[85.9911904,20.1865876],[85.9911783,20.1865412],[85.9911694,20.1865248],[85.9911546,20.1865107],[85.9911403,20.1865028],[85.9911255,20.1864978],[85.9909508,20.1864354],[85.9905431,20.1862873],[85.990501,20.186265],[85.990476,20.1862354],[85.9904576,20.186191],[85.9905075,20.1858465],[85.9905254,20.1857876],[85.9905437,20.1857579],[85.9905549,20.1857437],[85.9905691,20.1857302],[85.990585,20.1857249],[85.9905959,20.185723],[85.9906077,20.1857239],[85.9908592,20.1858141],[85.9911662,20.1859435],[85.9912684,20.1860017],[85.9919983,20.1865537],[85.9920776,20.1865843],[85.9921228,20.186596],[85.9921691,20.1866034],[85.9922112,20.1866014],[85.9922521,20.1865962],[85.992338,20.1865898],[85.9923972,20.186592],[85.9931843,20.1867477],[85.9936096,20.1869224],[85.9938159,20.187023],[85.9939875,20.1871195],[85.9942496,20.1872333],[85.995261,20.187403],[85.9953464,20.1874216],[85.9954245,20.1874425],[85.995538,20.187482],[85.9956467,20.1875329],[85.9959447,20.1877082],[85.9960827,20.1877393],[85.9962237,20.1877636],[85.9963761,20.1877819],[85.9964131,20.187793],[85.9964443,20.1878055],[85.9969282,20.1880727],[85.9974253,20.1883123],[85.9977275,20.1884275],[85.9978846,20.1884794],[85.9980418,20.1885254],[85.9981414,20.1885458],[85.9982409,20.1885558],[85.9983674,20.1885579],[85.998463,20.1885436],[85.9996777,20.1882616],[86.0007522,20.1879826],[86.0009596,20.1879287],[86.0018109,20.1876852],[86.001916,20.187628],[86.0020097,20.1875601],[86.0025141,20.1871628],[86.0026196,20.1871119],[86.0027433,20.1870674],[86.0028715,20.1870337],[86.0034705,20.1869294],[86.0042466,20.1868085],[86.0043947,20.1867915],[86.0045542,20.1867894],[86.0048504,20.1868108],[86.0049333,20.1868026],[86.0049897,20.1867971],[86.0051247,20.1867706],[86.0052881,20.1867239],[86.0062601,20.1865509],[86.0065871,20.1864834],[86.0066666,20.1864653],[86.006699,20.1864579],[86.0075967,20.1861883],[86.0077039,20.1861471],[86.007801,20.1860995],[86.0078605,20.1860588],[86.0079051,20.1860164],[86.0080128,20.1858855],[86.008044,20.1858219],[86.0080491,20.1857569],[86.0080243,20.185562],[86.0079691,20.1852904],[86.0079574,20.1852212],[86.0079627,20.1851103],[86.0079792,20.185064],[86.0080042,20.185016],[86.0080898,20.1849392],[86.0081703,20.1848806],[86.0082626,20.1848316],[86.0086691,20.1847126],[86.0087738,20.1846714],[86.0088716,20.1846222],[86.0089803,20.1845414],[86.0090614,20.1844574],[86.0091358,20.1843703],[86.0091998,20.1842803],[86.0092485,20.184184],[86.0092616,20.1840907],[86.0092646,20.1839927],[86.0092592,20.1837963],[86.0091949,20.1832879],[86.0091198,20.182286],[86.0091079,20.1821972],[86.0090869,20.1821063],[86.0090246,20.1819394],[86.0090004,20.1818871],[86.0089716,20.1818321],[86.0089409,20.1817869],[86.0089074,20.1817389],[86.0087652,20.1815734],[86.0087376,20.18154],[86.0082775,20.1809821],[86.0080097,20.1806808],[86.0079795,20.1806468],[86.0079029,20.1805527],[86.0076262,20.180177],[86.0074692,20.180039],[86.0073085,20.1799135],[86.007136,20.1797849],[86.0070651,20.1797378],[86.0069888,20.179697],[86.0059831,20.1791582],[86.0053558,20.1788889],[86.0052363,20.1788419],[86.0051253,20.178787],[86.0050139,20.1787223],[86.0049141,20.1786358],[86.0048497,20.1785603],[86.004798,20.1784769],[86.0047088,20.1782876],[86.0046695,20.1781675],[86.0046459,20.1780466],[86.0045411,20.1772792],[86.0044688,20.1769085],[86.0044543,20.1767854],[86.0044203,20.1765533],[86.0043952,20.176434]]}},{"type":"Feature","properties":{"id":867212835,"highway":"residential"},"geometry":{"type":"LineString","coordinates":[[85.9985054,20.1889078],[85.9986335,20.1891049],[85.9986536,20.1891344],[85.9986675,20.1891491],[85.9986738,20.1891534],[85.9986864,20.1891622],[85.9995711,20.1894904],[85.9998858,20.1896074],[86.0009742,20.1899982],[86.0038197,20.1910611],[86.0040943,20.1911464],[86.0041905,20.1911857],[86.0048014,20.1913884],[86.0051394,20.1914588],[86.0054827,20.1915041],[86.0056651,20.1915041],[86.0059668,20.1914864],[86.0061693,20.1914662],[86.0063624,20.1914272],[86.0066374,20.191358],[86.0068426,20.19129],[86.0070518,20.1912057],[86.0073013,20.1910863],[86.0074528,20.1909955],[86.0075588,20.1909201],[86.0078002,20.1907339],[86.0080362,20.1905073],[86.0081383,20.1904026],[86.0089227,20.1895977],[86.0091788,20.1892889],[86.0105789,20.1878189],[86.0113,20.1870328],[86.0113449,20.1869783],[86.01194,20.1863347]]}},{"type":"Feature","properties":{"id":867605777,"highway":"unclassified"},"geometry":{"type":"LineString","coordinates":[[86.0037228,20.1205976],[86.0037244,20.1205819],[86.0038197,20.1199538],[86.0037929,20.119027],[86.0037178,20.1182059],[86.0036856,20.1180548],[86.0030687,20.1180045],[86.0026342,20.1179692],[86.0022446,20.1179186],[86.0021997,20.1179138],[86.0012287,20.1178282],[86.0011638,20.117821],[86.000365,20.1177275],[86.0000861,20.1177224],[85.9998252,20.1177284],[85.9996247,20.1176922],[85.999319,20.117662],[85.9991614,20.117636],[85.998853,20.1176344],[85.9986699,20.1175713],[85.9981871,20.1173295],[85.9978893,20.1171646]]}},{"type":"Feature","properties":{"id":867605778,"highway":"residential"},"geometry":{"type":"LineString","coordinates":[[85.9987192,20.1208637],[85.9991325,20.1209332],[85.9994632,20.1209889],[85.9999573,20.1210721],[86.0001665,20.1211527],[86.0005099,20.1213441],[86.0009712,20.1214398],[86.001218,20.1214902],[86.0012683,20.1214972],[86.001287,20.1214921],[86.0013018,20.1214802],[86.0013138,20.1214625],[86.001393,20.1212397],[86.0014104,20.1211893],[86.0014111,20.1211515],[86.001393,20.121064],[86.0013923,20.1210218],[86.0013943,20.1209878],[86.0014091,20.1209626],[86.0014278,20.1209519],[86.0014587,20.1209469],[86.0015264,20.1209292],[86.001562,20.1209135],[86.0015868,20.1208902],[86.0016022,20.12086]]}},{"type":"Feature","properties":{"id":867605783,"highway":"unclassified"},"geometry":{"type":"LineString","coordinates":[[86.0070773,20.1287159],[86.0066636,20.1287445],[86.0062488,20.1287691],[86.0059587,20.1287712],[86.0059059,20.1287614],[86.0058762,20.1287435],[86.0058528,20.1287184],[86.0058342,20.1286906],[86.0058206,20.128658],[86.0057609,20.1283203],[86.0057483,20.1283017],[86.0057245,20.1282879],[86.0057012,20.1282825],[86.0056805,20.1282808],[86.0054076,20.1283198],[86.0053414,20.1283118],[86.0052361,20.1282792],[86.0051501,20.1282651],[86.00477,20.1282512],[86.0047479,20.1282544],[86.0047302,20.1282596],[86.0047134,20.1282698],[86.004701,20.128281],[86.0046845,20.1283166],[86.0046638,20.1284118],[86.0046405,20.1287587],[86.0046311,20.1288842],[86.0046083,20.1292322],[86.0046228,20.1296013],[86.0046137,20.1296453],[86.0045922,20.1296805],[86.0045712,20.1297011],[86.0045455,20.1297162],[86.0045099,20.1297259],[86.0044743,20.1297279],[86.0044048,20.129732],[86.0043363,20.1297264],[86.0042841,20.1297192],[86.0041775,20.1296961],[86.0041052,20.1296777],[86.0040633,20.1296599],[86.0040209,20.1296394],[86.0039844,20.1296166],[86.0038062,20.1294649],[86.0037782,20.1294495],[86.0037405,20.1294392],[86.0037059,20.1294378],[86.0036752,20.1294394],[86.0027978,20.1295347],[86.002771,20.1295302],[86.0027468,20.1295244],[86.002739,20.1295116],[86.0027322,20.1295025],[86.0026581,20.1293917],[86.0026457,20.1293822],[86.0026257,20.1293747],[86.0025922,20.1293709],[86.0025609,20.1293742],[86.0023239,20.1294723],[86.0022632,20.129493],[86.0022249,20.1295006],[86.0019315,20.1295445],[86.0018982,20.1295561],[86.0018697,20.1295693],[86.001842,20.1295858],[86.0018183,20.1296032],[86.0017629,20.1296561],[86.0017511,20.1296612],[86.0017389,20.1296623],[86.0017284,20.1296588],[86.0017195,20.1296516],[86.0017137,20.1296404],[86.0017125,20.1296289],[86.0017117,20.1295272],[86.0016847,20.126623],[86.0016311,20.1264265],[86.0015238,20.1262553],[86.0014272,20.1261344],[86.0012126,20.1259336],[86.0011767,20.1258757],[86.0011575,20.1258106],[86.0011375,20.1256861],[86.0010571,20.1246837],[86.0010435,20.1246313],[86.0009813,20.124422],[86.0008962,20.1242407],[86.0008416,20.1241539],[86.0007674,20.1240694],[86.0006982,20.1240069],[86.0006119,20.1239535],[86.0001315,20.1237184],[85.998627,20.1229862],[85.9985145,20.1229493],[85.9984494,20.1229316],[85.9983857,20.1229227],[85.9983342,20.1229261],[85.9982881,20.1229334],[85.9982389,20.1229434],[85.9981979,20.122956],[85.9976024,20.1232583],[85.9975451,20.1232878],[85.9975126,20.1232993],[85.997479,20.1233036],[85.9974002,20.1233047],[85.9973235,20.1232986],[85.9970821,20.1232482],[85.9970087,20.1232441],[85.9969265,20.1232482],[85.9968557,20.1232691],[85.9967848,20.1232932],[85.9966475,20.1233238],[85.9961694,20.1233883],[85.9952369,20.1235646],[85.9944628,20.1237414],[85.9944527,20.1237408],[85.9944431,20.1237381],[85.9944361,20.1237306],[85.994432,20.1237209],[85.9943742,20.1235252],[85.9943604,20.1235043],[85.9943407,20.1234847],[85.9943189,20.1234726],[85.9942926,20.1234647],[85.9942554,20.1234713],[85.994068,20.1235401],[85.9940057,20.1235512],[85.9939492,20.1235554],[85.9935201,20.1235503],[85.9933903,20.1235622],[85.9932679,20.1235755],[85.993069,20.1236048],[85.99287,20.1236443],[85.992474,20.1237216],[85.9923667,20.1237556],[85.9922648,20.1237921],[85.9919751,20.1239332],[85.9918544,20.1239811],[85.9917337,20.1240188],[85.9916559,20.1240384],[85.9915781,20.1240541],[85.9914346,20.1240737],[85.9912884,20.1240843],[85.9911556,20.1240882],[85.9909951,20.1240901],[85.9908148,20.124078],[85.990594,20.1240296],[85.9903696,20.1239519],[85.9902003,20.1238763]]}},{"type":"Feature","properties":{"id":868954318,"highway":"unclassified"},"geometry":{"type":"LineString","coordinates":[[85.9723065,20.1896909],[85.9723359,20.1896665],[85.9740196,20.1885579],[85.9743315,20.1883525],[85.9760751,20.187159],[85.9764129,20.1869278],[85.9765985,20.1868227],[85.9784929,20.1857496],[85.9785104,20.1857397],[85.9791648,20.1853319],[85.9804523,20.1845717],[85.9807883,20.1844072],[85.9813767,20.1841985],[85.9837299,20.1835597],[85.985006,20.1832026],[85.9855951,20.1830616],[85.9856967,20.1830495],[85.9857761,20.1830379],[85.9858643,20.1830304],[85.986439,20.1830462],[85.9870934,20.1831318],[85.9896737,20.1833835],[85.9900653,20.1834439],[85.9905599,20.1834914],[85.9910496,20.1834999],[85.9911145,20.1834994],[85.9911785,20.1834949],[85.9913581,20.1834812],[85.9915376,20.1834561],[85.99249,20.183303],[85.9930586,20.1831821],[85.9933966,20.1830714],[85.9938258,20.1828549],[85.9940833,20.1826535],[85.9944534,20.1822105],[85.9948557,20.1815308],[85.995102,20.1805902],[85.9951161,20.1804813],[85.9952395,20.1799576],[85.9953901,20.179314],[85.9955893,20.1785073],[85.9957886,20.177731],[85.9959878,20.1768568],[85.996146,20.1762325],[85.9978881,20.1691619],[85.9981227,20.1681966],[85.9983147,20.1676348],[85.9983806,20.1674786],[85.9984656,20.1673268],[85.9986591,20.1670232],[85.9987218,20.1669343],[85.9988022,20.1668454],[85.9989595,20.1666808],[86.0009578,20.1651403],[86.0025625,20.1639436],[86.0026127,20.1639061],[86.0048068,20.1622392],[86.0051823,20.1618767],[86.0053919,20.1616021],[86.0070622,20.1593541],[86.0072046,20.1591624],[86.0075104,20.1587746],[86.0077105,20.1584935],[86.0078698,20.1582962],[86.0083258,20.1576667],[86.0086262,20.157289],[86.0097615,20.1557555],[86.0099543,20.1554801],[86.0100205,20.1553842],[86.0100742,20.155324],[86.0101993,20.155153],[86.0102861,20.1550253],[86.0103698,20.1548906],[86.0104392,20.154757],[86.0104844,20.154597],[86.0104906,20.1545751],[86.0105886,20.1542933],[86.0106128,20.1541485],[86.0106233,20.1540857],[86.0106401,20.1539498],[86.0106389,20.1537612],[86.0106293,20.153448],[86.0106219,20.1533579],[86.010609,20.1531157],[86.0105829,20.1529288],[86.0105635,20.1527901],[86.0105097,20.1525353],[86.0104416,20.1520705],[86.0103806,20.1515776],[86.0103196,20.1511667],[86.0102686,20.1508182],[86.0102586,20.1507502],[86.0102084,20.150355],[86.0101462,20.1498633],[86.01009,20.1492761],[86.0100683,20.1490858],[86.0100134,20.1486037],[86.0099309,20.147884],[86.009919,20.1478234],[86.0098663,20.1476729],[86.0097838,20.1474529],[86.0096296,20.147179],[86.0095303,20.1470229],[86.0093641,20.1468163],[86.0092481,20.1466782],[86.0090711,20.1465177],[86.0088666,20.1463728],[86.0083559,20.146036],[86.0079195,20.145761],[86.0075057,20.1455241],[86.0069998,20.1452165],[86.0068828,20.1451341],[86.0065741,20.1449167],[86.0063887,20.1447685],[86.00625,20.1446506],[86.0060563,20.1444564],[86.0058111,20.1441723],[86.005542,20.1438187],[86.0052969,20.143465],[86.0051636,20.1432823],[86.0046511,20.1424989],[86.0045808,20.1423125],[86.0045654,20.1422986],[86.0045426,20.1422948],[86.004452,20.1423313],[86.0034533,20.1427883],[86.0026934,20.1430632],[86.0019529,20.143355],[86.0018443,20.1433819],[86.001732,20.1433951],[86.0009644,20.1434474],[85.9985361,20.1436339],[85.9975326,20.1436874],[85.9948396,20.1439039],[85.9942227,20.1440097],[85.9941638,20.1440224],[85.9941104,20.1440385],[85.9940693,20.1440638],[85.9940373,20.1440891],[85.9937882,20.1444383],[85.9937333,20.1444931],[85.9936595,20.1445391],[85.9931438,20.1446471],[85.9930534,20.1446704],[85.9929312,20.1446974],[85.9928678,20.1447099],[85.992816,20.1447215],[85.9925866,20.1447758],[85.9925336,20.1447826],[85.9924806,20.1447819],[85.9924491,20.1447727],[85.9923384,20.1447081],[85.9923067,20.1446827],[85.9922819,20.1446683],[85.992248,20.1446581]]}}]}