{"type":"FeatureCollection","features":[{"type":"Feature","properties":{"id":296217384,"highway":"primary"},"geometry":{"type":"LineString","coordinates":[[85.4944347,20.2220657],[85.4941494,20.2221777],[85.4911884,20.2232196],[85.4885585,20.2246637],[85.4835618,20.2270217],[85.4821787,20.2277712],[85.4799751,20.2287947],[85.4778151,20.2300652],[85.4749842,20.2305334],[85.4747416,20.2305898],[85.4745814,20.2306476],[85.4744465,20.2307106],[85.4743001,20.2307858],[85.4696617,20.2335239],[85.469106,20.2338227],[85.4685716,20.2340618],[85.4677399,20.2344271],[85.4666392,20.2349186],[85.4624095,20.2366416],[85.4619066,20.2368075],[85.4613514,20.236971],[85.4572101,20.2382548],[85.4571135,20.2382847],[85.4563276,20.2385565],[85.4542243,20.2391677],[85.4521058,20.2398047],[85.4506809,20.2402625],[85.4481217,20.2411695],[85.4477948,20.241279],[85.4474119,20.2413535],[85.4469075,20.2414455],[85.4460576,20.2416339],[85.4457494,20.2417303],[85.4453851,20.2418749],[85.4450489,20.2420371],[85.4448107,20.2421597],[85.4446052,20.2422561],[85.4444091,20.2423262],[85.4441382,20.2423438],[85.4437553,20.2423262],[85.4434844,20.2423219],[85.4431809,20.2423657],[85.4430034,20.2423963],[85.4428073,20.2424752],[85.4425924,20.2426505],[85.4424337,20.2428345],[85.4422235,20.2431368],[85.4420601,20.2433515],[85.4418919,20.2436056],[85.4416211,20.2438335],[85.4411728,20.2441402],[85.440547,20.2445039],[85.4397017,20.2449946],[85.4388798,20.2454021],[85.4382167,20.2457613],[85.437703,20.2460242],[85.4370585,20.2463003],[85.4361619,20.2466464],[85.4350737,20.247032],[85.4341911,20.247365],[85.4335607,20.2475577],[85.4329115,20.2477724],[85.4324352,20.2478863],[85.4318701,20.2479521],[85.431291,20.2480397],[85.4309034,20.2481317],[85.4296332,20.2484033],[85.4287692,20.2486224],[85.4278212,20.2488809],[85.4275037,20.2489948],[85.4270974,20.2491482],[85.4267425,20.2492402],[85.4264016,20.249284],[85.4255937,20.2493497],[85.424725,20.2494461],[85.4241553,20.2495118],[85.4238331,20.2495732],[85.4234735,20.249652],[85.4229831,20.2498185],[85.4223247,20.2500858],[85.4217736,20.2503399],[85.4213813,20.2506378],[85.4211151,20.250892],[85.4203539,20.2517682],[85.4198776,20.2523466],[85.4196254,20.2526532],[85.4183645,20.2537792],[85.4172577,20.2547431],[85.4165712,20.255317],[85.4160949,20.2556982],[85.4155065,20.25611],[85.41482,20.2565613],[85.4137599,20.2571747],[85.4124616,20.2578888],[85.4116257,20.2583488],[85.4111914,20.258581],[85.4109952,20.2587124],[85.4108131,20.258857],[85.410631,20.2590323],[85.4104208,20.259225],[85.4099632,20.2595799],[85.4086743,20.2605306],[85.4078944,20.2610651],[85.407376,20.2614418],[85.4068903,20.2617617],[85.4061384,20.2623487],[85.4053352,20.2630935],[85.4046674,20.263628],[85.4042891,20.2639478],[85.4036307,20.2644428],[85.4031029,20.2647801],[85.4024118,20.2652007],[85.4012069,20.2659937],[85.4007212,20.2663397],[85.4001889,20.2667121],[85.3996331,20.2670144],[85.3990821,20.2673386],[85.3985544,20.2675795],[85.3979519,20.2678555],[85.3973775,20.2680965],[85.3967284,20.2683988],[85.3960793,20.2687142],[85.395262,20.2692048],[85.3946082,20.2695903],[85.3939965,20.2699058],[85.3934267,20.2701379],[85.3932215,20.2702348],[85.3927215,20.2704709],[85.391965,20.2708082],[85.391428,20.2710228],[85.3905126,20.2714522],[85.3898962,20.2717019],[85.3895973,20.2718508],[85.3893732,20.2720786],[85.3892284,20.2723896],[85.3890322,20.2728628],[85.3887707,20.2734804],[85.3886166,20.2738265],[85.3883801,20.2742322],[85.3881543,20.2746194],[85.3874398,20.2754912],[85.3867673,20.2762578],[85.385894,20.2772609],[85.3847312,20.2786452],[85.3842735,20.2792278],[85.38404,20.2795607],[85.3837878,20.2801521],[85.3836393,20.2807094],[85.383615,20.2808004],[85.3834936,20.2815845],[85.3834507,20.2819241],[85.3834002,20.2823248],[85.3832975,20.2830607],[85.3832228,20.2832307],[85.3831107,20.2834856],[85.3828912,20.2838667],[85.3826577,20.2841646],[85.3822654,20.28455],[85.3818311,20.2849224],[85.3813408,20.2853341],[85.3806449,20.2859386],[85.3801597,20.2862716],[85.3800705,20.2863328],[85.3797296,20.2866],[85.3794914,20.2868497],[85.3793093,20.2871125],[85.3791038,20.2874192],[85.3790512,20.2874768],[85.3789077,20.2876338],[85.3786695,20.2878528],[85.3783099,20.2880718],[85.378114,20.288143],[85.3779363,20.2882076],[85.3776312,20.2883066],[85.3775581,20.2883303],[85.3771845,20.2884441],[85.3770411,20.2884916],[85.3769463,20.288523],[85.3767735,20.2886413],[85.376554,20.288834],[85.3763579,20.2890311],[85.3761664,20.2891581],[85.3758955,20.2893114],[85.375153,20.2896268],[85.3740883,20.2900867],[85.3732897,20.290424],[85.37305,20.2905302],[85.3727853,20.2906474],[85.3725852,20.2907151],[85.3725005,20.2907438],[85.3709033,20.2912957],[85.3697954,20.2916192],[85.3697031,20.2916461],[85.3691876,20.2918227],[85.3674148,20.2924301],[85.3669721,20.2925892],[85.3661352,20.29289],[85.3647623,20.2933456],[85.3636368,20.2938011],[85.3632679,20.2939325],[85.3629783,20.2940026],[85.3625347,20.2940376],[85.3621004,20.294042],[85.3617968,20.2940552],[85.3615353,20.2939588],[85.3612177,20.29388],[85.3607834,20.2937967],[85.3603351,20.2937398],[85.3593871,20.2937486],[85.3585932,20.2937967],[85.3578086,20.2938975],[85.3568933,20.2940814],[85.3556091,20.2943793],[85.3547078,20.2945939],[85.3536523,20.2948392],[85.3529051,20.295067],[85.3513454,20.2955619],[85.3507056,20.2957546],[85.3499911,20.295886],[85.3493186,20.2959693],[85.3479269,20.2961269],[85.3461944,20.296324],[85.3438267,20.2966525],[85.3426171,20.2968102],[85.339675,20.2972789],[85.337793,20.2975855],[85.3365555,20.2977694],[85.3353133,20.2978877],[85.3339683,20.298041],[85.3327541,20.298168],[85.3325066,20.2982074],[85.3322964,20.2982863],[85.3318014,20.2985359],[85.3313251,20.2987725],[85.3293964,20.299758],[85.32885,20.3000164],[85.3286258,20.3001127],[85.3283083,20.3001171],[85.3279067,20.3000383],[85.3273649,20.2998762],[85.3269913,20.2997623]]}},{"type":"Feature","properties":{"id":884523102,"highway":"unclassified"},"geometry":{"type":"LineString","coordinates":[[85.3943899,20.1884193],[85.395054,20.1915667],[85.395162,20.1920886],[85.3961941,20.1966079],[85.397414,20.2095662],[85.3977753,20.2134034],[85.3978872,20.2145924],[85.3976699,20.2194995],[85.3975363,20.2223776],[85.3974505,20.2237467],[85.3978367,20.2268877],[85.398072,20.2277036],[85.3983303,20.2285992],[85.3994474,20.2309461],[85.4000417,20.2321945],[85.4007431,20.2337301],[85.4013264,20.2352184],[85.4016234,20.2358734],[85.4017274,20.2364168],[85.4017125,20.2371693],[85.4016234,20.2376431],[85.40146,20.2384931],[85.4009551,20.2393013],[85.4000937,20.2405136],[85.3999289,20.2407762],[85.399419,20.2415814],[85.3983161,20.2435736],[85.398059,20.2440948],[85.3973758,20.245098],[85.3972148,20.245377],[85.3971234,20.2456554],[85.39696,20.2468398],[85.3967669,20.2478988],[85.3965293,20.2489438],[85.3963517,20.2495066],[85.3948065,20.2529567],[85.3943439,20.2539864],[85.3942183,20.2543565],[85.3941902,20.2548516],[85.3942318,20.2558431],[85.3942881,20.2573561],[85.394055,20.2584454],[85.3937391,20.2593054],[85.3934476,20.2602437],[85.3933794,20.2605148],[85.3930853,20.2616419],[85.3928684,20.2627794],[85.3927102,20.2639872],[85.3926415,20.264551],[85.392578,20.2650442],[85.3925229,20.2653492],[85.392469,20.2661851],[85.3922974,20.2667919],[85.3922359,20.2670221],[85.3921951,20.2672123],[85.3921784,20.2678381],[85.3922075,20.2680621],[85.3922892,20.2682966],[85.3926234,20.2687822],[85.392809,20.2691883],[85.3930466,20.2698013],[85.3932215,20.2702348]]}},{"type":"Feature","properties":{"id":1214468317,"highway":"unclassified"},"geometry":{"type":"LineString","coordinates":[[85.4074828,20.2925864],[85.4065186,20.2921336],[85.4060465,20.2919059],[85.4054014,20.2916229],[85.4053116,20.2915612],[85.4052848,20.2915009],[85.4052687,20.2912543],[85.4052714,20.2910593],[85.4052526,20.2909977],[85.4052244,20.2909612],[85.4051211,20.2909071],[85.4046866,20.2908078],[85.4040523,20.2906996],[85.4031095,20.2905499],[85.4025985,20.2904367],[85.402384,20.2904015],[85.4021023,20.2904103],[85.4017623,20.2904322],[85.4016906,20.2904505],[85.4016101,20.2904858],[85.4015779,20.2905273],[85.4015377,20.2906354],[85.4014747,20.2907562],[85.4013661,20.2908757],[85.4012293,20.2909826],[85.4010764,20.2910531],[85.4009195,20.2910946],[85.4007129,20.2910845],[85.4005104,20.2910405],[85.4000625,20.2909801],[85.3996722,20.2909298],[85.3993919,20.2908971],[85.3991412,20.2908593],[85.3990111,20.2908329],[85.3986691,20.2906845],[85.3985055,20.2905939],[85.3983995,20.2904996],[85.3982426,20.290331],[85.3981327,20.2902392],[85.3978577,20.2901096],[85.3976981,20.2900631],[85.3975976,20.2900631],[85.3975131,20.2900933],[85.3973401,20.2901675],[85.3972529,20.2901901],[85.3970987,20.290204],[85.3964496,20.2901436],[85.3963262,20.2901184],[85.3962068,20.2900732],[85.3959721,20.2899222],[85.3958125,20.2897989],[85.395657,20.289721],[85.3953633,20.2896077],[85.3951104,20.2894963],[85.3950159,20.2894379],[85.3948832,20.2893247],[85.3947584,20.2891838],[85.3946029,20.288965],[85.3944875,20.2888455],[85.3942944,20.2886455],[85.394218,20.2885423],[85.3941469,20.2884215],[85.3940061,20.2880832],[85.3939135,20.2879385],[85.3936024,20.2875876],[85.3934522,20.2873435],[85.3931397,20.2869146],[85.3929238,20.2865749],[85.3927602,20.2863573],[85.3926475,20.2861711],[85.3925456,20.285985],[85.3924397,20.2857837],[85.3923284,20.2855938],[85.3922304,20.2854038],[85.39216,20.2852898],[85.3919917,20.2851522],[85.3917812,20.2850214],[85.3915411,20.2849346],[85.3911804,20.284844],[85.390943,20.2848013],[85.3904401,20.2848201],[85.3899667,20.2847837],[85.3894088,20.2847044],[85.3891607,20.284639],[85.3890319,20.2845761],[85.3887838,20.2844465],[85.3883627,20.2841949],[85.3882286,20.284122],[85.38812,20.2840918],[85.3880435,20.284083],[85.3879429,20.2840943],[85.3877994,20.2841371],[85.3876975,20.2841673],[85.3875782,20.2841836],[85.3874722,20.2841937],[85.3872998,20.2842332],[85.3872241,20.2842805],[85.3871174,20.2843741],[85.3870632,20.2844667],[85.3870162,20.2846478],[85.3869672,20.2848269],[85.3869317,20.2848742],[85.3868633,20.2848981],[85.3867722,20.2849044],[85.3866776,20.2848672],[85.3865595,20.2847464],[85.3863664,20.2845552],[85.3860553,20.2843338],[85.3857656,20.2840923],[85.3856992,20.2840357],[85.3850575,20.2834885],[85.3840524,20.2825099],[85.3834507,20.2819241]]}}]}