{"type":"FeatureCollection","features":[{"type":"Feature","properties":{"id":296217385,"highway":"primary"},"geometry":{"type":"LineString","coordinates":[[85.4799751,20.2287947],[85.4813112,20.2308045],[85.4847966,20.2356892],[85.4860291,20.2372991],[85.4870654,20.2382867],[85.4909571,20.242424],[85.4919701,20.2431459],[85.4953987,20.2452843],[85.4965994,20.2462371],[85.4970645,20.2466061],[85.4972463,20.2466986],[85.4974219,20.2467275],[85.4976592,20.2467188],[85.4980474,20.2466407],[85.4989717,20.2464528],[85.4994585,20.2463979],[85.4997296,20.246395],[85.5000593,20.2464413],[85.5003736,20.246528],[85.5007645,20.246651],[85.5012424,20.246924],[85.5016461,20.2472825],[85.5020197,20.2476394],[85.5028384,20.2483694],[85.5033886,20.2488628],[85.5055756,20.250804],[85.5061495,20.2513677],[85.5067235,20.2520924],[85.5074907,20.2529769],[85.5078792,20.2534247],[85.5105928,20.2555312],[85.5135417,20.2584789],[85.5141211,20.2594049],[85.5152988,20.2616474]]}},{"type":"Feature","properties":{"id":563853107,"highway":"unclassified"},"geometry":{"type":"LineString","coordinates":[[85.5835766,20.2557404],[85.5827773,20.2565858],[85.5821443,20.2574515],[85.5816936,20.2580352],[85.5814844,20.2584127],[85.5812946,20.2585701],[85.5811588,20.2586827],[85.58115,20.25869],[85.5806369,20.2591021],[85.579741,20.2599526],[85.5794889,20.2602294],[85.5792099,20.261095],[85.5787754,20.2622626],[85.5783516,20.2633445],[85.5781907,20.2640138],[85.5777937,20.2649599],[85.5775201,20.2658808],[85.577268,20.266847],[85.5772578,20.2669577],[85.577209,20.2674861],[85.57715,20.2681102],[85.5770588,20.2696601],[85.577032,20.270898],[85.5770373,20.2721812],[85.5769998,20.2727599],[85.5769193,20.2732228],[85.5768496,20.2737009],[85.5767155,20.2739525],[85.5766189,20.27434],[85.5758518,20.2749992],[85.5754602,20.2752961],[85.5749398,20.2760811],[85.5744678,20.2768258],[85.5742049,20.277022]]}},{"type":"Feature","properties":{"id":563853197,"highway":"unclassified"},"geometry":{"type":"LineString","coordinates":[[85.5812946,20.2585701],[85.5809894,20.2585824],[85.580923,20.2583482],[85.5809212,20.2581208],[85.5810016,20.2578943],[85.5810928,20.2576427],[85.5810392,20.2572501],[85.5809104,20.2568979],[85.5806959,20.2564097],[85.5805778,20.2560977]]}},{"type":"Feature","properties":{"id":563853297,"highway":"unclassified"},"geometry":{"type":"LineString","coordinates":[[85.5816936,20.2580352],[85.5824447,20.2580101],[85.5833298,20.2579245],[85.5840594,20.2578239],[85.5852932,20.2576578],[85.5858511,20.2576226],[85.5863929,20.2576377],[85.586983,20.2577534],[85.5877662,20.2578037],[85.588485,20.2578994],[85.5887455,20.2578951],[85.5893969,20.2578843],[85.5899602,20.2579597],[85.5909795,20.2579446],[85.5914462,20.2580201],[85.5920309,20.2583171],[85.5924708,20.2584831],[85.593211,20.2585989],[85.5940854,20.258765],[85.5946112,20.2588002]]}},{"type":"Feature","properties":{"id":563853535,"highway":"unclassified"},"geometry":{"type":"LineString","coordinates":[[85.5833298,20.2579245],[85.5835766,20.2582214],[85.5838662,20.2584982],[85.5844831,20.2585737],[85.5854058,20.258765],[85.5854219,20.2585586],[85.5853361,20.2582567],[85.5853736,20.2580201],[85.5852932,20.2576578]]}},{"type":"Feature","properties":{"id":563857455,"highway":"unclassified"},"geometry":{"type":"LineString","coordinates":[[85.5629996,20.2042443],[85.5629128,20.2038953],[85.5628699,20.2036184],[85.5625427,20.2035831],[85.5621564,20.2035227],[85.5616093,20.2035026],[85.5608153,20.203276],[85.5604452,20.2031502],[85.5599517,20.2032408],[85.5594581,20.2035278],[85.5592596,20.2037694],[85.5593562,20.2040614],[85.5595225,20.2048669],[85.5597768,20.2055156]]}},{"type":"Feature","properties":{"id":563857601,"highway":"unclassified"},"geometry":{"type":"LineString","coordinates":[[85.5595225,20.2048669],[85.5599382,20.2047586],[85.5602655,20.2045774],[85.5608019,20.204376],[85.5614269,20.2041596],[85.5616468,20.2041092],[85.5619392,20.2043106],[85.5620062,20.2045976],[85.5621224,20.2046593]]}},{"type":"Feature","properties":{"id":563857602,"highway":"unclassified"},"geometry":{"type":"LineString","coordinates":[[85.5627178,20.2043776],[85.56264,20.20432],[85.5625749,20.2042477],[85.5625588,20.2039028],[85.5625427,20.2037115]]}},{"type":"Feature","properties":{"id":563857603,"highway":"unclassified"},"geometry":{"type":"LineString","coordinates":[[85.5619392,20.2043106],[85.5622503,20.2042905],[85.5625749,20.2042477]]}},{"type":"Feature","properties":{"id":563857671,"highway":"unclassified"},"geometry":{"type":"LineString","coordinates":[[85.5616468,20.2041092],[85.5615717,20.2036964],[85.5616093,20.2035026],[85.5615208,20.2033943],[85.5615154,20.2030117],[85.5615181,20.2026845],[85.5616334,20.2023321],[85.5616227,20.2022314]]}},{"type":"Feature","properties":{"id":563857672,"highway":"unclassified"},"geometry":{"type":"LineString","coordinates":[[85.5615717,20.2036964],[85.5609924,20.2036788],[85.5606168,20.2036184],[85.560016,20.20385],[85.5593562,20.2040614]]}},{"type":"Feature","properties":{"id":563992248,"highway":"unclassified"},"geometry":{"type":"LineString","coordinates":[[85.5683577,20.2807809],[85.5684663,20.2811331],[85.568583,20.2813306],[85.5687064,20.2815696],[85.5688646,20.2817218],[85.569102,20.2818766],[85.5692804,20.2819558],[85.5697015,20.2816916],[85.5701414,20.2816212],[85.570474,20.281674],[85.5707529,20.2817218],[85.5710533,20.2817973],[85.5715147,20.2817898],[85.5718392,20.2818048],[85.5721262,20.2817067],[85.5725527,20.2817017],[85.5728692,20.2817445],[85.5732715,20.2817747],[85.5735826,20.2817872]]}},{"type":"Feature","properties":{"id":563992275,"highway":"unclassified"},"geometry":{"type":"LineString","coordinates":[[85.5676067,20.2810979],[85.5671883,20.2810325],[85.5667859,20.2808966],[85.566051,20.2807406],[85.565418,20.280484],[85.5648279,20.2802928],[85.5640286,20.2801368],[85.5637604,20.2800311],[85.5635887,20.2796437],[85.5634439,20.2792663],[85.5632776,20.2786423],[85.5634117,20.2785266],[85.5635512,20.2785367],[85.5638623,20.2786121],[85.5641788,20.2787329],[85.5647421,20.2788587],[85.5649996,20.2788839],[85.5654019,20.2788587],[85.5655736,20.2788335],[85.5657989,20.2788084],[85.5661046,20.2787882],[85.5665606,20.2787983],[85.566743,20.2791254],[85.5668503,20.2793317],[85.5669147,20.2794726],[85.5667752,20.2799657],[85.5668396,20.2803683],[85.5668879,20.2807004],[85.5667859,20.2808966]]}},{"type":"Feature","properties":{"id":563992287,"highway":"unclassified"},"geometry":{"type":"LineString","coordinates":[[85.5742049,20.277022],[85.573529,20.2772787],[85.5727726,20.2775051],[85.5717641,20.2778674],[85.5709326,20.2785568],[85.5701548,20.2791556],[85.5693501,20.279855],[85.569098,20.2800865],[85.5689478,20.2803368],[85.5687962,20.2804777],[85.5683577,20.2807809],[85.5676067,20.2810979],[85.5668986,20.2813646],[85.5658042,20.2817319],[85.56449,20.2822653],[85.5635619,20.2825722],[85.56265,20.2827584],[85.5617005,20.2830703],[85.5607027,20.2836188],[85.5599302,20.284127],[85.5590558,20.2847057],[85.5584013,20.2851585],[85.5579346,20.2853145],[85.5575162,20.2853195],[85.5570173,20.2854453],[85.556395,20.2857573],[85.5559069,20.2859737],[85.5555797,20.2861951],[85.5551827,20.2865674],[85.5549788,20.2867083],[85.5544156,20.2870404],[85.5540776,20.287297],[85.5533266,20.2875637],[85.5528438,20.2875083],[85.5526882,20.2875184],[85.5523503,20.2876794],[85.5518031,20.2879964],[85.5516046,20.2880316],[85.5510575,20.2879209],[85.550403,20.2881574],[85.5497861,20.2883134],[85.5491048,20.2883234],[85.5484825,20.2886304],[85.5478924,20.2886958],[85.5474365,20.2888819],[85.5474794,20.2889826],[85.5473882,20.2891235],[85.5470931,20.2892744],[85.5469108,20.2892744],[85.5463636,20.2894706],[85.5461597,20.2894656],[85.5457574,20.2897373],[85.5454731,20.2900342],[85.5453658,20.2900996],[85.5452371,20.2901398],[85.5450547,20.2901499],[85.5447918,20.2902807],[85.5446577,20.290482],[85.5445987,20.2905776],[85.5444284,20.2906078],[85.5443157,20.2907197],[85.5442634,20.2908556],[85.5441052,20.2909373],[85.5438597,20.2911285],[85.5437659,20.2911159],[85.5435258,20.2912317],[85.5433501,20.2913612],[85.5431181,20.2914832],[85.5430524,20.2915487],[85.5430417,20.2916619],[85.5429277,20.2917927],[85.5427439,20.291926],[85.5426139,20.292004],[85.5424274,20.2922757],[85.5422679,20.292565],[85.5422263,20.2927487],[85.5421123,20.2929789],[85.5420573,20.2931361],[85.5419433,20.2933776],[85.5418467,20.293843],[85.5417287,20.2939638],[85.5415034,20.2940065],[85.5413318,20.2940191],[85.5412191,20.2941424],[85.5411628,20.2943965],[85.5411655,20.2945575],[85.541093,20.294809],[85.5409697,20.2950002],[85.5408007,20.2952669],[85.5404118,20.2957927],[85.5401248,20.2961574],[85.5399182,20.2964216],[85.5397519,20.296487],[85.5395588,20.2965373],[85.5392235,20.2965147],[85.5388319,20.2967511],[85.5387086,20.2969776],[85.5386335,20.2970681],[85.5385047,20.2974103],[85.5384242,20.2980442],[85.5381346,20.298658],[85.5379361,20.2988895],[85.5374747,20.2992215],[85.5370671,20.2994228],[85.5366272,20.2996441],[85.5359888,20.3000064],[85.5353183,20.3001724],[85.5344546,20.3004743],[85.5342776,20.3007208],[85.5339503,20.3010529],[85.5338913,20.3011736],[85.5335373,20.3013044],[85.5328882,20.3014252],[85.5322176,20.3016617],[85.5315685,20.3020289],[85.5303937,20.3024415],[85.5296856,20.3023811],[85.5289292,20.3025572],[85.5280924,20.3024717],[85.5270839,20.3024717],[85.5266923,20.3024113],[85.5263704,20.3028188],[85.5260485,20.3027584],[85.5253243,20.3029345],[85.5243212,20.3029848],[85.5241871,20.3026427],[85.5240507,20.3027088],[85.523865,20.3027988]]}},{"type":"Feature","properties":{"id":563994728,"highway":"unclassified"},"geometry":{"type":"LineString","coordinates":[[85.5372709,20.2021232],[85.5375767,20.2032911],[85.5378342,20.2045598],[85.53803,20.20546],[85.5381185,20.205768],[85.5382955,20.2065534],[85.5386013,20.2080787],[85.5388802,20.2092819],[85.5391645,20.2106411],[85.5395025,20.2122369],[85.5396312,20.2127253],[85.5398887,20.2137925],[85.540055,20.2145325],[85.5400919,20.214767]]}},{"type":"Feature","properties":{"id":563996290,"highway":"unclassified"},"geometry":{"type":"LineString","coordinates":[[85.612995,20.2053401],[85.6124076,20.2056925],[85.6114581,20.2062035],[85.6109244,20.2064577],[85.6102458,20.2068655],[85.6092909,20.2073614],[85.6083602,20.207817],[85.607349,20.2083808],[85.6066328,20.2087785],[85.6057531,20.2092517],[85.6049216,20.20974],[85.6039909,20.2102837],[85.6028938,20.2108954],[85.6019953,20.2114592],[85.6012684,20.2118342],[85.6009063,20.2121035],[85.6002223,20.2127454],[85.5996591,20.2133319],[85.5990878,20.2138931],[85.5985004,20.2145299],[85.59809,20.2148697],[85.5975831,20.2151315],[85.5965584,20.2154084],[85.5951744,20.215801],[85.5944234,20.2160175],[85.5934417,20.2162642],[85.5929428,20.2163749],[85.5926692,20.2164202],[85.5925459,20.2165511],[85.5924761,20.2167172],[85.5924869,20.2168431],[85.5924869,20.2170092],[85.59246,20.2172558],[85.5924171,20.2174169],[85.5923742,20.2176334],[85.5923796,20.2177693],[85.5923796,20.2178599],[85.5922776,20.2183734],[85.5923098,20.2186955],[85.59233,20.21896],[85.5922937,20.2195009],[85.5922025,20.219813],[85.591945,20.2201453],[85.5916768,20.2203819],[85.5912584,20.2206738],[85.5910921,20.2207946],[85.5906415,20.2211571],[85.5902553,20.221444],[85.5898261,20.2217913],[85.5892897,20.2222091],[85.5887425,20.2226722],[85.5880934,20.2231756],[85.5872887,20.2237897],[85.5863661,20.2244139],[85.5857974,20.2248468],[85.5852342,20.2252495],[85.584451,20.2258233],[85.5839199,20.2262059],[85.5832815,20.226669],[85.5826968,20.2270666],[85.5823159,20.2272931],[85.5818975,20.2275951],[85.581581,20.2277814],[85.5810231,20.2281992],[85.5806315,20.2284911],[85.5799556,20.2289794],[85.5796069,20.2292411],[85.5794728,20.2293821],[85.5791509,20.2299659],[85.5787861,20.2306455],[85.578593,20.2310783],[85.5787057,20.231632],[85.5785447,20.231929],[85.5783409,20.2321907],[85.5779761,20.2327696],[85.5775952,20.233293],[85.5775362,20.2334466],[85.5775443,20.2337763],[85.5776462,20.2339348],[85.5777025,20.2340556],[85.5777588,20.2341613],[85.5778259,20.2343073],[85.5778822,20.2344155],[85.5779171,20.234793],[85.5778018,20.2350522],[85.5777669,20.2352108],[85.5776972,20.2353769],[85.5774879,20.235782],[85.5773967,20.2359532],[85.5773297,20.2360866],[85.5772948,20.2362275],[85.5771768,20.2364439],[85.5770346,20.236766],[85.5770051,20.2368239],[85.5770615,20.2369447],[85.5771071,20.2370857],[85.5771956,20.2372568],[85.5772144,20.237287],[85.5772841,20.2374279],[85.5773029,20.2374581],[85.5774021,20.2377022],[85.5775228,20.2378633],[85.5776006,20.2379438],[85.5776301,20.2380168],[85.5776569,20.2380923],[85.5776864,20.2381829],[85.577724,20.2382785],[85.5778152,20.2386258],[85.5778715,20.2387869],[85.5778876,20.2388976],[85.577893,20.2390209],[85.5778608,20.2392122],[85.5778903,20.2393305],[85.5779144,20.2394135],[85.5779493,20.2394639],[85.5779895,20.2395016],[85.578011,20.2395243],[85.5780297,20.2395519],[85.5778581,20.2397533],[85.5775148,20.2400376],[85.577276,20.2402692],[85.5768791,20.2404026],[85.576399,20.2405586],[85.5758008,20.2406039],[85.5752349,20.2406366],[85.5746475,20.2406794],[85.5742881,20.2407373],[85.5738616,20.2409461],[85.5732071,20.2413815],[85.5729121,20.2415249],[85.5725044,20.2416483],[85.5720806,20.2417187],[85.5717748,20.2417766],[85.5715576,20.241832],[85.5710265,20.2419528],[85.5705678,20.2419628],[85.5700609,20.2420006],[85.5698705,20.2421012]]}},{"type":"Feature","properties":{"id":563996747,"highway":"unclassified"},"geometry":{"type":"LineString","coordinates":[[85.5710265,20.2419528],[85.5710989,20.2422925],[85.5710077,20.2425995],[85.5706805,20.2427908],[85.5701119,20.2429418],[85.5696881,20.2430273],[85.5693984,20.2428059],[85.56898,20.2425441],[85.5687708,20.242529],[85.5684864,20.2423579],[85.5682933,20.2423428],[85.5681056,20.2420811],[85.5680197,20.2418294],[85.5679607,20.2414167],[85.5678213,20.2408883],[85.5677247,20.2406165],[85.5673385,20.2406215],[85.5670702,20.2406416],[85.5667484,20.2406819],[85.5667055,20.2401886],[85.5674887,20.2402188],[85.5678749,20.2401836],[85.5681914,20.2401131],[85.5684918,20.2400074],[85.5690604,20.2397961],[85.5692804,20.2396652],[85.5694896,20.2396451],[85.5699187,20.2396551],[85.5702245,20.2398665],[85.5705893,20.240249],[85.570702,20.2403849],[85.5708843,20.2407574],[85.5712062,20.2413463],[85.5711204,20.2416533],[85.5710265,20.2419528]]}},{"type":"Feature","properties":{"id":563997078,"highway":"unclassified"},"geometry":{"type":"LineString","coordinates":[[85.5711204,20.2416533],[85.5706322,20.2415275],[85.5700529,20.241603],[85.569393,20.2418294],[85.5692214,20.2415728],[85.569157,20.2412053],[85.5687761,20.2411298],[85.5684543,20.2412003],[85.5681002,20.2414067],[85.5679607,20.2414167]]}},{"type":"Feature","properties":{"id":563997116,"highway":"unclassified"},"geometry":{"type":"LineString","coordinates":[[85.5667055,20.2401886],[85.5660295,20.2400477],[85.5650318,20.2398414],[85.5639535,20.2396551],[85.5629504,20.2393431],[85.5616146,20.2389102],[85.560354,20.2384975],[85.5598819,20.2383314],[85.5593562,20.237818],[85.5591309,20.2374304],[85.559088,20.2370479],[85.5589002,20.2368164],[85.5584228,20.2364389],[85.5582029,20.2361923],[85.5579239,20.2358802],[85.5576396,20.2356285],[85.5571622,20.2352057],[85.5565506,20.2347628],[85.5560356,20.2344658],[85.5557299,20.2343199],[85.5553651,20.2341437],[85.5550754,20.2340531],[85.5542707,20.2342444],[85.553627,20.2345464],[85.5528974,20.2348836],[85.5524093,20.2351806],[85.5519426,20.2354725],[85.5513418,20.2358852],[85.5505425,20.2364037],[85.5500275,20.2368868],[85.5496252,20.2376217],[85.5493033,20.2382106],[85.5490029,20.2384623],[85.5485254,20.2388347],[85.5480266,20.2391015],[85.54712,20.2394538],[85.5466801,20.2396753],[85.5463904,20.2399219],[85.5462724,20.2401786],[85.5462617,20.2409386],[85.546959,20.2409185],[85.5472273,20.2409235],[85.5475062,20.2409084],[85.54771,20.24096],[85.5480641,20.2409285],[85.5481499,20.2410996],[85.5481982,20.2413513],[85.5481768,20.2416684],[85.5482733,20.2417892],[85.5485469,20.241764],[85.5487883,20.2417288],[85.5490565,20.2416835],[85.5494428,20.2415728],[85.5497056,20.2415073],[85.5499202,20.241462],[85.5502045,20.2413261],[85.5505156,20.2412456],[85.5507678,20.24116]]}},{"type":"Feature","properties":{"id":564001096,"highway":"unclassified"},"geometry":{"type":"LineString","coordinates":[[85.5900729,20.219735],[85.5905449,20.219584],[85.5907729,20.2195261],[85.5910063,20.2195135],[85.5912611,20.2195538],[85.5915239,20.2196343],[85.5918083,20.2197174],[85.5919987,20.2197614],[85.5922025,20.219813],[85.5925888,20.2199238],[85.5929643,20.2199842],[85.5935115,20.2200345],[85.5938601,20.2201],[85.5940801,20.2201201],[85.5944234,20.2201755],[85.5943885,20.2205757],[85.5943805,20.2207418],[85.5940881,20.2209079],[85.5938145,20.2209507],[85.5935195,20.2210287],[85.5933934,20.2210589],[85.593136,20.2210841],[85.5929616,20.2210237],[85.5928704,20.2208827],[85.5928114,20.2207317],[85.5925995,20.2207065],[85.5924386,20.2207116],[85.5922455,20.2207594],[85.5921489,20.2208248],[85.5921033,20.2209708],[85.5917841,20.2210086],[85.5916366,20.2210388],[85.5914918,20.2210941],[85.5911967,20.2211722],[85.5911297,20.2209482],[85.5910921,20.2207946]]}},{"type":"Feature","properties":{"id":564001110,"highway":"unclassified"},"geometry":{"type":"LineString","coordinates":[[85.5921489,20.2208248],[85.591886,20.2207493],[85.5918163,20.2205807],[85.5917519,20.2204473],[85.5916768,20.2203819]]}},{"type":"Feature","properties":{"id":564001141,"highway":"unclassified"},"geometry":{"type":"LineString","coordinates":[[85.5911967,20.2211722],[85.5912369,20.2213408],[85.5912906,20.221522],[85.5914462,20.2217284],[85.5915239,20.2218366],[85.5916581,20.2218316],[85.5917841,20.2217913],[85.5919611,20.2217511],[85.5921784,20.2217334],[85.5922052,20.2216101],[85.592173,20.2214239],[85.5921328,20.2211848],[85.5921033,20.2209708]]}},{"type":"Feature","properties":{"id":564001225,"highway":"unclassified"},"geometry":{"type":"LineString","coordinates":[[85.5921784,20.2217334],[85.5922642,20.22196],[85.5923071,20.2220883],[85.5923822,20.2223476],[85.592232,20.222413],[85.5920792,20.2224382],[85.5918753,20.2223878],[85.5916768,20.2222192],[85.5915561,20.2221412],[85.5912799,20.2220078],[85.5912745,20.2218115],[85.5912799,20.2216881],[85.5912906,20.221522]]}},{"type":"Feature","properties":{"id":564001296,"highway":"unclassified"},"geometry":{"type":"LineString","coordinates":[[85.5912799,20.2220078],[85.5909875,20.2219876],[85.5905181,20.2220053],[85.5903304,20.2220304],[85.5900487,20.2220657],[85.5898127,20.2220933],[85.5894613,20.222189],[85.5892897,20.2222091]]}},{"type":"Feature","properties":{"id":564001816,"highway":"unclassified"},"geometry":{"type":"LineString","coordinates":[[85.5724586,20.2914697],[85.5727351,20.291126],[85.5727887,20.2909197],[85.5726439,20.2905424],[85.5724722,20.290165],[85.5722094,20.2897977],[85.571925,20.2895461],[85.5715871,20.2892996],[85.5713242,20.2891536],[85.5711096,20.2890279],[85.5709165,20.2886555],[85.5707234,20.2882329],[85.570541,20.2878102],[85.5704069,20.2873624],[85.5702513,20.2869196],[85.5700958,20.286351],[85.570085,20.2858579],[85.570069,20.2853447],[85.57007,20.28514],[85.5700153,20.2847962],[85.5699456,20.2843434],[85.5698597,20.2840415],[85.5697042,20.2835232],[85.5695754,20.2829144],[85.5694628,20.282386],[85.5693287,20.2820388],[85.5692804,20.2819558]]}},{"type":"Feature","properties":{"id":564001870,"highway":"unclassified"},"geometry":{"type":"LineString","coordinates":[[85.570069,20.2853447],[85.5694199,20.2852491],[85.5691999,20.285068],[85.568819,20.284756],[85.5685562,20.2846201],[85.5681968,20.2844189],[85.5679715,20.2843384],[85.5676925,20.2843233],[85.5675477,20.2840817],[85.5675316,20.2838151],[85.5672902,20.2837446],[85.56714,20.2837044],[85.5670702,20.2836087],[85.5671024,20.2834628],[85.5671185,20.2833723],[85.5671829,20.2832565],[85.5672687,20.2832112],[85.5674136,20.283171],[85.567553,20.2831559],[85.5676979,20.2831609],[85.5678642,20.2831609],[85.5680197,20.2831609],[85.5681217,20.2830854],[85.5682397,20.2830452],[85.5683953,20.2829295],[85.5685508,20.2828238],[85.5686527,20.2827383],[85.5687708,20.2826125],[85.5689424,20.282376],[85.5690014,20.2822552],[85.5690712,20.2821646],[85.5691624,20.2820489],[85.5692804,20.2819558]]}},{"type":"Feature","properties":{"id":564001873,"highway":"unclassified"},"geometry":{"type":"LineString","coordinates":[[85.570085,20.2858579],[85.5697524,20.2858378],[85.5694789,20.2858026],[85.5692321,20.2857623],[85.5690873,20.2858277],[85.5689263,20.2859787],[85.5687064,20.2862152],[85.5682558,20.2861447],[85.5678105,20.2860894],[85.5675209,20.2860592],[85.5670488,20.2861397],[85.5667055,20.2862152],[85.566448,20.2862655],[85.566228,20.2863359],[85.566338,20.2864768],[85.566397,20.2866051],[85.5664051,20.2867334],[85.5664292,20.2868894],[85.5667591,20.2869498],[85.5669656,20.28698],[85.5671024,20.2869573],[85.5672204,20.2869196],[85.567317,20.286907],[85.5674431,20.2869121],[85.5675799,20.2869473],[85.5676979,20.2869825],[85.5679285,20.2870831],[85.5680251,20.2871259],[85.5681807,20.2871838],[85.5682585,20.2872114],[85.5682182,20.2874706],[85.5682558,20.2875662],[85.5682826,20.2876542],[85.5682719,20.2878807],[85.5683979,20.287931],[85.5685696,20.2879184],[85.5687439,20.2879108],[85.5689102,20.2879159],[85.5690631,20.2879209],[85.5691543,20.2879687],[85.5692133,20.2879989],[85.5693904,20.2880442],[85.5695647,20.2880417],[85.5697122,20.2880165],[85.5698946,20.2879662],[85.5701306,20.2879033],[85.570364,20.2878505],[85.570541,20.2878102]]}},{"type":"Feature","properties":{"id":564001876,"highway":"unclassified"},"geometry":{"type":"LineString","coordinates":[[85.5676925,20.2843233],[85.5675316,20.2844742],[85.5674404,20.2845698],[85.5671292,20.2846453],[85.5668288,20.2846906],[85.5666143,20.2847409],[85.56633,20.2848466],[85.5660939,20.2850478],[85.565933,20.2851636],[85.5657399,20.2852541],[85.565536,20.2853195],[85.5653214,20.2853497],[85.5651122,20.2853799],[85.5649191,20.2854403],[85.5648011,20.2854705]]}},{"type":"Feature","properties":{"id":564001991,"highway":"unclassified"},"geometry":{"type":"LineString","coordinates":[[85.5669656,20.28698],[85.5668744,20.2871611],[85.5667591,20.2873725],[85.5666116,20.2875159],[85.5665928,20.2877951],[85.5666652,20.2878756],[85.5668101,20.2879008],[85.5670568,20.2879134],[85.5671829,20.2879184],[85.5673787,20.2878756],[85.5675235,20.2878555],[85.5676979,20.2878429],[85.56784,20.2878656],[85.5679715,20.2878832],[85.5681458,20.2879083],[85.5682719,20.2878807]]}},{"type":"Feature","properties":{"id":564001998,"highway":"unclassified"},"geometry":{"type":"LineString","coordinates":[[85.5665928,20.2877951],[85.5663541,20.2877649],[85.5660859,20.2877674],[85.5659249,20.2877624],[85.5657479,20.2877926],[85.5656326,20.2877851],[85.5655307,20.2875737],[85.5654797,20.2873951],[85.5654234,20.2871787],[85.5653295,20.2869146],[85.5652812,20.2867058],[85.5652463,20.2864491],[85.5651712,20.2862076],[85.5651095,20.2859233],[85.5651337,20.2857699],[85.5651176,20.2855787],[85.5651122,20.2853799]]}},{"type":"Feature","properties":{"id":564010794,"highway":"unclassified"},"geometry":{"type":"LineString","coordinates":[[85.5482733,20.2417892],[85.5479622,20.241764],[85.5476779,20.2417489],[85.5474445,20.2416936],[85.5472165,20.2416483],[85.5467015,20.2416961],[85.5463207,20.2417313],[85.5461571,20.2417892]]}},{"type":"Feature","properties":{"id":618949201,"highway":"residential"},"geometry":{"type":"LineString","coordinates":[[85.5853039,20.1968823],[85.5852768,20.1985157],[85.5849564,20.1991981],[85.585012,20.199407],[85.5850303,20.1994757],[85.5852768,20.1998805],[85.5853754,20.2006901],[85.5853261,20.2013262],[85.5853754,20.2019739],[85.5859053,20.2020202],[85.5860656,20.2020433],[85.5862011,20.2031305],[85.5862011,20.2042871],[85.5862011,20.2051314]]}},{"type":"Feature","properties":{"id":618949204,"highway":"residential"},"geometry":{"type":"LineString","coordinates":[[85.585012,20.199407],[85.5852473,20.1995862],[85.5856255,20.1996257],[85.5860038,20.1995556],[85.586695,20.1995994],[85.5872834,20.1997177],[85.5883855,20.1998142],[85.5885349,20.1998843],[85.588619,20.1999719],[85.5886143,20.2001253],[85.5887591,20.2032151],[85.5888105,20.203763],[85.5888571,20.2042702],[85.588899,20.2047268],[85.5880866,20.2047272],[85.5873721,20.2047491],[85.5866156,20.2048148],[85.5865082,20.2047754],[85.5864661,20.2046044],[85.5864708,20.2044773],[85.5869051,20.204451],[85.5877364,20.2043765],[85.5883201,20.2043283],[85.5886984,20.204267],[85.5888571,20.2042702]]}},{"type":"Feature","properties":{"id":619211103,"highway":"unclassified"},"geometry":{"type":"LineString","coordinates":[[85.5007691,20.2098509],[85.5009763,20.209445],[85.5013422,20.2089262],[85.501765,20.2085065],[85.5019189,20.2084199],[85.5025781,20.2080487],[85.5038384,20.207835],[85.5046759,20.207774],[85.5055318,20.2077296],[85.5064403,20.2076824],[85.5080502,20.2075527],[85.5098715,20.2073467],[85.5118961,20.2071406],[85.5123663,20.2070906]]}},{"type":"Feature","properties":{"id":619211105,"highway":"unclassified"},"geometry":{"type":"LineString","coordinates":[[85.5123663,20.2070906],[85.5123976,20.2070324],[85.5123965,20.2070057],[85.5123936,20.2069368],[85.5123601,20.2067165],[85.5122729,20.206344],[85.5122944,20.2061577],[85.5123923,20.206096],[85.5125224,20.2060621],[85.5127369,20.2060193],[85.514047,20.2057454],[85.5141275,20.2057101],[85.5141679,20.2055853],[85.5141427,20.205311],[85.5141711,20.2050621]]}},{"type":"Feature","properties":{"id":620914527,"highway":"residential"},"geometry":{"type":"LineString","coordinates":[[85.5765062,20.2045077],[85.5773753,20.2044876],[85.5783999,20.2044322],[85.5790027,20.2043264],[85.5793172,20.2042711],[85.579639,20.2042057],[85.5801272,20.2042611],[85.5805456,20.2043064]]}},{"type":"Feature","properties":{"id":620914528,"highway":"residential"},"geometry":{"type":"LineString","coordinates":[[85.5790027,20.2043264],[85.5790007,20.2040748],[85.5788397,20.2037576],[85.5782336,20.2020157],[85.5781853,20.2015274],[85.578196,20.2009434],[85.5781638,20.2006313],[85.5778312,20.1998107],[85.5776052,20.1992883]]}},{"type":"Feature","properties":{"id":620914529,"highway":"residential"},"geometry":{"type":"LineString","coordinates":[[85.579639,20.2042057],[85.5799341,20.2041201],[85.5801379,20.2040496],[85.5803525,20.2038885],[85.5806261,20.2037828],[85.5801969,20.2036872],[85.5798161,20.2034556],[85.5796122,20.203219],[85.5794245,20.20337],[85.5793494,20.2035009],[85.5793064,20.2035915],[85.5795317,20.2038281],[85.579639,20.2042057]]}},{"type":"Feature","properties":{"id":620914530,"highway":"residential"},"geometry":{"type":"LineString","coordinates":[[85.5796122,20.203219],[85.5794137,20.2029471],[85.5785554,20.2024537],[85.5782336,20.2020157]]}},{"type":"Feature","properties":{"id":640983829,"highway":"trunk"},"geometry":{"type":"LineString","coordinates":[[85.5132328,20.2195901],[85.5137996,20.2195608]]}},{"type":"Feature","properties":{"id":644549163,"highway":"trunk"},"geometry":{"type":"LineString","coordinates":[[85.4844408,20.2137245],[85.4875207,20.2151862],[85.4904155,20.2165727],[85.4927977,20.2177081],[85.4962557,20.2193705],[85.4972125,20.2198382],[85.4976656,20.2200608],[85.4986331,20.2203859],[85.4990435,20.2204834],[85.4993215,20.2205444],[85.4994993,20.2205835],[85.500059,20.220651],[85.5006747,20.2206185],[85.5011145,20.2205985],[85.5016315,20.220596],[85.5019967,20.2205885],[85.5027384,20.2205311],[85.5029996,20.2204835],[85.5032501,20.220396],[85.5036099,20.220326],[85.5037805,20.220321],[85.5039804,20.220321],[85.5042896,20.2203335],[85.504724,20.2204235],[85.5050865,20.2204535],[85.5060886,20.220411],[85.5075065,20.2203385],[85.5080023,20.2202709],[85.509772,20.2199608],[85.5105689,20.2198208],[85.5112086,20.2197257],[85.511723,20.2196682],[85.5132328,20.2195901]]}},{"type":"Feature","properties":{"id":966258152,"highway":"unclassified"},"geometry":{"type":"LineString","coordinates":[[85.5144296,20.2046169],[85.5145994,20.2042878],[85.5150721,20.2035319],[85.5156379,20.2026049],[85.5165499,20.2018415],[85.5172261,20.2013504]]}},{"type":"Feature","properties":{"id":966258153,"highway":"unclassified"},"geometry":{"type":"LineString","coordinates":[[85.5141711,20.2050621],[85.5144296,20.2046169]]}},{"type":"Feature","properties":{"id":966258159,"highway":"unclassified"},"geometry":{"type":"LineString","coordinates":[[85.5177136,20.2008557],[85.5177478,20.2008337]]}},{"type":"Feature","properties":{"id":966258160,"highway":"unclassified"},"geometry":{"type":"LineString","coordinates":[[85.5172261,20.2013504],[85.5172811,20.201312]]}},{"type":"Feature","properties":{"id":966258162,"highway":"unclassified"},"geometry":{"type":"LineString","coordinates":[[85.5172811,20.201312],[85.517385,20.2012346],[85.5174373,20.2011754],[85.5175312,20.2010244],[85.517617,20.2009275],[85.5177136,20.2008557]]}},{"type":"Feature","properties":{"id":1220519728,"highway":"unclassified"},"geometry":{"type":"LineString","coordinates":[[85.5887455,20.2578951],[85.5881155,20.2581858],[85.587659,20.2583909],[85.586836,20.2587347],[85.586656,20.2588674],[85.5858651,20.259169]]}},{"type":"Feature","properties":{"id":1220519729,"highway":"unclassified"},"geometry":{"type":"LineString","coordinates":[[85.5811588,20.2586827],[85.5813368,20.2591726]]}},{"type":"Feature","properties":{"id":1220519730,"highway":"unclassified"},"geometry":{"type":"LineString","coordinates":[[85.5772578,20.2669577],[85.5769058,20.266849],[85.5766424,20.2667336],[85.5761086,20.2664042],[85.5754623,20.2661669],[85.5750163,20.2660582],[85.5745386,20.2661603],[85.5741487,20.2660977],[85.5736676,20.2659758],[85.5730494,20.2660187],[85.5725998,20.2660055],[85.5717112,20.2658869],[85.5709701,20.2658177],[85.5705487,20.2657551],[85.5702466,20.2656529],[85.5700399,20.2656619],[85.5695939,20.2658928],[85.5692771,20.2661384],[85.569137,20.2662031],[85.5687659,20.2661943],[85.5684513,20.2662427],[85.5678924,20.2665159],[85.5673429,20.266648],[85.5668029,20.2666172],[85.5665305,20.2667494],[85.5661078,20.2670974],[85.5659012,20.2671767],[85.5655114,20.2672075],[85.5646003,20.2672252],[85.5640837,20.2673265]]}},{"type":"Feature","properties":{"id":1220519731,"highway":"unclassified"},"geometry":{"type":"LineString","coordinates":[[85.5640837,20.2673265],[85.5634973,20.2674079],[85.5629208,20.2675774],[85.5624211,20.2676891],[85.5623634,20.2678875],[85.5624095,20.2684896],[85.5624941,20.2688214],[85.5626517,20.269319],[85.562817,20.2698923],[85.5629169,20.2704945],[85.5628862,20.2708262],[85.5627978,20.2711219],[85.5627055,20.2713202],[85.5626978,20.271432],[85.5627478,20.2716015],[85.5634128,20.2716123],[85.5641085,20.2716051],[85.5643507,20.2715618],[85.5644122,20.2713419],[85.5645083,20.2711976],[85.5645659,20.271075],[85.564662,20.2710173],[85.5648581,20.2709488],[85.5650541,20.2708659],[85.5651387,20.2707217],[85.5653117,20.2704837],[85.5653424,20.2703286],[85.5648235,20.2702673],[85.5644929,20.2702349],[85.564097,20.2702781],[85.5637011,20.2702962],[85.5637011,20.2703683]]}},{"type":"Feature","properties":{"id":1222020311,"highway":"residential"},"geometry":{"type":"LineString","coordinates":[[85.520373,20.2762873],[85.5197185,20.2764182],[85.5190641,20.2766346],[85.5184487,20.2767453]]}},{"type":"Feature","properties":{"id":1222020312,"highway":"residential"},"geometry":{"type":"LineString","coordinates":[[85.520373,20.2762873],[85.5212152,20.2761967],[85.5213708,20.2761615]]}},{"type":"Feature","properties":{"id":1222020313,"highway":"residential"},"geometry":{"type":"LineString","coordinates":[[85.520373,20.2762873],[85.5203462,20.2760558],[85.5210811,20.2758948],[85.5212796,20.2758193],[85.5214137,20.2757187],[85.5215692,20.2756583],[85.5221057,20.2755576],[85.5221862,20.2755023],[85.5222827,20.2752154],[85.5224544,20.2749527],[85.5224866,20.2745965],[85.5223042,20.2739976],[85.5220574,20.2735195]]}},{"type":"Feature","properties":{"id":1222020314,"highway":"residential"},"geometry":{"type":"LineString","coordinates":[[85.5188763,20.2758495],[85.5183,20.2759804],[85.5175781,20.2760609]]}},{"type":"Feature","properties":{"id":1222020315,"highway":"residential"},"geometry":{"type":"LineString","coordinates":[[85.5086625,20.2773931],[85.509333,20.2772321],[85.5098373,20.2770761],[85.5114091,20.2760697],[85.5119938,20.275798],[85.5124444,20.2756571],[85.5131901,20.2755666],[85.5136246,20.2755817],[85.5164194,20.2761603],[85.5171383,20.2761653],[85.5175781,20.2760609]]}},{"type":"Feature","properties":{"id":1222020316,"highway":"residential"},"geometry":{"type":"LineString","coordinates":[[85.526762,20.2711688],[85.5266065,20.2712745],[85.5265582,20.2713751],[85.5265636,20.2714305],[85.5262471,20.2721651],[85.5261183,20.2724167],[85.5259949,20.2724771],[85.525834,20.2728444],[85.525539,20.2733174],[85.5253887,20.2734935],[85.5252385,20.2735589],[85.5247182,20.2736797],[85.5244553,20.2737853],[85.5242944,20.2738759],[85.5241174,20.2740067],[85.5238921,20.2743086],[85.5236882,20.2744747],[85.523479,20.2745451],[85.5230177,20.2746307],[85.5224544,20.2749527]]}},{"type":"Feature","properties":{"id":1222020317,"highway":"residential"},"geometry":{"type":"LineString","coordinates":[[85.5257374,20.2714506],[85.5258018,20.2717424],[85.5259198,20.2722708],[85.5259198,20.2723563],[85.5259949,20.2724771]]}},{"type":"Feature","properties":{"id":1222020318,"highway":"residential"},"geometry":{"type":"LineString","coordinates":[[85.5265582,20.2713751],[85.5264831,20.2714053],[85.526306,20.271516],[85.5258018,20.2717424],[85.5253405,20.2718884],[85.524745,20.2721651],[85.5237633,20.2723513]]}},{"type":"Feature","properties":{"id":1222020319,"highway":"residential"},"geometry":{"type":"LineString","coordinates":[[85.5277222,20.273444],[85.5276042,20.2733576],[85.5274379,20.2732067],[85.5271912,20.2730063],[85.526821,20.2727387],[85.5267084,20.272623],[85.5261183,20.2724167]]}},{"type":"Feature","properties":{"id":1222020320,"highway":"residential"},"geometry":{"type":"LineString","coordinates":[[85.5271912,20.2730063],[85.5273628,20.2730617],[85.5275452,20.2731874],[85.5276471,20.273278],[85.5277222,20.273444],[85.5279261,20.273761],[85.5281567,20.2744151],[85.528323,20.2745308],[85.5284464,20.2746717],[85.5286395,20.2747522],[85.5288541,20.2749132],[85.5289185,20.2749232],[85.5293852,20.274893],[85.5303937,20.2747421],[85.5310428,20.2747069],[85.5314719,20.2746264],[85.5316651,20.2746515],[85.5318904,20.2746415],[85.5322551,20.274727],[85.5323195,20.2747773],[85.5328935,20.2756125],[85.5332368,20.2760653],[85.5334353,20.2763672],[85.5338484,20.276815],[85.5340683,20.2773131]]}},{"type":"Feature","properties":{"id":1222020321,"highway":"residential"},"geometry":{"type":"LineString","coordinates":[[85.5293852,20.274893],[85.5297231,20.2750389],[85.5299109,20.2750993],[85.5306029,20.2751496]]}},{"type":"Feature","properties":{"id":1222020322,"highway":"residential"},"geometry":{"type":"LineString","coordinates":[[85.526762,20.2711688],[85.5272878,20.2711638],[85.5278725,20.271043],[85.5282051,20.2708417],[85.5282748,20.2708317],[85.5283928,20.2708518],[85.5286557,20.2708216],[85.5288166,20.2707612],[85.5289776,20.2707311],[85.5292458,20.2705952],[85.5294872,20.2705801],[85.5298627,20.2704946],[85.5301309,20.2704191],[85.5304313,20.2702883],[85.5307478,20.2702279],[85.5309141,20.2701675],[85.5312038,20.2701625],[85.5317081,20.2700769]]}},{"type":"Feature","properties":{"id":1222020323,"highway":"residential"},"geometry":{"type":"LineString","coordinates":[[85.5257374,20.2714506],[85.525834,20.2714556],[85.5263221,20.2712644],[85.5265421,20.2712393],[85.5266065,20.2712745]]}},{"type":"Feature","properties":{"id":1222020324,"highway":"residential"},"geometry":{"type":"LineString","coordinates":[[85.5257374,20.2714506],[85.5254424,20.2714556],[85.5249971,20.2715311],[85.5245465,20.271667],[85.5241871,20.2716418],[85.5240905,20.2715663],[85.5236292,20.2715764]]}},{"type":"Feature","properties":{"id":1222020325,"highway":"residential"},"geometry":{"type":"LineString","coordinates":[[85.5257374,20.2714506],[85.5254638,20.2706203],[85.525378,20.2705096],[85.5253029,20.2703587],[85.5252707,20.2702128],[85.5252493,20.2699914],[85.5250883,20.2695335],[85.5250561,20.2693121],[85.5251205,20.2691511],[85.5254209,20.2686982],[85.5255872,20.2682101],[85.5256945,20.2679384],[85.5257803,20.2678378]]}},{"type":"Feature","properties":{"id":1222020326,"highway":"residential"},"geometry":{"type":"LineString","coordinates":[[85.5250561,20.2693121],[85.5248952,20.2694127],[85.5246431,20.2695486],[85.5244231,20.2697649],[85.5242622,20.2699109]]}}]}