{"type":"FeatureCollection","features":[{"type":"Feature","properties":{"id":289987263,"highway":"residential"},"geometry":{"type":"LineString","coordinates":[[85.4847966,20.2356892],[85.4848878,20.235664],[85.4849521,20.2356389],[85.4850594,20.2356087],[85.4851506,20.2355885],[85.4852257,20.2355785],[85.4853223,20.2355583],[85.4854188,20.2355432],[85.4855261,20.2355382],[85.4856066,20.2355382],[85.4857085,20.2355382],[85.4857943,20.2355231],[85.4858641,20.2354979],[85.4859338,20.2355181],[85.4859445,20.2355734],[85.485966,20.2356389],[85.4859982,20.2357043],[85.4860304,20.2357446],[85.4861001,20.2357446],[85.4861806,20.2357446],[85.4862503,20.2357546],[85.4863254,20.2357345],[85.4863898,20.2357244],[85.4864327,20.2357144]]}},{"type":"Feature","properties":{"id":289988662,"highway":"residential"},"geometry":{"type":"LineString","coordinates":[[85.4870654,20.2382867],[85.487107,20.2382616],[85.4871553,20.2382301],[85.4872009,20.2382012],[85.4872411,20.2381836],[85.4872867,20.2381685],[85.4873243,20.2381521],[85.4873846,20.2381383],[85.4874316,20.2381068],[85.4874704,20.2380904],[85.4875107,20.2380615],[85.4875603,20.23803],[85.4875724,20.2380338],[85.4876126,20.2379608],[85.4876367,20.2379143],[85.4876877,20.237869],[85.4877038,20.2378564],[85.48774,20.2378702],[85.4877749,20.2378866],[85.4878272,20.2379017],[85.4878674,20.237913],[85.4879103,20.2379256],[85.4879398,20.2379344],[85.487976,20.237947],[85.4880297,20.2379596],[85.4880753,20.2379659],[85.4881236,20.2379822],[85.4881531,20.2379948]]}},{"type":"Feature","properties":{"id":561533127,"highway":"unclassified"},"geometry":{"type":"LineString","coordinates":[[85.4556674,20.2031703],[85.4558551,20.20312],[85.4562145,20.2030596],[85.4564342,20.2031063],[85.4567242,20.2031351],[85.4570997,20.2030998],[85.4571749,20.202884],[85.4571909,20.202838],[85.4570782,20.2025914],[85.4568744,20.2023648],[85.4566383,20.2021181],[85.4565901,20.2019168],[85.4564345,20.2017607],[85.4561716,20.2017003],[85.4556634,20.2016852]]}},{"type":"Feature","properties":{"id":619211121,"highway":"residential"},"geometry":{"type":"LineString","coordinates":[[85.4450317,20.2003421],[85.4462417,20.2004968],[85.4467886,20.2006211],[85.4470032,20.2007521],[85.4476469,20.2008125],[85.4477414,20.2008633],[85.4485254,20.2009798]]}},{"type":"Feature","properties":{"id":619211122,"highway":"residential"},"geometry":{"type":"LineString","coordinates":[[85.4474712,20.201534],[85.4476469,20.2008125],[85.4478078,20.2003594],[85.4469763,20.2001253],[85.4467886,20.2006211]]}},{"type":"Feature","properties":{"id":619211126,"highway":"residential"},"geometry":{"type":"LineString","coordinates":[[85.4536654,20.2032395],[85.4536443,20.2025141],[85.4536707,20.2022949],[85.4537194,20.2018898],[85.453655,20.2012454],[85.4537348,20.2009917],[85.4537945,20.2009232]]}},{"type":"Feature","properties":{"id":619211127,"highway":"residential"},"geometry":{"type":"LineString","coordinates":[[85.4537194,20.2018898],[85.4528081,20.2018664],[85.4526814,20.2018042],[85.4523568,20.2017187],[85.4514878,20.2016281],[85.4513525,20.2016069],[85.4507153,20.2015072],[85.4499214,20.2013059],[85.4492348,20.2012052],[85.4492969,20.2001235],[85.4493313,20.1995237]]}},{"type":"Feature","properties":{"id":619211128,"highway":"residential"},"geometry":{"type":"LineString","coordinates":[[85.4488378,20.2000674],[85.4492969,20.2001235],[85.4504042,20.2002587],[85.4504578,20.2003392],[85.4512976,20.2003987],[85.4515951,20.2004198],[85.4522038,20.2004786],[85.4523247,20.2004903],[85.45255,20.2010743],[85.4527216,20.2016079],[85.4526814,20.2018042],[85.4526465,20.2021214],[85.4526358,20.202504],[85.4525257,20.2028744]]}},{"type":"Feature","properties":{"id":619211129,"highway":"residential"},"geometry":{"type":"LineString","coordinates":[[85.4505333,20.2008341],[85.4503932,20.2007289],[85.4504042,20.2002587],[85.4504686,20.1996948]]}},{"type":"Feature","properties":{"id":619211133,"highway":"residential"},"geometry":{"type":"LineString","coordinates":[[85.4478078,20.2003594],[85.4483571,20.2004046],[85.4488148,20.2004397],[85.4488378,20.2000674],[85.4488054,20.1999313],[85.4488241,20.1995368]]}},{"type":"Feature","properties":{"id":619211134,"highway":"residential"},"geometry":{"type":"LineString","coordinates":[[85.4551584,20.201394],[85.4550674,20.2015272],[85.4549326,20.2016145],[85.4547562,20.2017186],[85.4547095,20.2019333],[85.4545694,20.2022401],[85.4541398,20.2023234],[85.4536707,20.2022949]]}},{"type":"Feature","properties":{"id":619211135,"highway":"residential"},"geometry":{"type":"LineString","coordinates":[[85.4544161,20.2034864],[85.4545274,20.2031298],[85.4544854,20.2026828]]}},{"type":"Feature","properties":{"id":619211136,"highway":"residential"},"geometry":{"type":"LineString","coordinates":[[85.4561716,20.2017003],[85.4565728,20.2016134],[85.4567737,20.201552],[85.4572266,20.2015345],[85.4578898,20.2016178],[85.4580999,20.2015739],[85.4584082,20.2014205],[85.4583801,20.2019202],[85.4586837,20.2018106],[85.459132,20.2017712],[85.4594402,20.2016923],[85.4598185,20.2017142],[85.460066,20.2017054],[85.4604676,20.2016923],[85.4605237,20.2019859],[85.4604303,20.2021086],[85.4601547,20.2021612],[85.4598045,20.2021656],[85.4597298,20.2021086],[85.4592534,20.2020999]]}},{"type":"Feature","properties":{"id":619211137,"highway":"residential"},"geometry":{"type":"LineString","coordinates":[[85.4595663,20.2022752],[85.4590153,20.202262],[85.4585483,20.2023497],[85.4584035,20.202319],[85.4581933,20.2021349],[85.4580719,20.2020779],[85.4578011,20.2020034],[85.4566383,20.2021181]]}},{"type":"Feature","properties":{"id":619211138,"highway":"residential"},"geometry":{"type":"LineString","coordinates":[[85.4571909,20.202838],[85.4575862,20.2027792],[85.4577917,20.2026871],[85.4580019,20.2027222],[85.4581933,20.2027222],[85.458609,20.2027134],[85.4591273,20.2026696],[85.4600753,20.2026521],[85.4605937,20.2026258],[85.4607899,20.2026959],[85.4608132,20.2025776],[85.4606778,20.2022533],[85.4605844,20.2021262],[85.4604303,20.2021086]]}},{"type":"Feature","properties":{"id":619212565,"highway":"residential"},"geometry":{"type":"LineString","coordinates":[[85.4455558,20.2010549],[85.4451559,20.2017802],[85.4446463,20.2028374],[85.4444746,20.2032854]]}},{"type":"Feature","properties":{"id":621757650,"highway":"residential"},"geometry":{"type":"LineString","coordinates":[[85.4480727,20.2016845],[85.4481468,20.2019894],[85.4480406,20.2022485],[85.4479203,20.2023216],[85.4477079,20.2023482],[85.4471275,20.2027467],[85.4468868,20.2028132],[85.4466957,20.2029128],[85.4464196,20.2030589],[85.4463864,20.2032891],[85.4462148,20.2033444],[85.4457588,20.2034099],[85.445571,20.2034451],[85.4454932,20.20343],[85.4453564,20.2034074],[85.4449407,20.2034778],[85.4443828,20.203581],[85.4444746,20.2032854]]}},{"type":"Feature","properties":{"id":621757651,"highway":"residential"},"geometry":{"type":"LineString","coordinates":[[85.4444746,20.2032854],[85.4437856,20.2033397],[85.4430307,20.2034148],[85.4426518,20.2035045],[85.4423683,20.2036519],[85.4422605,20.2036606],[85.4422112,20.2035045]]}},{"type":"Feature","properties":{"id":621757659,"highway":"residential"},"geometry":{"type":"LineString","coordinates":[[85.4523247,20.2004903],[85.4523514,20.2004426],[85.452507,20.2004124],[85.4531106,20.2004135]]}},{"type":"Feature","properties":{"id":621757661,"highway":"residential"},"geometry":{"type":"LineString","coordinates":[[85.4531533,20.1999701],[85.4532643,20.1999902],[85.4540815,20.2000826],[85.4540949,20.2002412],[85.4539527,20.2005659],[85.4538964,20.2007861],[85.4538086,20.2008293]]}},{"type":"Feature","properties":{"id":621757663,"highway":"residential"},"geometry":{"type":"LineString","coordinates":[[85.4555444,20.2006963],[85.4558035,20.2006867],[85.4559644,20.200727],[85.4561039,20.2006767],[85.4565223,20.2006339],[85.4567717,20.2007396]]}},{"type":"Feature","properties":{"id":621757666,"highway":"unclassified"},"geometry":{"type":"LineString","coordinates":[[85.4572101,20.2382548],[85.4567363,20.2365562],[85.4564733,20.2354983],[85.4561945,20.2347053],[85.4558323,20.2338721],[85.4557082,20.2335599],[85.4555653,20.2332305],[85.4554366,20.2328124],[85.4554329,20.232579],[85.4554783,20.2322912],[85.4556196,20.2321277],[85.4557204,20.2319584],[85.455815,20.2317476],[85.4558428,20.2314704],[85.4558628,20.23123],[85.4559385,20.2309683],[85.4560962,20.2308143],[85.4563043,20.2306224],[85.4563914,20.2304435],[85.4564179,20.2302327],[85.4564494,20.229406],[85.4564772,20.2285993],[85.4564911,20.2282866],[85.4564759,20.2280592],[85.4564305,20.2275687],[85.4563523,20.2268627],[85.4562408,20.2260327],[85.4561309,20.2251485],[85.4560251,20.2243082],[85.4558875,20.2236094],[85.4558383,20.2228879],[85.4557196,20.2220943],[85.4556011,20.2212448],[85.4555027,20.2205398],[85.4553878,20.2198515],[85.4552401,20.2191407],[85.4551493,20.2184961],[85.4550875,20.2176312],[85.4550288,20.2170509],[85.4550166,20.2167871],[85.4549985,20.2163982],[85.4548925,20.215583],[85.4548181,20.2149915],[85.4547817,20.2144738],[85.4547085,20.214077],[85.4545457,20.213321],[85.454407,20.2126435],[85.4542611,20.2121924],[85.454178,20.211981],[85.4541263,20.2116896],[85.4540997,20.2114462],[85.4541262,20.2111382],[85.4542612,20.2107674],[85.4544883,20.2101893],[85.4546726,20.2096042],[85.4548959,20.2089962],[85.4552024,20.2082105],[85.4552567,20.2080237],[85.4552859,20.2078918],[85.4553305,20.2077294],[85.4553445,20.2076296],[85.4554532,20.2064588],[85.4555764,20.2053542],[85.4556386,20.2048316],[85.4556534,20.2047065],[85.4557376,20.2037089]]}},{"type":"Feature","properties":{"id":621757667,"highway":"residential"},"geometry":{"type":"LineString","coordinates":[[85.4556386,20.2048316],[85.4553814,20.2048906],[85.4551442,20.2049484],[85.4550672,20.2049195],[85.4547344,20.2049831],[85.4545341,20.2049571]]}},{"type":"Feature","properties":{"id":621757668,"highway":"residential"},"geometry":{"type":"LineString","coordinates":[[85.4563231,20.2037983],[85.4564342,20.2031063],[85.4564875,20.2028637],[85.4567494,20.2028666],[85.4571749,20.202884]]}},{"type":"Feature","properties":{"id":621757669,"highway":"residential"},"geometry":{"type":"LineString","coordinates":[[85.4606036,20.205043],[85.4605308,20.2043179],[85.4605593,20.2038434],[85.4605627,20.2037865],[85.4611608,20.2037698],[85.4615997,20.2036768],[85.4618722,20.2038795],[85.4622473,20.2040621],[85.4625446,20.2041186],[85.4629056,20.2042614],[85.4636099,20.2042913],[85.4641514,20.2043577],[85.4646929,20.2043976],[85.4656131,20.2044375],[85.4672267,20.2045967]]}},{"type":"Feature","properties":{"id":621757670,"highway":"residential"},"geometry":{"type":"LineString","coordinates":[[85.4605593,20.2038434],[85.4603826,20.2039172],[85.4600018,20.2039172],[85.4595243,20.2038971],[85.4588645,20.2039021]]}},{"type":"Feature","properties":{"id":621757671,"highway":"residential"},"geometry":{"type":"LineString","coordinates":[[85.4605593,20.2038434],[85.4602593,20.2035497],[85.4601359,20.2035346],[85.4598837,20.2035246],[85.4595726,20.2034793],[85.4593312,20.2034138],[85.4591005,20.2034138],[85.4587411,20.2034339],[85.4586768,20.2033081],[85.4585909,20.2031117],[85.4581296,20.2030715],[85.4577273,20.2030463]]}},{"type":"Feature","properties":{"id":621757672,"highway":"residential"},"geometry":{"type":"LineString","coordinates":[[85.4582967,20.2043385],[85.4582906,20.2039136],[85.4583508,20.2038804],[85.4584145,20.2038937]]}},{"type":"Feature","properties":{"id":621757673,"highway":"residential"},"geometry":{"type":"LineString","coordinates":[[85.4615997,20.2036768],[85.4610477,20.2030567],[85.4607899,20.2026959]]}},{"type":"Feature","properties":{"id":621757674,"highway":"residential"},"geometry":{"type":"LineString","coordinates":[[85.4604676,20.2016923],[85.4605898,20.2014259],[85.4608022,20.2011867],[85.4609579,20.2009941],[85.4609862,20.2007084],[85.4612693,20.2002899],[85.4612552,20.1998315],[85.4615029,20.1984166],[85.4625859,20.1977057],[85.4628478,20.1975662],[85.4642507,20.1966228]]}},{"type":"Feature","properties":{"id":621757689,"highway":"residential"},"geometry":{"type":"LineString","coordinates":[[85.4514028,20.2025382],[85.4512114,20.203069],[85.451084,20.2035041]]}},{"type":"Feature","properties":{"id":621757690,"highway":"residential"},"geometry":{"type":"LineString","coordinates":[[85.4514028,20.2025382],[85.4513525,20.2016069]]}},{"type":"Feature","properties":{"id":621757692,"highway":"residential"},"geometry":{"type":"LineString","coordinates":[[85.4584035,20.202319],[85.4583801,20.2019202]]}},{"type":"Feature","properties":{"id":621757693,"highway":"residential"},"geometry":{"type":"LineString","coordinates":[[85.4521502,20.2027541],[85.4523803,20.2034055],[85.4525904,20.2033398]]}},{"type":"Feature","properties":{"id":621757694,"highway":"residential"},"geometry":{"type":"LineString","coordinates":[[85.4492418,20.2019783],[85.4492046,20.2024193],[85.4491108,20.2024823],[85.4491832,20.2029102]]}},{"type":"Feature","properties":{"id":624423210,"highway":"residential"},"geometry":{"type":"LineString","coordinates":[[85.444479,20.2007858],[85.4445711,20.2004572],[85.4444124,20.2003994],[85.4443801,20.2003502],[85.4442645,20.2002953]]}},{"type":"Feature","properties":{"id":624423215,"highway":"residential"},"geometry":{"type":"LineString","coordinates":[[85.4460806,20.2011861],[85.4459728,20.2015342],[85.4459682,20.2015819],[85.4460498,20.2015891],[85.4460144,20.2017192],[85.4461453,20.2017438],[85.4461607,20.2018494],[85.4461207,20.2020055],[85.4461654,20.2020156],[85.4461361,20.2021168],[85.4463595,20.202179],[85.4462763,20.2025202],[85.4462224,20.2025578],[85.446133,20.2025852],[85.4453812,20.2023843]]}},{"type":"Feature","properties":{"id":644549161,"highway":"primary"},"geometry":{"type":"LineString","coordinates":[[85.494774,20.2218668],[85.4944347,20.2220657]]}},{"type":"Feature","properties":{"id":644549162,"highway":"primary"},"geometry":{"type":"LineString","coordinates":[[85.4994993,20.2205835],[85.4987857,20.2206605],[85.4978604,20.2208433],[85.495289,20.221611],[85.494774,20.2218668]]}},{"type":"Feature","properties":{"id":644549164,"highway":"trunk"},"geometry":{"type":"LineString","coordinates":[[85.4842106,20.2136152],[85.4844408,20.2137245]]}},{"type":"Feature","properties":{"id":644549193,"highway":"tertiary"},"geometry":{"type":"LineString","coordinates":[[85.4556634,20.2016852],[85.4557103,20.2021534],[85.455662,20.2026014],[85.4556512,20.2029815],[85.4556674,20.2031703]]}},{"type":"Feature","properties":{"id":644549194,"highway":"tertiary"},"geometry":{"type":"LineString","coordinates":[[85.455704,20.2037059],[85.4556942,20.2033566],[85.4556674,20.2031703]]}},{"type":"Feature","properties":{"id":1359518250,"highway":"tertiary"},"geometry":{"type":"LineString","coordinates":[[85.4965994,20.2462371],[85.4958165,20.2469633],[85.4957352,20.2470403],[85.4955853,20.247164],[85.4954384,20.2472703],[85.4953497,20.2473343],[85.4952217,20.2474444],[85.4951158,20.2475351],[85.4950494,20.2476251],[85.4950188,20.2476743],[85.49497,20.2477228],[85.4948231,20.2478846],[85.4945473,20.248211],[85.4944722,20.248279],[85.4944099,20.2483381],[85.4943172,20.248413],[85.4942404,20.2484674],[85.494158,20.2485047],[85.4940768,20.2485368],[85.4939457,20.2485782],[85.4937687,20.2486075],[85.4933769,20.248654],[85.4930956,20.2486912],[85.4928729,20.2487313],[85.4926893,20.248765],[85.4924855,20.2488036],[85.4922806,20.2488398],[85.4921072,20.2488759],[85.491911,20.2489126],[85.4917469,20.2489488],[85.491604,20.2489928],[85.4914568,20.2490571],[85.4913169,20.249135],[85.4911732,20.2492305],[85.491062,20.2493008],[85.4909279,20.2493935],[85.4908379,20.2494623],[85.4907339,20.2495361],[85.4906595,20.2495836],[85.4906036,20.249623],[85.4905557,20.2496745],[85.490515,20.2497379],[85.4904923,20.2497934],[85.4904719,20.2498584],[85.4904253,20.250002],[85.4904009,20.250061],[85.4903698,20.2501442],[85.4903481,20.2502236],[85.4903281,20.2503309],[85.4903215,20.2504336],[85.4903193,20.2505608],[85.4903285,20.2506752],[85.4903468,20.2508293],[85.490395,20.2509949],[85.4904704,20.2511766],[85.4905242,20.2513161],[85.4905535,20.2514331],[85.4905656,20.2515096],[85.4905869,20.2516182],[85.4906056,20.2517673],[85.4906118,20.2518525],[85.4906173,20.2519473],[85.4906023,20.2520385],[85.4905819,20.2521218],[85.4905566,20.2522142],[85.4905316,20.2523197],[85.4905201,20.2523857],[85.4905184,20.2524534],[85.4905262,20.2525374],[85.4905462,20.2526307],[85.4905782,20.2527241],[85.4906534,20.2529204],[85.4907727,20.253189],[85.4908875,20.2534426],[85.4913687,20.2545968],[85.4913281,20.2546932],[85.491278,20.2547694],[85.4912297,20.2548272],[85.4911754,20.2548838],[85.4911103,20.2549657],[85.4910553,20.2550454],[85.4910038,20.2551337],[85.4909418,20.2552512],[85.4908811,20.2553941],[85.4907871,20.2556992],[85.4907056,20.2560189],[85.4906252,20.2562799],[85.4902657,20.2571298],[85.4902209,20.2572466],[85.4902123,20.2573346],[85.4902106,20.2574622],[85.4902658,20.2580983],[85.4902721,20.2581787],[85.4902659,20.2582491],[85.4902505,20.258301],[85.4901983,20.2583707],[85.4899635,20.2585429],[85.4899065,20.2585802],[85.4898328,20.258606],[85.4897269,20.2586323],[85.4896195,20.2586501],[85.4895062,20.2586559],[85.4893997,20.2586603],[85.4892694,20.258663],[85.4891784,20.258663],[85.4891128,20.2586729],[85.4890547,20.2586848],[85.4889885,20.2587127],[85.4889369,20.2587459],[85.4888652,20.2587927],[85.4887607,20.2588627],[85.4886746,20.2589235],[85.4886243,20.2589718],[85.4885721,20.2590288],[85.4885101,20.2591121],[85.4884582,20.2591831],[85.4883938,20.2593037],[85.4883426,20.2594089],[85.48828,20.2595652],[85.4882322,20.2597299],[85.4881989,20.2598696],[85.4881755,20.26003],[85.4881476,20.2602534],[85.4881139,20.2604638],[85.4880908,20.2605748],[85.488065,20.2606552],[85.4880218,20.2607444],[85.4879759,20.2608328],[85.4879095,20.2609331],[85.4877826,20.2610989],[85.4877299,20.2611627],[85.487686,20.2612241],[85.4876445,20.2612756],[85.4875291,20.261441],[85.4873861,20.2616558],[85.4872603,20.2618638],[85.4871258,20.2620963],[85.4870148,20.2622541],[85.4868712,20.2624375],[85.486688,20.2626737],[85.4865798,20.2628423],[85.4865074,20.2630118],[85.4864518,20.2631764],[85.4863887,20.2634041],[85.4862917,20.2639353],[85.4862291,20.2643849],[85.4861978,20.2645261],[85.4861597,20.2647086],[85.4860696,20.2651057],[85.486063,20.2651927],[85.4860799,20.2652761],[85.4861135,20.2653864],[85.4861576,20.2655083],[85.4865093,20.2665149],[85.486528,20.2665414],[85.4865596,20.2665571],[85.4865987,20.2665559],[85.4869802,20.2664486],[85.487164,20.2664028],[85.4873139,20.2663893],[85.4875231,20.2663736],[85.4876385,20.2663619],[85.4877606,20.2663378],[85.4878666,20.2663001],[85.4879933,20.266242],[85.4881063,20.2661808],[85.4881992,20.2661313],[85.4882835,20.2660966],[85.4883818,20.2660615],[85.4884547,20.2660398],[85.4885823,20.2660141],[85.4886943,20.2660027],[85.4888274,20.2659974],[85.4889748,20.2659996],[85.4909487,20.2661439],[85.4924986,20.2663749],[85.4932143,20.2665148],[85.4934642,20.2665637],[85.4937637,20.2666385],[85.4939489,20.2666998],[85.4940465,20.2667324],[85.494132,20.2667538],[85.4942396,20.2667732],[85.4944031,20.2667993],[85.4945833,20.2668259],[85.4947916,20.2668537],[85.4951257,20.2668884],[85.4955145,20.2669268],[85.4961055,20.2669825],[85.4967717,20.2670401],[85.4981894,20.267124],[85.498361,20.2671219],[85.4984989,20.267114],[85.4986255,20.2670846],[85.4987173,20.2670397],[85.4987858,20.2669575],[85.4988226,20.2668898],[85.4988763,20.2667859],[85.4989111,20.2667249],[85.4989435,20.2666392],[85.4989811,20.2665766],[85.4990533,20.2665326],[85.4991073,20.2664921],[85.4991805,20.2664102],[85.4992774,20.2662831],[85.4994323,20.2661049],[85.4995137,20.2660074],[85.499565,20.2659278],[85.4995893,20.2658358],[85.499603,20.2657551],[85.4996235,20.2656736],[85.4996526,20.2655928],[85.4997104,20.265495],[85.4998599,20.2652793],[85.5001544,20.2648415],[85.5004669,20.2644009],[85.5008136,20.2639793],[85.5008761,20.2638972],[85.5009667,20.2637995],[85.5013906,20.2633114],[85.5018061,20.2628378],[85.5023497,20.2622244],[85.5024415,20.2621385],[85.502556,20.2620379],[85.5027121,20.2618988],[85.5027649,20.2618518],[85.5030769,20.2616193],[85.5031739,20.2615576],[85.5032308,20.2615102],[85.5032909,20.2614426],[85.5033448,20.2613614],[85.5033826,20.2612849],[85.5034284,20.2612093],[85.5034902,20.2611372],[85.5035675,20.2610758],[85.5036649,20.2610186],[85.5037589,20.2609725],[85.5038529,20.2609396],[85.5039368,20.2608992],[85.5040384,20.2608517],[85.504142,20.26078],[85.5042217,20.2607185],[85.5043009,20.2606341],[85.5043487,20.2605646],[85.5043842,20.2605009],[85.5044245,20.2604336],[85.5044772,20.2603832],[85.5047517,20.2601941],[85.504903,20.2600862],[85.5050428,20.2599949],[85.5051476,20.2599364],[85.5051939,20.2599056],[85.5052377,20.2598583],[85.505283,20.2597846],[85.5053126,20.2597361],[85.505345,20.2597032],[85.5053999,20.2596652],[85.5054695,20.2596504],[85.5055861,20.2596296],[85.5057083,20.2596038],[85.5057572,20.2595855],[85.5057945,20.2595564],[85.5058066,20.2595141],[85.5057734,20.2589457],[85.5057683,20.2588787],[85.5057684,20.2588244],[85.5057783,20.2587724],[85.5058066,20.2587351],[85.5058632,20.2586881],[85.5060472,20.2585378],[85.5062631,20.2583407],[85.5063017,20.2582986],[85.5063247,20.2582682],[85.5063497,20.2582143],[85.506568,20.2576699],[85.5066051,20.2575743],[85.5066339,20.2575169],[85.5066654,20.2574668],[85.506728,20.2573915],[85.5067961,20.2573215],[85.5068782,20.2572462],[85.5069335,20.2571987],[85.5069659,20.2571633],[85.5069926,20.2571147],[85.5070009,20.2570662],[85.5070036,20.257016],[85.5069929,20.2569515],[85.5069627,20.256866],[85.506937,20.2567809],[85.5069128,20.2566934],[85.5068963,20.2566052],[85.5069014,20.2565218],[85.5069266,20.2564013],[85.5069519,20.2562188],[85.5069706,20.2558389],[85.5070216,20.2551736],[85.5070428,20.2548721],[85.507045,20.2547601],[85.5070284,20.254643],[85.5069965,20.2544586],[85.5069803,20.2543406],[85.5069669,20.2542164],[85.5069725,20.2541103],[85.5070082,20.2539964],[85.5072319,20.2534985],[85.5074907,20.2529769]]}},{"type":"Feature","properties":{"id":1359518251,"highway":"residential"},"geometry":{"type":"LineString","coordinates":[[85.4913687,20.2545968],[85.4914818,20.2548239],[85.4916575,20.2552707],[85.4918304,20.2557614],[85.4918909,20.2559742],[85.4919566,20.2561459],[85.4921228,20.2565746],[85.492296,20.2569938],[85.4923886,20.2572763],[85.49251,20.2576823],[85.4925412,20.2577867],[85.4926498,20.2582675],[85.4927242,20.25846],[85.4927814,20.2586441],[85.4928718,20.2589116],[85.4929845,20.259275],[85.4931052,20.2596744],[85.4932056,20.2599447],[85.4933212,20.2601935],[85.4933666,20.2603819],[85.4934136,20.2606173],[85.4934393,20.2609584],[85.4934841,20.2613737],[85.4937776,20.2627301],[85.4937985,20.2628531],[85.4938111,20.2629751],[85.4938072,20.2631093],[85.493764,20.2633138],[85.4936307,20.2638571],[85.4934672,20.2645529],[85.4933739,20.2651048],[85.4932754,20.2657508],[85.4932323,20.2659505],[85.4932127,20.2661072],[85.493209,20.2662789],[85.4932143,20.2665148]]}},{"type":"Feature","properties":{"id":1361614311,"highway":"unclassified"},"geometry":{"type":"LineString","coordinates":[[85.5027121,20.2618988],[85.502515,20.2617613],[85.5022915,20.2616355],[85.5019895,20.2614721],[85.5017665,20.2613521],[85.5016205,20.2612923],[85.5011814,20.2611213],[85.5008689,20.2610007],[85.5004742,20.2608512],[85.4999857,20.2606467],[85.4995391,20.2604489],[85.4991275,20.2602881],[85.4987519,20.2601548],[85.4983915,20.2599873],[85.4980333,20.2598236],[85.4976784,20.259655],[85.4973817,20.2594951],[85.4971244,20.2593826],[85.4968136,20.2593042],[85.4963464,20.2592536],[85.4962548,20.2592456],[85.4962146,20.2592259],[85.4961847,20.2591873],[85.4961814,20.2590952],[85.4961594,20.2589696],[85.4961347,20.2588426],[85.496086,20.2587366],[85.4959621,20.258631],[85.4957993,20.2585075],[85.4957205,20.2584656],[85.4955936,20.2584537],[85.4954239,20.2584662],[85.4952561,20.2584925],[85.4950864,20.2585113],[85.4949827,20.2585352],[85.4948837,20.2585429],[85.4947446,20.2584879],[85.4945403,20.2583875],[85.4943953,20.2583122],[85.4942329,20.258264],[85.4939769,20.2581966],[85.4937814,20.2581346],[85.4935451,20.2580481],[85.4933511,20.2579859],[85.4931058,20.2579137],[85.4929727,20.2578304],[85.4928045,20.2577473],[85.49263,20.2576972],[85.49251,20.2576823]]}},{"type":"Feature","properties":{"id":1539115064,"highway":"unclassified"},"geometry":{"type":"LineString","coordinates":[[85.3977753,20.2134034],[85.3989011,20.2138604],[85.3997701,20.2141851],[85.4010308,20.214467],[85.4017013,20.214608],[85.4025221,20.2148748],[85.4027957,20.21491],[85.4031765,20.21491],[85.4034716,20.2149352],[85.4039973,20.2150459],[85.4045767,20.2152725],[85.4054296,20.2155342],[85.4059124,20.2159168],[85.4060894,20.2160276],[85.4062396,20.2160628],[85.4075217,20.2159873],[85.4077685,20.2160125],[85.4080474,20.2161282],[85.4091096,20.2169488],[85.4094422,20.2170796],[85.4095709,20.2172357],[85.4095119,20.2174975],[85.4094422,20.2176837],[85.4094422,20.2178498],[85.4094905,20.2181569],[85.409351,20.2186049],[85.4093617,20.2191284],[85.4093349,20.2197325],[85.4093671,20.2200748],[85.4092222,20.2204523],[85.4091096,20.2209809],[85.4091579,20.2213786],[85.4092973,20.2218266],[85.4093939,20.2222242],[85.4093993,20.222642],[85.4093295,20.2229592],[85.409292,20.2232712],[85.4092812,20.223377],[85.4091901,20.2234978],[85.4090774,20.223538],[85.4089326,20.223528],[85.4087931,20.2234525],[85.4086375,20.2234424],[85.4085141,20.2234877],[85.4076129,20.2241723],[85.40757,20.2242478],[85.4076129,20.224434],[85.4076397,20.2245699],[85.4076612,20.2248619],[85.4076397,20.2261203],[85.4077202,20.2271925],[85.4078092,20.2275972]]}},{"type":"Feature","properties":{"id":1539115065,"highway":"unclassified"},"geometry":{"type":"LineString","coordinates":[[85.4550166,20.2167871],[85.4544818,20.2169085],[85.4529583,20.2174018],[85.4521269,20.2177643],[85.451569,20.2180311],[85.4511559,20.2183079],[85.4506892,20.2187207],[85.4499811,20.2194154],[85.44842,20.2207896],[85.4477656,20.2213484],[85.4475295,20.2215044],[85.4472077,20.2216202],[85.4469663,20.2216856],[85.4466981,20.221746],[85.4464889,20.2218316],[85.446226,20.222043],[85.4455286,20.2224507],[85.4449278,20.2226924],[85.4441071,20.2229793],[85.4433775,20.223241],[85.4426104,20.2235481],[85.4421598,20.2237545],[85.4416072,20.2240263],[85.4410547,20.2241874],[85.4406953,20.2243636],[85.4399925,20.2248367],[85.4393595,20.2252142],[85.4387426,20.2255314],[85.4382706,20.225783],[85.4379165,20.2259441],[85.4377556,20.2260901],[85.4376161,20.226372],[85.4375142,20.2264626],[85.4372513,20.2265431],[85.4371118,20.2266337],[85.436967,20.22683],[85.4368329,20.2270364],[85.4366881,20.2271623],[85.4364842,20.227273],[85.4362965,20.2274643],[85.4362374,20.2275096],[85.4361623,20.2278066],[85.4360738,20.2281237],[85.4360712,20.2284483],[85.4360417,20.2286723],[85.4359746,20.2287428],[85.4356876,20.2288007],[85.4354435,20.2288888],[85.435304,20.2290146],[85.4351941,20.22908],[85.4351136,20.2291153],[85.434612,20.2292436],[85.4344891,20.2293113]]}},{"type":"Feature","properties":{"id":1539115066,"highway":"unclassified"},"geometry":{"type":"LineString","coordinates":[[85.4017013,20.214608],[85.4019803,20.2145828],[85.4029673,20.2145274],[85.4034555,20.2145526],[85.4036647,20.2145174],[85.4039544,20.2143915],[85.4046249,20.2140945],[85.4052687,20.2138025],[85.4058695,20.2135206],[85.4063255,20.2133746],[85.4067922,20.2132438],[85.4073071,20.2131129],[85.4076666,20.212977],[85.4082406,20.2128058],[85.4094207,20.212534],[85.4096246,20.2125088],[85.4099089,20.2125138],[85.4101181,20.2125642],[85.4104239,20.212534],[85.4105526,20.2124433],[85.4106653,20.2122923],[85.4110569,20.2122067],[85.4113948,20.2121816],[85.4117435,20.2122017],[85.4121566,20.212252],[85.4124194,20.2123225],[85.4126501,20.2122672],[85.4129076,20.2122118],[85.4136211,20.2122067],[85.4141521,20.2122269],[85.4145437,20.2123125],[85.4148441,20.2124786],[85.4151124,20.2126296],[85.4156971,20.2126749],[85.4159063,20.2127555],[85.4161745,20.212836],[85.4164857,20.2128763],[85.4171508,20.2128511],[85.4175585,20.2128813],[85.4178536,20.2129367],[85.4181379,20.2129014],[85.4182881,20.2128209],[85.4184544,20.2128159],[85.418787,20.2128159],[85.4196989,20.2126497],[85.4199833,20.2125944],[85.4204714,20.2125944],[85.420745,20.2125944],[85.4210347,20.2124735],[85.4212278,20.2124484],[85.4214477,20.2124534],[85.4218823,20.2124282],[85.4235291,20.2122621],[85.4247844,20.212101],[85.4251438,20.2120003],[85.425396,20.2119148],[85.4257876,20.2118644],[85.426088,20.2117939],[85.4263133,20.2117335],[85.4264796,20.2117084],[85.4266781,20.2117033],[85.426839,20.2117436],[85.427134,20.2117688],[85.4274988,20.2117537],[85.4276383,20.2117134],[85.427767,20.2116178],[85.4279387,20.2114063],[85.4281211,20.2112805],[85.4282659,20.2111169],[85.4284242,20.2110464],[85.4285341,20.2110061],[85.4286146,20.2109507],[85.4286414,20.2108954],[85.4286709,20.2107771],[85.4287192,20.2107116],[85.4288962,20.2107091],[85.4292208,20.2106915],[85.4298592,20.2106059],[85.4305431,20.2104826],[85.4311895,20.2102812],[85.431903,20.2100219],[85.4334319,20.2095085],[85.4343545,20.2092064],[85.4346147,20.2091334],[85.4352611,20.2090176],[85.4361543,20.2089195],[85.4363635,20.2089195],[85.4366049,20.2088037],[85.4379031,20.2085947],[85.4384637,20.2084488],[85.4386756,20.2083154],[85.4389411,20.2081895],[85.4394212,20.2080913],[85.4397377,20.2080712],[85.4400784,20.2081115],[85.4407355,20.2081341],[85.4412156,20.208187],[85.4418674,20.208197],[85.442208,20.2082147],[85.4425433,20.2082122],[85.4427633,20.2081769],[85.4430073,20.2080636],[85.4433668,20.2078421],[85.4435921,20.2076785],[85.4437852,20.207598],[85.4438925,20.20753],[85.4439676,20.2074067],[85.4440883,20.2071524],[85.4441687,20.2070266],[85.4442063,20.206936],[85.4442143,20.2063394],[85.4442492,20.2059946],[85.4442733,20.2058687],[85.4443216,20.2057982],[85.4444665,20.2057126],[85.4445094,20.2056422],[85.4445201,20.2054987],[85.4443994,20.2045019],[85.4443136,20.2039406],[85.4443485,20.203636],[85.4443828,20.203581]]}},{"type":"Feature","properties":{"id":1539115067,"highway":"unclassified"},"geometry":{"type":"LineString","coordinates":[[85.4173922,20.2239156],[85.4178214,20.2237318],[85.4181567,20.2235959],[85.4183418,20.2233921],[85.4184303,20.2233342],[85.4186502,20.2232612],[85.4188541,20.2232436],[85.4190955,20.2232058],[85.4195273,20.2231076],[85.4199672,20.2230296],[85.4201576,20.2229818],[85.4202193,20.222944],[85.4202005,20.2228383],[85.420171,20.2224986],[85.4201335,20.2223803],[85.4201335,20.2223098]]}},{"type":"Feature","properties":{"id":1539115068,"highway":"unclassified"},"geometry":{"type":"LineString","coordinates":[[85.4163784,20.2244542],[85.4167271,20.2242377],[85.417242,20.2239961],[85.4173922,20.2239156],[85.4174244,20.2238501],[85.4174083,20.2237243],[85.417403,20.2235582],[85.4174244,20.2233568],[85.4176015,20.2231504],[85.4179448,20.2229189],[85.4181594,20.222788],[85.4184437,20.2226471],[85.419023,20.2224105],[85.419479,20.2222393],[85.4197311,20.2222293],[85.4199779,20.2223098],[85.4201335,20.2223098],[85.420171,20.2222242],[85.4202139,20.2220531],[85.4203346,20.221819],[85.4203668,20.2217007],[85.4204017,20.2213685],[85.4204822,20.2209809],[85.4204875,20.2207745],[85.4203963,20.2202157],[85.4203802,20.2200094],[85.4204178,20.2198835],[85.4207343,20.2195664],[85.4210561,20.2192845],[85.4213726,20.2191486],[85.4220539,20.2189221],[85.4222631,20.2188113],[85.4223221,20.218761],[85.4223651,20.2186301],[85.4223221,20.218469],[85.4221719,20.2181217],[85.4221076,20.2180109],[85.4220915,20.2179304],[85.4220968,20.2178549],[85.4221559,20.2176535],[85.4221988,20.2174069],[85.42229,20.2173162],[85.4224509,20.2172407],[85.4224992,20.2171501],[85.4224992,20.216984],[85.4224133,20.2165813],[85.4223651,20.2161182],[85.4224402,20.2159722],[85.4224992,20.215942],[85.4226869,20.2159017],[85.42288,20.2158312],[85.4229873,20.2157457],[85.4230624,20.2156148],[85.4231429,20.2152674],[85.4232234,20.2150409],[85.423277,20.2147942],[85.4232717,20.214316],[85.4232717,20.2140542],[85.4232985,20.2139485],[85.4234433,20.2137975],[85.4240441,20.2133092],[85.4247683,20.2126799],[85.4251653,20.2122571],[85.425396,20.2119148]]}},{"type":"Feature","properties":{"id":1539115069,"highway":"unclassified"},"geometry":{"type":"LineString","coordinates":[[85.4422235,20.2431368],[85.4411727,20.2416986],[85.4377824,20.2380294],[85.4371762,20.237365],[85.4358888,20.2356436],[85.4357278,20.2352913],[85.4351163,20.234189],[85.4349285,20.2336202],[85.4349285,20.2334239],[85.4350305,20.2320347],[85.4349607,20.2314458],[85.4346925,20.2298904],[85.4346389,20.2294072],[85.4345477,20.2293418],[85.4344891,20.2293113],[85.4344511,20.2292915],[85.4342794,20.2292814],[85.4339737,20.2292915],[85.4337698,20.2293317],[85.4336142,20.2294072],[85.4334158,20.2294324],[85.4333407,20.2294123],[85.4331422,20.2291002],[85.4329866,20.2289743],[85.4327667,20.2289945],[85.4326647,20.2290045],[85.4324502,20.2288586],[85.4319191,20.228476],[85.4314578,20.2282948],[85.430932,20.228179],[85.4305673,20.2281438],[85.4301006,20.2282948],[85.429709,20.2283904],[85.4294139,20.2284055],[85.4288024,20.2283602],[85.428561,20.2284005],[85.4282606,20.2284609],[85.4280728,20.2284609],[85.4277563,20.2284358],[85.4272199,20.2284609],[85.4268068,20.2285113],[85.426501,20.2284609],[85.426206,20.2284811],[85.425809,20.228622],[85.4252511,20.2288334],[85.4249185,20.2289542],[85.4246664,20.2290347],[85.4244143,20.2290901],[85.4242533,20.2290901],[85.4239851,20.2290599],[85.4237974,20.2291052],[85.4221988,20.2297898],[85.4213029,20.2300062],[85.420965,20.2300565],[85.4207182,20.2301723],[85.42045,20.2302428],[85.42023,20.2302428],[85.4199779,20.2301471],[85.4197365,20.2300314],[85.4195702,20.2299055],[85.4193878,20.2296841],[85.4192805,20.2295532],[85.4191893,20.2294022],[85.4191035,20.2292059],[85.4190177,20.228768],[85.4189318,20.2286421],[85.418846,20.2284206],[85.4186851,20.2279425],[85.4185402,20.2276505],[85.4184276,20.2274995],[85.4182988,20.2271975],[85.4180896,20.2263921],[85.4179394,20.2258435],[85.4178697,20.22532],[85.4178321,20.2250632],[85.4177839,20.2248569],[85.4177034,20.2247763],[85.4175156,20.2246958],[85.4163784,20.2244542],[85.4160941,20.2245095],[85.4153699,20.2245599],[85.4149193,20.2246706],[85.414533,20.2249022],[85.4142433,20.2252293],[85.4138625,20.2256421],[85.4135942,20.2257881],[85.4131544,20.2259945],[85.4127788,20.2263216],[85.4124409,20.2264978],[85.4121888,20.2264425],[85.4118293,20.2263921],[85.4115343,20.2263921],[85.4111695,20.2263669],[85.4109979,20.2262612],[85.4107135,20.2261807],[85.4102898,20.2261908],[85.4100859,20.2263418],[85.4078092,20.2275972],[85.4074842,20.2277764],[85.4068297,20.2281941],[85.4062879,20.2284559],[85.405907,20.2288586],[85.4056334,20.2292512],[85.4054242,20.2294374],[85.4049146,20.2295884],[85.4043835,20.2296035],[85.4039973,20.229518],[85.4030263,20.2295834],[85.402742,20.229679],[85.4022646,20.2299559],[85.4015779,20.2303737],[85.4009449,20.2307361],[85.400387,20.230872],[85.3994474,20.2309461]]}}]}