{"type":"FeatureCollection","features":[{"type":"Feature","properties":{"id":561748704,"highway":"tertiary"},"geometry":{"type":"LineString","coordinates":[[85.9827474,20.2776356],[85.9835167,20.2783967],[85.9843933,20.2798917],[85.9852267,20.28132],[85.98647,20.282425],[85.9880683,20.282975],[85.9891767,20.284105],[85.9901619,20.2847535],[85.9907117,20.2849749],[85.9920475,20.2854856],[85.9932464,20.2859409],[85.9932514,20.2859429],[85.9936595,20.2861045],[85.9939384,20.2862127],[85.9941423,20.2862705],[85.9944159,20.2862881],[85.9948745,20.2862881],[85.9950274,20.2863334],[85.9951669,20.2864567],[85.995301,20.2866202],[85.9959117,20.287105],[85.9962344,20.2873247],[85.9964356,20.2875335],[85.9966341,20.2876995],[85.9969532,20.2878505],[85.9971812,20.2879159],[85.9974387,20.2879662],[85.997892,20.2879763],[85.9982809,20.288019],[85.9984714,20.2879637],[85.99868,20.2878483],[85.9989676,20.2876089],[85.9991366,20.2875586],[85.9993646,20.2875964],[85.9996194,20.2876693],[85.9999064,20.287853],[86.0000271,20.2880442],[86.000137,20.2882203],[86.0005689,20.2885876],[86.0006332,20.2886933],[86.0006332,20.2887914],[86.0005715,20.288892],[86.0002148,20.2892266],[86.0001022,20.2893574],[85.999968,20.2897298],[85.9998313,20.2900593],[85.999783,20.2902933],[85.9997803,20.2905851],[85.9998178,20.2910505],[85.9997615,20.2915512],[85.9997937,20.2918682],[86.0000002,20.2925172],[86.0000271,20.2926682],[86.0000297,20.2928543],[86.0000378,20.2929826],[86.0001236,20.2931889],[86.0004991,20.2937625],[86.0009712,20.2942204],[86.0014594,20.2949801],[86.0016686,20.2953675],[86.0018027,20.2958002],[86.0023552,20.2969901],[86.002441,20.2970757],[86.0025912,20.2970958],[86.0031518,20.2970782],[86.0035488,20.2970807],[86.0037312,20.2971109],[86.0038519,20.297209],[86.0039753,20.2973926],[86.0040665,20.2975738],[86.0042274,20.2978505],[86.0047102,20.2984417],[86.0049301,20.2985825],[86.0053647,20.2987083],[86.0057509,20.2988693],[86.0061425,20.2988995],[86.0063785,20.2988643],[86.0066583,20.2986417],[86.007785,20.297365],[86.0083117,20.2959367],[86.0088417,20.2948833],[86.0091868,20.2945952],[86.0094336,20.2944191],[86.0096294,20.2943009],[86.0098118,20.294248],[86.0100183,20.2942204],[86.0101658,20.294243],[86.0102999,20.2942933],[86.0103723,20.2943914],[86.0104689,20.2946631],[86.0105628,20.2948166],[86.0106647,20.2949147],[86.0108069,20.2949977],[86.0110134,20.2950329],[86.011236,20.2950757],[86.0118633,20.2953233],[86.0123518,20.2954782],[86.0129285,20.2955285],[86.0133791,20.2955411],[86.0134864,20.2955939],[86.0135883,20.2957952],[86.0136822,20.2958707],[86.0137895,20.2958707],[86.0141194,20.2957499],[86.0142749,20.2956895],[86.0145485,20.2956342],[86.014806,20.2956493],[86.0149991,20.2957248],[86.0152137,20.2959159],[86.015541,20.2962983],[86.0161525,20.2971134],[86.0166138,20.2978228],[86.0170752,20.2984215],[86.0172093,20.2987385],[86.0173005,20.2992165],[86.017279,20.299453],[86.0171771,20.2996542],[86.0167195,20.3002236],[86.0162115,20.3008516],[86.0157394,20.3011736],[86.0152352,20.3014654],[86.014688,20.3018679],[86.0141837,20.3020088],[86.0134327,20.3023409],[86.0129607,20.3025421],[86.0126495,20.3026528],[86.0128534,20.3034075],[86.0130787,20.3040514],[86.0133362,20.3045948],[86.013701,20.3053293],[86.0139477,20.305923],[86.0142374,20.3060966],[86.0148704,20.3058526],[86.0157984,20.3054702],[86.0161686,20.3052489],[86.0165575,20.3050325],[86.0169679,20.3048363],[86.0172737,20.3047759],[86.0175607,20.3047482],[86.0178697,20.3047255],[86.0180408,20.304781],[86.0182017,20.304796],[86.0183439,20.3047583],[86.018663,20.3046703],[86.0192612,20.304459],[86.0196608,20.3043231],[86.0200363,20.3041093],[86.0203555,20.3039231],[86.0205621,20.3037445],[86.0209537,20.3034628],[86.0212299,20.3033421],[86.0214606,20.3032716],[86.0217261,20.3032112],[86.0219058,20.3031257],[86.0226917,20.3026956],[86.0231021,20.3024692],[86.0235232,20.302278],[86.0238317,20.3021295],[86.0241616,20.3019031],[86.0247168,20.3015233],[86.0248911,20.301468],[86.0252264,20.3014101],[86.0259265,20.301234],[86.0264951,20.301073],[86.0266587,20.3009875],[86.026758,20.3008567],[86.0268626,20.3005221],[86.0269859,20.3003133],[86.0275251,20.2997573],[86.0277691,20.2993297],[86.0278416,20.2991335],[86.0278201,20.2989398],[86.027694,20.2983989],[86.0277289,20.2983083],[86.027973,20.2982253],[86.0280669,20.2982379]]}},{"type":"Feature","properties":{"id":867635461,"highway":"secondary"},"geometry":{"type":"LineString","coordinates":[[85.9998101,20.2394123],[85.9999549,20.2395057],[86.000004,20.2395627],[86.000025,20.2396591],[86.0000133,20.2397708]]}},{"type":"Feature","properties":{"id":1210250342,"highway":"primary"},"geometry":{"type":"LineString","coordinates":[[86.0067847,20.2278632],[86.0066602,20.2280244],[86.0065913,20.2281078],[86.0056649,20.2292991],[86.0047044,20.2304819],[86.0043866,20.2308733],[86.004047,20.2313094],[86.0029261,20.2327488],[86.0018389,20.2340563],[86.0014929,20.2345217],[86.001442,20.2346257],[86.0013934,20.2347297],[86.0012989,20.2350149],[86.0010955,20.2356091],[86.0006775,20.2368302],[86.0005319,20.2372558],[86.0003489,20.2378026],[85.9999876,20.238882],[85.9998815,20.2391992],[85.9998101,20.2394123],[85.9997064,20.2397223],[85.999335,20.240675],[85.9989709,20.2411986],[85.9987163,20.2414354],[85.9980202,20.2419354]]}},{"type":"Feature","properties":{"id":1486283582,"highway":"secondary"},"geometry":{"type":"LineString","coordinates":[[86.0000133,20.2397708],[85.9998006,20.2410191],[85.999608,20.2422597],[85.9995769,20.2425705],[85.9995741,20.2428547],[85.9996052,20.2431788],[85.9996675,20.2434338],[85.9998402,20.2438589],[86.0000809,20.2443184],[86.0011851,20.2461939],[86.0018392,20.2471555],[86.0028528,20.2486298],[86.0034239,20.2494242],[86.0036776,20.2497873],[86.0038239,20.2499338],[86.0039996,20.2500711],[86.0042955,20.250245],[86.0052745,20.2507851],[86.0053883,20.2508645],[86.0056453,20.2510872],[86.0065949,20.2518806],[86.0067836,20.2520057],[86.0071446,20.2522193],[86.0081106,20.2528112],[86.0085691,20.2530187],[86.0094538,20.2533086],[86.0101888,20.2535618],[86.0104653,20.2536259],[86.0107417,20.2536686],[86.0108211,20.2537053],[86.01086,20.2537516],[86.0108849,20.2537958]]}}]}