{"type":"FeatureCollection","features":[{"type":"Feature","properties":{"id":1150649134,"highway":"unclassified"},"geometry":{"type":"LineString","coordinates":[[85.4724027,20.3255174],[85.4721163,20.3256633],[85.47129,20.3259969],[85.4695867,20.3266329],[85.4684639,20.3270253]]}},{"type":"Feature","properties":{"id":1150649135,"highway":"unclassified"},"geometry":{"type":"LineString","coordinates":[[85.4724027,20.3255174],[85.4731117,20.3252051],[85.4736632,20.3248107],[85.4754603,20.3233751],[85.4773486,20.3226829],[85.4789107,20.3226024]]}},{"type":"Feature","properties":{"id":1150649136,"highway":"residential"},"geometry":{"type":"LineString","coordinates":[[85.4724806,20.3336751],[85.4737105,20.3333879],[85.4739024,20.3333791],[85.4742311,20.333364],[85.4752569,20.3334932],[85.476742,20.3335411],[85.4779464,20.3337325],[85.4780383,20.3337612],[85.4778954,20.3343785]]}},{"type":"Feature","properties":{"id":1150649141,"highway":"residential"},"geometry":{"type":"LineString","coordinates":[[85.4397108,20.3520849],[85.4430582,20.3528897],[85.4451525,20.3535495],[85.4462339,20.3533886],[85.4470064,20.3537748],[85.4476587,20.3542738],[85.4490664,20.3545635],[85.4511531,20.355276],[85.4517451,20.3556444],[85.4523728,20.3561899],[85.4528985,20.3563669],[85.4538274,20.3564148],[85.4564455,20.3576445],[85.4599222,20.3595309],[85.4613409,20.3602678],[85.4636784,20.3606792],[85.4664832,20.3617141],[85.4698134,20.3625993],[85.4752894,20.3625832],[85.4816409,20.362889]]}},{"type":"Feature","properties":{"id":1150649143,"highway":"residential"},"geometry":{"type":"LineString","coordinates":[[85.4739024,20.3333791],[85.4737597,20.3318294],[85.4730216,20.3296241],[85.4727641,20.3283042],[85.4724027,20.3255174]]}},{"type":"Feature","properties":{"id":1150649144,"highway":"residential"},"geometry":{"type":"LineString","coordinates":[[85.4780383,20.3337612],[85.4799857,20.3344375],[85.4812481,20.3349952],[85.4819278,20.3358318],[85.4831234,20.3371691],[85.4848895,20.3388906],[85.4863461,20.3393914],[85.4895628,20.3394028],[85.4902183,20.3395963],[85.4909708,20.3395166],[85.4919055,20.3397442],[85.4925025,20.3412835],[85.4926913,20.3420078],[85.4927943,20.3439714],[85.4928801,20.3451625],[85.4930175,20.3457258],[85.4930175,20.3460477],[85.4937041,20.3463374],[85.493776,20.3476607],[85.4938474,20.3479143],[85.4958021,20.3484646],[85.4969861,20.3486847],[85.4976887,20.3489469],[85.4992165,20.3505242],[85.5009482,20.3523348],[85.5009825,20.352544],[85.5009138,20.3528257],[85.5001414,20.3542903],[85.5001039,20.3550651]]}},{"type":"Feature","properties":{"id":1150649145,"highway":"residential"},"geometry":{"type":"LineString","coordinates":[[85.4816409,20.362889],[85.4821037,20.3627884],[85.4821037,20.3571395],[85.4826015,20.3569303],[85.4839405,20.3565119],[85.4855985,20.3545179]]}},{"type":"Feature","properties":{"id":1302674870,"highway":"unclassified"},"geometry":{"type":"LineString","coordinates":[[85.4320505,20.3915618],[85.4317016,20.3915752],[85.4307077,20.3915955],[85.4304856,20.3916083],[85.4300722,20.3916635],[85.4294347,20.3917771],[85.4285423,20.3919533],[85.4275605,20.3921549],[85.4268867,20.3922908],[85.4263205,20.3924023],[85.4256037,20.3925445],[85.424351,20.392768],[85.422893,20.3930646],[85.4215883,20.3932996],[85.4209773,20.3933977],[85.4205075,20.3935072],[85.4203079,20.3935437],[85.4200986,20.3935437],[85.4196531,20.3935072],[85.4185797,20.3934479],[85.4178009,20.39341],[85.417124,20.3933771],[85.4169999,20.3933771],[85.4168904,20.3933726],[85.4167492,20.3933361],[85.4164692,20.3931786],[85.415722,20.3928204],[85.4146777,20.3922728],[85.4128204,20.3913032],[85.4120318,20.3908628],[85.4114938,20.3904658],[85.4111068,20.3901281],[85.4104009,20.3894893],[85.4100367,20.3890461],[85.4096684,20.3886315],[85.4093884,20.3885292],[85.4084246,20.3883939],[85.4082585,20.3878257],[85.4072771,20.3874109],[85.4066525,20.3871466],[85.4062386,20.3870697],[85.4059102,20.3870931],[85.4056105,20.3872269],[85.4054296,20.3874242],[85.4053928,20.3874644],[85.4052215,20.3876317],[85.405068,20.3876651],[85.4045684,20.3878658],[85.4040545,20.3880966],[85.4034585,20.3882438],[85.4030802,20.3883843],[85.4028019,20.3886118],[85.4023486,20.3887255],[85.4017348,20.3887556],[85.4011888,20.3887623],[85.40055,20.3888393],[85.4002145,20.3888995],[85.3999326,20.3891035],[85.3996114,20.3894414],[85.3992447,20.3900577],[85.3990655,20.3904204],[85.3989364,20.3906027],[85.3988022,20.3906893],[85.398569,20.3907532],[85.3983645,20.3907738],[85.3985352,20.3908565],[85.3986841,20.3909343],[85.3987633,20.3910156],[85.3988255,20.3911128],[85.3988557,20.3912135],[85.3988859,20.3913761],[85.3989161,20.3915352],[85.3989387,20.3917296],[85.3989481,20.3918692],[85.3989311,20.3920796],[85.3989236,20.3922174],[85.3989236,20.3924278],[85.3989481,20.3928502],[85.3989651,20.3931665],[85.3989934,20.3932567],[85.3990499,20.3933345],[85.3991423,20.3934051],[85.3992442,20.3934864],[85.3992913,20.3935607],[85.3993064,20.3936314],[85.3993196,20.3937427],[85.3993007,20.3941086],[85.399312,20.3942076],[85.3993573,20.3943118],[85.3994233,20.3944161],[85.3995251,20.3945416],[85.3996345,20.3946636],[85.3997646,20.3947767],[85.3999041,20.3948845],[85.4001266,20.3950064],[85.4003661,20.3951867],[85.4005415,20.3953016]]}},{"type":"Feature","properties":{"id":1302674871,"highway":"unclassified"},"geometry":{"type":"LineString","coordinates":[[85.4320505,20.3915618],[85.4325149,20.391548],[85.4328084,20.3915415],[85.4333075,20.3915364],[85.4340383,20.3915145],[85.4345011,20.3914762],[85.4348954,20.3913553],[85.4353603,20.3911728],[85.435818,20.3909834],[85.4363754,20.3907233],[85.4368987,20.390502],[85.4371933,20.3903811],[85.4374026,20.3903377],[85.4377775,20.3902556],[85.4383008,20.390178],[85.4388899,20.3900844],[85.4396566,20.3899704],[85.4402944,20.3898449],[85.4416656,20.3895403],[85.4419277,20.3894821],[85.4427456,20.3893155],[85.4432884,20.3891513],[85.4436024,20.3889801],[85.4438872,20.3887885],[85.444447,20.3882956],[85.4447878,20.3879762],[85.4451849,20.387669],[85.4455044,20.3875521],[85.4463244,20.387367],[85.4471772,20.3871896],[85.4481236,20.3869912],[85.4486075,20.386902],[85.4490498,20.3868568],[85.4494157,20.3867909],[85.4498117,20.3866062],[85.4501917,20.3863593],[85.4506359,20.386039],[85.4512069,20.3855208],[85.4516331,20.3851401],[85.4518683,20.385012],[85.4522583,20.3848405],[85.4526141,20.3847632],[85.4532031,20.3846464],[85.4536092,20.384556],[85.4539188,20.3844862],[85.4542927,20.3844259],[85.4545802,20.3844222],[85.4549642,20.3844391],[85.4553843,20.384473],[85.4560457,20.3845616],[85.4565161,20.3846992],[85.4568458,20.3848518],[85.4574911,20.3851326],[85.4580661,20.3853983],[85.4585767,20.3856489],[85.4590049,20.3859278],[85.4594833,20.3863009],[85.460002,20.3866985],[85.4606654,20.3871659],[85.4612806,20.3876219],[85.46194,20.3880892],[85.4624968,20.3884698],[85.4635206,20.3892334],[85.4651408,20.390441],[85.4657082,20.3908992],[85.4659652,20.3911702],[85.4665647,20.3919764],[85.4668859,20.3918559],[85.4672142,20.3917355],[85.4676532,20.3915683],[85.4680386,20.3914445],[85.4684098,20.3913843],[85.4687774,20.391314],[85.4689843,20.3912639],[85.4694312,20.3913293],[85.4699757,20.3914387],[85.4703689,20.3915075],[85.4705763,20.3914913],[85.4708831,20.3914306],[85.4714319,20.391868],[85.4717301,20.3922001],[85.4718856,20.3925161],[85.4719202,20.3926376],[85.471864,20.3928361],[85.4718165,20.3929495],[85.4716696,20.3931317],[85.4715227,20.3932573],[85.4713864,20.3933915],[85.4712702,20.3935067],[85.4711689,20.3937494],[85.4710561,20.3939424],[85.4708881,20.3944313],[85.4707938,20.3946413],[85.4706494,20.3948872],[85.4703546,20.395296],[85.4701218,20.3956469],[85.469883,20.395937],[85.4697209,20.3961635],[85.469547,20.3964978],[85.4695015,20.3966827],[85.4694498,20.3968928],[85.4694439,20.3971801],[85.4694999,20.3975558],[85.4695913,20.3981498],[85.4696384,20.3983956],[85.4696089,20.3986498],[85.4695677,20.3991443],[85.4696148,20.3993073],[85.4697091,20.3995006],[85.4698153,20.3998045],[85.46983,20.4001001],[85.4698182,20.4004592],[85.4698182,20.4006498],[85.4698388,20.4008377],[85.4700068,20.4012134],[85.470054,20.4014151],[85.4700805,20.4016388],[85.4701336,20.4018432],[85.4702544,20.4019786],[85.4704254,20.4021637],[85.4705875,20.402451],[85.4707761,20.4028073],[85.4708321,20.4030339],[85.4708969,20.4032935],[85.4711268,20.4034676],[85.4712035,20.4036002],[85.4712064,20.4038819],[85.4711733,20.4040226],[85.4711622,20.4040698],[85.4711534,20.4042107],[85.4712388,20.4043902],[85.4712771,20.4045062],[85.4713832,20.4045919],[85.4716013,20.4047908],[85.4716986,20.4049786],[85.4717576,20.4051167],[85.4719138,20.40523],[85.4720376,20.4053322],[85.4722026,20.4053653],[85.4723765,20.4053571],[85.4726642,20.4053422]]}},{"type":"Feature","properties":{"id":1302674872,"highway":"unclassified"},"geometry":{"type":"LineString","coordinates":[[85.4665647,20.3919764],[85.4663724,20.39205],[85.4659377,20.3921747],[85.465418,20.39237],[85.4648394,20.3925603],[85.4644979,20.3927222],[85.4642607,20.3929253],[85.4640468,20.3931412],[85.4637644,20.3932144],[85.4631885,20.3932941],[85.4626002,20.3933738],[85.4621093,20.3934548],[85.4616541,20.3936219],[85.4613895,20.3937401],[85.4608533,20.3938828],[85.4605365,20.393922],[85.4601738,20.3938969],[85.4598208,20.3938764],[85.459407,20.3939289],[85.4591417,20.3939882],[85.4590516,20.3940224],[85.4589007,20.3941411],[85.4587863,20.3943053],[85.4586086,20.3944308],[85.4581218,20.3946864],[85.4573721,20.3950583],[85.4568828,20.3952978],[85.4563838,20.395583],[85.4561891,20.3956515],[85.455897,20.3957085],[85.4554223,20.3957199],[85.4547724,20.3957769],[85.4545217,20.3958294],[85.4542101,20.3958796],[85.4539642,20.3959161],[85.4535991,20.3958819],[85.4532875,20.3958454],[85.4530076,20.3958705],[85.4527374,20.3959298],[85.4524307,20.3960735],[85.4523869,20.3962926],[85.4523674,20.3963701],[85.4521995,20.3964591],[85.4519926,20.3965116],[85.4516567,20.3965732],[85.4510822,20.3967443],[85.4506927,20.3969268],[85.4502035,20.397139],[85.4500696,20.3973831],[85.4499455,20.3976729],[85.4497337,20.3979421],[85.4494464,20.3984372],[85.449391,20.3984775],[85.4493272,20.3985239],[85.4491057,20.3985444],[85.4487625,20.3986129],[85.4481953,20.3987407],[85.4479056,20.3988045],[85.4478015,20.3986829],[85.447327,20.3980498],[85.4470798,20.3976636],[85.4468144,20.3970097],[85.4467239,20.3966611],[85.4465209,20.3960732],[85.4464043,20.3957322],[85.4463138,20.3956041],[85.4460625,20.3954891],[85.4458776,20.39541],[85.445757,20.3953252],[85.4455358,20.3951009],[85.4453489,20.3948654],[85.445184,20.3945884],[85.4449408,20.3941437],[85.4448563,20.3938592],[85.4447699,20.3935049],[85.4447518,20.3931658],[85.4447739,20.3931111],[85.4447297,20.3930904],[85.44478,20.3929359],[85.44478,20.3928662],[85.4447578,20.3927851],[85.4447136,20.3926966],[85.4446392,20.3925571],[85.4445649,20.3924723],[85.4444865,20.3924365],[85.444402,20.3924102],[85.4442854,20.392397],[85.4440944,20.3924064],[85.4437768,20.3924554],[85.4433848,20.3925345],[85.4431114,20.3926174],[85.4429144,20.3926966],[85.4428471,20.3927303],[85.4427717,20.3927682],[85.4426008,20.3929076],[85.4425043,20.3930113],[85.4423673,20.393179]]}},{"type":"Feature","properties":{"id":1302674873,"highway":"unclassified"},"geometry":{"type":"LineString","coordinates":[[85.4428471,20.3927303],[85.4426371,20.3924953],[85.4424421,20.392239],[85.4423677,20.3921184],[85.4423074,20.3919131],[85.4422532,20.3917001],[85.4421828,20.3914797],[85.4421546,20.3912893],[85.4420883,20.3910481],[85.4419798,20.3907127],[85.4419054,20.3904508],[85.441831,20.39017],[85.4417445,20.3898572],[85.4416656,20.3895403]]}},{"type":"Feature","properties":{"id":1302674874,"highway":"unclassified"},"geometry":{"type":"LineString","coordinates":[[85.4711689,20.3937494],[85.4713846,20.3937928],[85.4718047,20.3938908],[85.4720701,20.3939379],[85.4725164,20.3939944],[85.472641,20.394017],[85.4727134,20.3941169],[85.4727616,20.3941339],[85.4728702,20.3941056],[85.4729245,20.3940547],[85.473415,20.3941621],[85.4740322,20.3942808],[85.474577,20.3943675],[85.4748323,20.3944146],[85.475168,20.3944975],[85.475566,20.3946426],[85.4758012,20.3947745],[85.4760204,20.3948895],[85.4762335,20.394995],[85.4765611,20.3950779],[85.4770195,20.3951457],[85.4772044,20.3951815],[85.4773914,20.3952324],[85.4775944,20.3952701],[85.4777432,20.395287],[85.4779704,20.395321],[85.478298,20.395402],[85.4786076,20.3954717],[85.4791725,20.3956507],[85.4797093,20.3958844],[85.4803606,20.3961802],[85.4809927,20.3964827]]}},{"type":"Feature","properties":{"id":1489414046,"highway":"unclassified"},"geometry":{"type":"LineString","coordinates":[[85.4084246,20.3883939],[85.4083714,20.3886063],[85.4083274,20.3888269],[85.4082725,20.3890475],[85.4082153,20.3891939],[85.4081097,20.3894062],[85.4080789,20.389466],[85.4080217,20.3895135],[85.4078501,20.3896207],[85.4077731,20.3896722],[85.4077203,20.3897341],[85.4076984,20.3898083],[85.4076456,20.3901341],[85.407617,20.3902165],[85.4075774,20.3902846],[85.4075026,20.3903423],[85.4073156,20.3904351],[85.4068779,20.3906557],[85.4066931,20.390767],[85.4065985,20.3908371],[85.4065084,20.390901],[85.4063698,20.3909918],[85.4062422,20.3910516],[85.406141,20.3910825],[85.4060288,20.3911052],[85.4059541,20.3911443],[85.4058859,20.3911959],[85.4058221,20.3912763],[85.4056857,20.391534],[85.4055911,20.3917051]]}},{"type":"Feature","properties":{"id":1489414047,"highway":"residential"},"geometry":{"type":"LineString","coordinates":[[85.4054296,20.3874242],[85.4053845,20.387225],[85.4053735,20.3870848],[85.4053779,20.386957],[85.4053933,20.3868415],[85.4054197,20.3866704]]}},{"type":"Feature","properties":{"id":1489414048,"highway":"residential"},"geometry":{"type":"LineString","coordinates":[[85.4054197,20.3866704],[85.405148,20.3866265],[85.4048473,20.3865811],[85.4046808,20.3865614]]}},{"type":"Feature","properties":{"id":1489414049,"highway":"residential"},"geometry":{"type":"LineString","coordinates":[[85.4054197,20.3866704],[85.4054696,20.3864765],[85.4055634,20.3861614],[85.405662,20.3858341],[85.4057218,20.3856265],[85.4057509,20.3855356],[85.4057816,20.3855053],[85.4058204,20.3854901],[85.4059222,20.385478],[85.4062197,20.3854841],[85.4063635,20.385478],[85.4064702,20.3854568],[85.4065963,20.3854204],[85.4067143,20.3853841],[85.4068371,20.3853477],[85.4068873,20.3852583],[85.4069277,20.3851659],[85.4069875,20.3850659]]}},{"type":"Feature","properties":{"id":1489414050,"highway":"residential"},"geometry":{"type":"LineString","coordinates":[[85.4068371,20.3853477],[85.4069212,20.3853704],[85.4070651,20.3854129],[85.4072089,20.3854841],[85.4073302,20.385578],[85.4075662,20.3857992],[85.4077407,20.3859841],[85.4078959,20.3861568],[85.4081206,20.3864296],[85.4083065,20.3866614],[85.4086039,20.3870826],[85.4088965,20.387519],[85.4091551,20.3878675],[85.4094234,20.3882372],[85.4096684,20.3886315]]}},{"type":"Feature","properties":{"id":1490620009,"highway":"residential"},"geometry":{"type":"LineString","coordinates":[[85.427139,20.4000736],[85.4268187,20.4001297],[85.4263827,20.4001832],[85.4261436,20.4002091],[85.4260939,20.4002039],[85.4260295,20.4001797],[85.4259909,20.4001487],[85.4259578,20.4000884],[85.4259026,20.3999349],[85.4258419,20.3996918],[85.4258106,20.399609],[85.4257389,20.399547],[85.4255384,20.3993849],[85.4253691,20.3992642],[85.4251134,20.3990763],[85.4249074,20.3989073],[85.4247897,20.3988297],[85.4246609,20.3987521],[85.4245524,20.398709],[85.4243923,20.3986659],[85.4241863,20.3986176],[85.4240301,20.3986119]]}},{"type":"Feature","properties":{"id":1490620624,"highway":"unclassified"},"geometry":{"type":"LineString","coordinates":[[85.4221143,20.3986727],[85.4221288,20.3985546],[85.4221224,20.3984118],[85.4221095,20.3982147],[85.4220837,20.397921],[85.4220322,20.3977199],[85.4219764,20.397553],[85.4218885,20.3973941],[85.4217511,20.3971768],[85.4216009,20.3969717],[85.4214228,20.3967002],[85.421279,20.396501],[85.4211116,20.396312],[85.4210451,20.3962174],[85.4208241,20.3958795],[85.4206889,20.3957065],[85.4205344,20.3955295],[85.4203928,20.3954028],[85.4202469,20.3953184],[85.4200773,20.395248],[85.4197941,20.3951635],[85.4196138,20.3951031],[85.4194679,20.395071],[85.4193456,20.3950408],[85.4192447,20.3950368],[85.4191482,20.3950267],[85.419043,20.3949925],[85.4187104,20.394894],[85.4183241,20.3947632],[85.4180323,20.3946546],[85.4179465,20.3945983],[85.4179186,20.3945299],[85.4179143,20.3944756],[85.4179336,20.3943469],[85.4179508,20.394186],[85.4179679,20.3940572],[85.4179701,20.3939245],[85.417955,20.3938018],[85.4178993,20.393665],[85.4178009,20.39341]]}},{"type":"Feature","properties":{"id":1490884949,"highway":"residential"},"geometry":{"type":"LineString","coordinates":[[85.4695015,20.3966827],[85.4694107,20.3967077],[85.4693008,20.3967455]]}},{"type":"Feature","properties":{"id":1490884950,"highway":"residential"},"geometry":{"type":"LineString","coordinates":[[85.4693008,20.3967455],[85.4692021,20.3966452],[85.4690352,20.3964731]]}},{"type":"Feature","properties":{"id":1490884951,"highway":"residential"},"geometry":{"type":"LineString","coordinates":[[85.4693008,20.3967455],[85.4691896,20.3968094],[85.4690088,20.396941],[85.4687474,20.3971756],[85.4683733,20.3975197],[85.4680201,20.3978365],[85.4677559,20.3980841],[85.4673901,20.3984165],[85.4669465,20.3988101],[85.4667546,20.3986172]]}},{"type":"Feature","properties":{"id":1490884952,"highway":"residential"},"geometry":{"type":"LineString","coordinates":[[85.4669465,20.3988101],[85.4671092,20.3989991]]}},{"type":"Feature","properties":{"id":1490884953,"highway":"residential"},"geometry":{"type":"LineString","coordinates":[[85.4695015,20.3966827],[85.4696726,20.3966344],[85.4698562,20.3965724],[85.4700492,20.3964819],[85.4701855,20.3964127],[85.4703501,20.3963489],[85.4704712,20.3963205],[85.470562,20.3962833],[85.4706737,20.3962229],[85.4708156,20.3960952],[85.4709519,20.3959658],[85.4711089,20.3958327],[85.4714155,20.3956234],[85.4718223,20.3953308],[85.4719245,20.39529],[85.472004,20.3952776],[85.4720627,20.3952864],[85.4721383,20.3953095],[85.4721838,20.3953592],[85.472197,20.3954461],[85.4722216,20.3955507],[85.4722462,20.3956039],[85.4722916,20.3956412],[85.4723654,20.3956607],[85.472496,20.3956642]]}}]}