{"type":"FeatureCollection","features":[{"type":"Feature","properties":{"id":561436310,"highway":"unclassified"},"geometry":{"type":"LineString","coordinates":[[85.606487,20.4107794],[85.6065073,20.4107348],[85.6067187,20.4102717],[85.6067884,20.4095326],[85.6068957,20.4090349],[85.6070137,20.4086628],[85.6071263,20.4081701],[85.6072658,20.4076472],[85.607357,20.4070791],[85.6074482,20.4066568],[85.6074107,20.4060384],[85.6076574,20.4052842],[85.6078291,20.4043591],[85.6079256,20.4033636],[85.6082797,20.4025692],[85.6086016,20.401815],[85.6089771,20.4010407],[85.6094062,20.4003167],[85.6098139,20.3997133],[85.6103182,20.3989792],[85.6107366,20.3984563],[85.6111121,20.3978027],[85.6116807,20.397139],[85.6121099,20.3964853],[85.6127858,20.3958115],[85.6133866,20.394997],[85.6139338,20.3943232],[85.6145239,20.3935589],[85.6149852,20.3929757],[85.6153929,20.3920102],[85.615468,20.3912459],[85.6160045,20.3908035],[85.6165945,20.3905219],[85.6164873,20.3901196],[85.6164014,20.389486],[85.6162727,20.3888525],[85.6160796,20.3884603],[85.6156719,20.3881887],[85.6148887,20.3878669],[85.6147706,20.3874244],[85.6146848,20.3867607],[85.6146419,20.3862076],[85.6144059,20.3857047],[85.6143844,20.385041],[85.6142771,20.3844476],[85.6142127,20.3838743],[85.6141913,20.3831804],[85.6141591,20.3827379],[85.6140304,20.3817523],[85.6137621,20.3810483],[85.6133222,20.3804046],[85.6128824,20.3799018],[85.6125605,20.3796604],[85.6121099,20.3791676],[85.6117451,20.3785541],[85.6114447,20.3779406],[85.6111014,20.3773975],[85.6107795,20.3769449],[85.6105649,20.3763515],[85.6103504,20.3757783],[85.6101143,20.3753961],[85.6095242,20.3749435],[85.6087839,20.3744808],[85.6081617,20.3740182],[85.6078827,20.3735656],[85.607593,20.3732136],[85.6072175,20.3725095],[85.6068635,20.3718155],[85.6066382,20.3713529],[85.6064343,20.3708299],[85.6061447,20.3704276],[85.6055546,20.3700252],[85.6046319,20.3697336],[85.603838,20.369643],[85.603044,20.3693815],[85.6022379,20.3691397]]}},{"type":"Feature","properties":{"id":561436425,"highway":"unclassified"},"geometry":{"type":"LineString","coordinates":[[85.6133866,20.394997],[85.6133115,20.3944338],[85.6129897,20.3937701],[85.6127214,20.3931768],[85.6123674,20.3924427],[85.6121099,20.3916683],[85.611949,20.3912057],[85.6116807,20.390713],[85.6115627,20.39019],[85.6114983,20.3897978],[85.6109726,20.3895967],[85.6105435,20.3893151],[85.6098997,20.3891542],[85.6092667,20.3889631],[85.6087088,20.3887117],[85.6079256,20.388762],[85.6074643,20.3890335],[85.6068313,20.3893855],[85.6060374,20.3896771],[85.6054151,20.3898079],[85.6050074,20.3900593],[85.6041598,20.3904615],[85.6037736,20.3911052],[85.6032801,20.3919097],[85.6028938,20.3922818],[85.6026149,20.3924829]]}},{"type":"Feature","properties":{"id":561469040,"highway":"unclassified"},"geometry":{"type":"LineString","coordinates":[[85.6156719,20.3881887],[85.6152052,20.3881284],[85.6145829,20.3882843],[85.6142771,20.3884502],[85.614025,20.3886262],[85.613746,20.3888072],[85.6134617,20.3888324],[85.6129682,20.3889078],[85.6126893,20.3891793],[85.612539,20.3895514],[85.6122601,20.3896821],[85.6119758,20.3897877],[85.6117237,20.3897978],[85.6114983,20.3897978]]}},{"type":"Feature","properties":{"id":599275788,"highway":"unclassified"},"geometry":{"type":"LineString","coordinates":[[85.6168544,20.3906398],[85.6169418,20.3912002],[85.6169843,20.3914888],[85.6167508,20.3915938],[85.6164285,20.3921366],[85.6164846,20.3924518],[85.6167834,20.3923686],[85.6171384,20.3931303],[85.6172271,20.3934848]]}},{"type":"Feature","properties":{"id":864937659,"highway":"residential"},"geometry":{"type":"LineString","coordinates":[[85.6810746,20.3035835],[85.681126,20.3033459],[85.681229,20.3030933],[85.6813676,20.3028334],[85.6814986,20.3026729],[85.6817427,20.3025195],[85.6818259,20.3024692],[85.6820083,20.3023861],[85.6821055,20.3023368],[85.6826831,20.3019584],[85.6827851,20.3018705],[85.6828601,20.3017876],[85.6829904,20.3016631],[85.6830405,20.3016188],[85.6847414,20.3006607],[85.6850968,20.3004433],[85.6852376,20.3003683],[85.6854841,20.3002123],[85.6859404,20.2999507],[85.68623,20.2998148],[85.6869113,20.2995783],[85.6870512,20.2995103],[85.6871677,20.2994456],[85.6873149,20.2993388],[85.6873653,20.2993082],[85.6874742,20.299242],[85.6875331,20.2992195],[85.687598,20.299211],[85.6877042,20.2992071],[85.6895669,20.2994703]]}},{"type":"Feature","properties":{"id":866233752,"highway":"unclassified"},"geometry":{"type":"LineString","coordinates":[[85.6250809,20.3920607],[85.625147,20.3919425],[85.6251765,20.3918706],[85.6251795,20.3918014],[85.6251263,20.3907834],[85.6250966,20.389791],[85.6250934,20.3895082],[85.6251063,20.3894285],[85.6251508,20.3893184],[85.6251985,20.3892469],[85.6252715,20.3891874],[85.6253509,20.3891665],[85.6260847,20.3891159],[85.6267803,20.3890534],[85.627279,20.3889998],[85.6274466,20.3889655],[85.6275901,20.3889103],[85.6280443,20.3887159],[85.6284578,20.3885122],[85.628696,20.3883901],[85.6289692,20.3881936],[85.6298045,20.3875697],[85.6305647,20.3869841],[85.6308554,20.3867628],[85.6310835,20.3865593],[85.6313062,20.3863998],[85.6314142,20.3863284],[85.6315127,20.3862837],[85.6317573,20.3861884],[85.632253,20.3860153],[85.6329008,20.3858475],[85.6335114,20.3856789],[85.6339566,20.3855789],[85.6344091,20.3854961],[85.6351523,20.3853995],[85.6356196,20.3853271],[85.6358285,20.3852316],[85.6359277,20.3851867],[85.635979,20.3851322],[85.6360234,20.3850457],[85.6360576,20.3848791],[85.6361051,20.3845166],[85.6361939,20.3838937],[85.6362285,20.3833709],[85.6362087,20.3830609],[85.6361544,20.3827832],[85.636031,20.3823714],[85.6359016,20.3818711],[85.6358219,20.3814379],[85.6356838,20.3808253],[85.6356697,20.3806113],[85.6356825,20.3804595],[85.6357123,20.3802438],[85.635789,20.3799482],[85.6358224,20.3795951],[85.6358774,20.3790361],[85.6359159,20.3784532],[85.6359585,20.3782415],[85.6360523,20.3780498],[85.6361887,20.377834],[85.6364856,20.3774833],[85.6368114,20.3771779],[85.6371964,20.3768633],[85.6375918,20.3766719],[85.6383037,20.376413],[85.6385534,20.3763134],[85.6387766,20.3762237],[85.6392455,20.3759498],[85.6401316,20.3754306],[85.6406202,20.3751305],[85.6407063,20.3750498],[85.6407792,20.3749504],[85.6408918,20.37464],[85.6410588,20.3741163],[85.6412641,20.3735576],[85.6413833,20.3733465],[85.6416218,20.3730237],[85.6420494,20.3725437],[85.6421866,20.3724418],[85.6423982,20.3723293],[85.6429528,20.3721149],[85.6438956,20.3717845],[85.6445294,20.3715538],[85.6447017,20.3714673],[85.6449601,20.3713115],[85.6460074,20.3706689],[85.6472421,20.3699779],[85.6480568,20.369568],[85.6485006,20.3693755],[85.6494805,20.3690029],[85.6507059,20.3686099],[85.6516782,20.3682638],[85.6523056,20.3680714],[85.6526441,20.3679618],[85.6529456,20.3678118],[85.6531487,20.3676964],[85.6533641,20.3675234],[85.653684,20.3672638],[85.6541642,20.3667828],[85.6545277,20.3664219],[85.6548223,20.3659348],[85.6550438,20.365606],[85.6552053,20.365273],[85.6552583,20.3650991],[85.6552914,20.3648135],[85.6553483,20.3644473],[85.6554055,20.3643293],[85.6554856,20.3642489],[85.6556342,20.3641846],[85.6566634,20.3637611],[85.65723,20.3635655],[85.6581174,20.3633047],[85.6585744,20.3631247],[85.6591307,20.3628639],[85.6595212,20.3626841],[85.6600516,20.3624041],[85.6605027,20.3621927],[85.6607155,20.3621242],[85.6610522,20.3620408],[85.6614938,20.3619515],[85.6617885,20.3618784],[85.6620683,20.3617967],[85.6624536,20.3616333],[85.6630957,20.3613581],[85.6633597,20.3612441],[85.6635881,20.3611843],[85.664146,20.3610747],[85.6653519,20.3608307],[85.6659668,20.3606966],[85.6664396,20.3605771],[85.6672525,20.3603529],[85.6678724,20.3602184],[85.6685116,20.3600985],[85.6689719,20.3600026],[85.6691978,20.3599187],[85.6695302,20.3597789],[85.6700366,20.3595833],[85.6708313,20.3592686],[85.6716011,20.35902],[85.6727347,20.3586764],[85.6730115,20.3586018],[85.673084,20.3585938],[85.6731223,20.3586138],[85.6731394,20.3586657],[85.6731309,20.3587536],[85.6730648,20.3589124],[85.6729486,20.3591111],[85.6728802,20.3591816],[85.6726375,20.3593579],[85.6725999,20.3593996],[85.67247,20.3596464],[85.6724085,20.3598291],[85.6723914,20.3599605],[85.6724089,20.3604226],[85.672442,20.3606123],[85.6724899,20.3607675],[85.6725598,20.3608882],[85.6728357,20.3613608],[85.673185,20.3618195],[85.6732919,20.361916],[85.6734107,20.3619792],[85.6740165,20.3622873],[85.674927,20.3626162],[85.6758056,20.3630142],[85.6765954,20.3633335],[85.6771515,20.3636262],[85.6775228,20.3638442],[85.6775643,20.3638683]]}},{"type":"Feature","properties":{"id":866276318,"highway":"unclassified"},"geometry":{"type":"LineString","coordinates":[[85.6775643,20.3638683],[85.6776415,20.3638997]]}},{"type":"Feature","properties":{"id":866277409,"highway":"unclassified"},"geometry":{"type":"LineString","coordinates":[[85.6793522,20.3640258],[85.679311,20.3642082],[85.6793074,20.3642661],[85.6793127,20.3643091],[85.6793304,20.3643438],[85.6795563,20.3646251],[85.6796057,20.3647127],[85.6796322,20.3647839],[85.6798045,20.3652745],[85.6798605,20.3655205],[85.6798937,20.3657522],[85.6800317,20.3665991],[85.6800915,20.3669302],[85.6801257,20.367052],[85.6801872,20.3671898],[85.6805189,20.3678661],[85.6805337,20.3679377],[85.6805308,20.3680456],[85.6805042,20.3681563],[85.6803862,20.3683057],[85.6801176,20.3685243],[85.6798284,20.3688234],[85.6797955,20.3688851],[85.6797705,20.3689732],[85.6797626,20.3690008],[85.6797379,20.3692578],[85.6797535,20.3696217],[85.679792,20.3699325],[85.6798359,20.3702868],[85.6798867,20.370615],[85.6799216,20.3708405],[85.6799339,20.3711167],[85.6799339,20.3714278],[85.679901,20.3716643],[85.6797423,20.372327],[85.6796815,20.3725807],[85.6795521,20.3732655],[85.6794243,20.373852],[85.6793766,20.3739673],[85.6793219,20.374041],[85.6788843,20.3744256],[85.6780245,20.3751479],[85.6777681,20.3753594],[85.6776142,20.3755389],[85.6771352,20.3763073],[85.676862,20.376801],[85.6767947,20.3769903],[85.6767788,20.3771053],[85.6767788,20.3772315],[85.6769024,20.377759],[85.677182,20.3785453],[85.6772188,20.3787281],[85.6774325,20.379886],[85.6774452,20.3803095],[85.6775511,20.3814434],[85.6776076,20.3817878],[85.6776432,20.3818843],[85.6777145,20.3820736],[85.6781738,20.3829608],[85.6783497,20.3832953],[85.6783695,20.383377],[85.6783695,20.3834438],[85.6783338,20.3835329],[85.6777636,20.3842938],[85.6777263,20.3843782],[85.6777263,20.3844219],[85.6777455,20.3844759],[85.6778415,20.3846584],[85.6778799,20.3846944],[85.6779731,20.384751],[85.67839,20.3849129],[85.6788814,20.3850877],[85.6790526,20.3851264],[85.6791677,20.3851347],[85.6793448,20.3851347],[85.6796724,20.3851153],[85.6798036,20.3851441],[85.6798876,20.3851847],[85.6801323,20.3853352],[85.6805807,20.385617],[85.6807766,20.3857695],[85.6809419,20.3859465],[85.6811692,20.3862315],[85.6812813,20.3864169],[85.6814378,20.3867295],[85.6815735,20.3869619],[85.68181,20.3873359],[85.6818484,20.3873796],[85.6818813,20.3873925],[85.6819197,20.3873848],[85.6819526,20.3873668],[85.6820842,20.3871328],[85.6821199,20.3871148],[85.682161,20.3871046],[85.682235,20.3871303],[85.6822817,20.3871663],[85.6823036,20.3872074],[85.6823064,20.3872485],[85.6822954,20.3873153],[85.6821007,20.3876804],[85.6820129,20.3878372],[85.6819745,20.3879374],[85.6819444,20.3881662],[85.6819225,20.3883161],[85.6818941,20.3884027],[85.6818349,20.3884826],[85.6815532,20.3888465],[85.6815106,20.3889198],[85.6815106,20.3889531],[85.6815271,20.3889864],[85.6815579,20.3890019],[85.6815958,20.3890041],[85.6818586,20.3889131],[85.6822634,20.3887622],[85.6826849,20.3886202],[85.6830355,20.3885084],[85.6833882,20.3883819],[85.6837528,20.3882088],[85.6843462,20.3879323],[85.6844954,20.3878724],[85.6845475,20.3878702],[85.6845901,20.3878879],[85.6848529,20.3880899],[85.6852557,20.3884645],[85.6853517,20.3885673],[85.6854696,20.3887164],[85.6856479,20.3890094],[85.6858851,20.389391],[85.6860302,20.389591],[85.6862436,20.3898797],[85.6866197,20.390379],[85.6869468,20.3908005],[85.6870449,20.390904],[85.6871471,20.3909806],[85.6872513,20.3910477],[85.6874189,20.3911416],[85.6876452,20.391308],[85.6877883,20.3914364],[85.6880131,20.3917008],[85.6881291,20.391854],[85.6881785,20.3919341],[85.6882678,20.392121],[85.6884357,20.3924256],[85.6885604,20.3926306],[85.6887015,20.3928355],[85.6888033,20.3929553],[85.6890543,20.3932594],[85.6895004,20.3938273],[85.6897362,20.3941415],[85.689841,20.3942624],[85.6899208,20.3943532],[85.6901033,20.3945929],[85.6902268,20.3947834],[85.6903762,20.3950248],[85.6904732,20.3952051],[85.6905827,20.3953721],[85.6907037,20.3955739],[85.6908283,20.3958106],[85.6909657,20.3960767],[85.6909975,20.3961148],[85.6910751,20.3961859],[85.6911704,20.3962554],[85.6912269,20.396305],[85.6913927,20.3964754],[85.6918555,20.3968989],[85.6921192,20.3971269],[85.692297,20.3973051],[85.6923256,20.3973204],[85.6923563,20.3973204],[85.6924319,20.3973032],[85.6927845,20.3972071],[85.6930585,20.3971186],[85.6931047,20.3971248],[85.6931421,20.3971495],[85.6932961,20.3972547],[85.6933489,20.3972753],[85.6934171,20.3972939],[85.6937229,20.3973166],[85.6939979,20.3973681],[85.6941689,20.3973782],[85.6942404,20.3973743],[85.6943161,20.3973686],[85.6944059,20.3973499],[85.6944783,20.3973466],[85.6944994,20.3973499],[85.6945157,20.3973638],[85.694529,20.3973976],[85.6945575,20.3975418],[85.6945802,20.3976006],[85.6946201,20.3976629],[85.6947018,20.3977661],[85.6947284,20.3978213],[85.6947797,20.3979388],[85.6948197,20.3980222],[85.6948441,20.3980651],[85.6948669,20.3980865],[85.6949263,20.3981308],[85.6950237,20.3981776],[85.695108,20.3982097],[85.6951764,20.3982475],[85.6952278,20.3982853],[85.695282,20.3983307],[85.695307,20.3983787],[85.6953227,20.3984256],[85.6953227,20.3984626],[85.695303,20.3985082],[85.6952701,20.3985649],[85.6952206,20.3986185],[85.6951363,20.3986987],[85.695107,20.3987423],[85.6950887,20.3987869],[85.6950642,20.398882],[85.6950385,20.3989542],[85.6950092,20.3989977],[85.6949408,20.3990854],[85.6949281,20.3991259],[85.6949313,20.3991655],[85.6949397,20.3991991],[85.6949513,20.3992199],[85.6950252,20.399295],[85.6951539,20.399421],[85.6952204,20.3995045],[85.6953153,20.3996266],[85.6953992,20.3997062],[85.6954657,20.3997765],[85.6954799,20.399815],[85.6954855,20.3998535],[85.6954898,20.3999941],[85.6955022,20.4000986],[85.695523,20.4002441],[85.6955242,20.400338],[85.6955218,20.4003781],[85.6955157,20.400393],[85.6954766,20.4004411],[85.6954027,20.4005215],[85.6953599,20.4005879],[85.6953171,20.4006704],[85.6952939,20.4006956],[85.6952499,20.4007277],[85.6951264,20.4007797],[85.6950372,20.400829],[85.6949724,20.4008817],[85.6949504,20.4009126],[85.6949358,20.4009527],[85.6948979,20.4011096],[85.6948326,20.4013874],[85.6948227,20.4014473],[85.6948227,20.4014965],[85.6948359,20.4016317],[85.6948555,20.4017332],[85.6949152,20.401892],[85.6949593,20.402011],[85.6950017,20.4021417],[85.6950247,20.4021778],[85.6950552,20.4022135],[85.6951375,20.4022963],[85.695171,20.4023435],[85.6951847,20.4023906],[85.6951938,20.4024805],[85.695206,20.4029721],[85.695233,20.403173],[85.6952501,20.4032445],[85.6952738,20.4033135],[85.6953893,20.4035541],[85.6955224,20.4037942],[85.6957278,20.4041086],[85.6959975,20.404557],[85.6961694,20.404845],[85.6962614,20.4050029],[85.6962968,20.4050852],[85.6963265,20.4051794],[85.6963532,20.4053303],[85.696399,20.4056945],[85.6964244,20.4058804],[85.6964279,20.4059962],[85.6964191,20.4060806],[85.6963679,20.4062972],[85.6963333,20.4066161],[85.6962805,20.4068614],[85.6962475,20.4069893],[85.6961904,20.4071407],[85.6961695,20.4072315],[85.6961619,20.4073561],[85.6961315,20.407591],[85.6960998,20.407816],[85.6960476,20.4081545],[85.696036,20.4082049]]}},{"type":"Feature","properties":{"id":866281659,"highway":"residential"},"geometry":{"type":"LineString","coordinates":[[85.679792,20.3699325],[85.6800787,20.3698111],[85.6801148,20.3698057],[85.6801471,20.3698111],[85.6802784,20.3698792],[85.6804111,20.3699481],[85.6804681,20.3699677],[85.6805478,20.369982],[85.6807301,20.3700087],[85.68077,20.3700265],[85.6807852,20.3700514],[85.6807899,20.3700895],[85.6808464,20.3704005],[85.6808693,20.3704733],[85.6809399,20.370594],[85.6809787,20.370647],[85.6809875,20.3706751],[85.6809886,20.3707186],[85.6809868,20.3709436],[85.6809921,20.3710263],[85.6809992,20.3711586],[85.6809921,20.3712083],[85.6809603,20.3713158],[85.6807796,20.3716722],[85.6805448,20.3720742],[85.680514,20.3720968],[85.6804568,20.3721216],[85.6801312,20.3722371],[85.6797423,20.372327]]}},{"type":"Feature","properties":{"id":866281660,"highway":"residential"},"geometry":{"type":"LineString","coordinates":[[85.6797705,20.3689732],[85.6800967,20.3689224],[85.6803607,20.3688903],[85.6803873,20.3688975],[85.6804101,20.3689081],[85.6804234,20.3689277],[85.6804443,20.3690862],[85.6804519,20.3691004],[85.6804709,20.3691147],[85.6806627,20.3691503],[85.6806893,20.3691681],[85.6807273,20.3692037],[85.680752,20.3692144],[85.6808165,20.3692197]]}},{"type":"Feature","properties":{"id":867646293,"highway":"unclassified"},"geometry":{"type":"LineString","coordinates":[[85.6579433,20.3366238],[85.6583949,20.336523],[85.6585752,20.3365023],[85.6588107,20.3364919],[85.6590498,20.3364954],[85.6592154,20.3365195],[85.6594177,20.3365851],[85.6597783,20.3367921],[85.6601058,20.3369715],[85.6603192,20.3370508],[85.6605037,20.3371079],[85.6606871,20.3371647],[85.6613788,20.3373929],[85.6624655,20.3377406],[85.6627682,20.3378399],[85.6629363,20.337895],[85.663714,20.3381445],[85.6645413,20.338433],[85.6648968,20.3385452],[85.6651564,20.3386032],[85.6653311,20.338624],[85.6657314,20.3386419],[85.6662891,20.3386395],[85.6664259,20.3386395],[85.6664943,20.3386203],[85.6665455,20.3385946],[85.6666618,20.3385337],[85.6667951,20.3384856],[85.6669421,20.3384536],[85.6673216,20.3384151],[85.6677606,20.3383587],[85.6681,20.3382899],[85.6683706,20.338277],[85.6690356,20.338277],[85.6693189,20.3382828],[85.6694818,20.3382689],[85.6695657,20.3382504],[85.6696644,20.3382134],[85.6701383,20.3379588],[85.6702864,20.3379172],[85.6703654,20.3379218],[85.6704295,20.3379496],[85.670474,20.3380144],[85.6705776,20.3383106],[85.6706201,20.3384686],[85.6706451,20.3385882]]}},{"type":"Feature","properties":{"id":867646295,"highway":"residential"},"geometry":{"type":"LineString","coordinates":[[85.6627682,20.3378399],[85.6630521,20.3382265],[85.663223,20.3384252],[85.6636366,20.3388323],[85.6638076,20.338999],[85.6641559,20.3393089],[85.6642737,20.3393607],[85.6643988,20.339409],[85.664866,20.3395366],[85.665085,20.339601],[85.6652741,20.3396245]]}},{"type":"Feature","properties":{"id":867646606,"highway":"residential"},"geometry":{"type":"LineString","coordinates":[[85.6581335,20.3376836],[85.6587341,20.3378302],[85.6588822,20.3378919],[85.658948,20.3379048],[85.6590467,20.3379073],[85.6593045,20.3378688],[85.6595349,20.3377968],[85.6596309,20.337753],[85.6597378,20.3376708],[85.6599091,20.3375198],[85.6599939,20.3374546],[85.660221,20.3373195],[85.6602771,20.3372783],[85.6605037,20.3371079]]}},{"type":"Feature","properties":{"id":867647713,"highway":"unclassified"},"geometry":{"type":"LineString","coordinates":[[85.5946001,20.3531379],[85.5945954,20.3530459],[85.5945229,20.3522045],[85.5944833,20.3519929],[85.5944477,20.3518963],[85.5943685,20.351759],[85.5938656,20.3512578],[85.5936444,20.3510093],[85.593585,20.3509164],[85.5935533,20.350831],[85.5935256,20.3506863],[85.5934781,20.3502742],[85.5934477,20.3497323],[85.5934551,20.3494495],[85.5934735,20.3492563],[85.5936118,20.3486526],[85.5936817,20.3482352],[85.5937222,20.3478799],[85.593732,20.3473432],[85.5937409,20.3468146],[85.5937664,20.3465412],[85.5938102,20.3462361],[85.5938952,20.3458967],[85.593983,20.345601],[85.594046,20.3453336],[85.5941009,20.3449787],[85.5941081,20.3448315],[85.594116,20.3446644],[85.5940982,20.3442833],[85.5940759,20.3440579],[85.593987,20.3437987],[85.5939081,20.3436321],[85.5938093,20.3435117],[85.5935971,20.3433312],[85.593379,20.3431107],[85.5932285,20.3429585],[85.5930107,20.3426875],[85.5928484,20.3425241],[85.592587,20.3423273],[85.5922148,20.342138],[85.5921792,20.3421046],[85.5921752,20.3420637],[85.5922069,20.3420303],[85.5923771,20.3419895],[85.5930226,20.3418187],[85.5940601,20.3415922],[85.5944408,20.3414848],[85.5946254,20.3413886],[85.5946938,20.3413437],[85.5949502,20.3410392],[85.5950391,20.3409462],[85.5951211,20.3408982],[85.5953126,20.3407892],[85.5954391,20.3406802],[85.5955963,20.3405007],[85.5957194,20.3403244],[85.5957871,20.3401818],[85.5958384,20.3399574],[85.5958555,20.3397651],[85.5958453,20.3393708],[85.5958418,20.3391913],[85.5958453,20.3390567],[85.5959205,20.3387243],[85.5961429,20.338114],[85.5964351,20.3374764],[85.5966077,20.3371591],[85.5967888,20.3369238],[85.596865,20.3368404],[85.5969158,20.3368136],[85.5970079,20.3367838],[85.597532,20.3366498],[85.5976464,20.3366081],[85.5977353,20.3365634],[85.597802,20.3365068],[85.597964,20.3363162],[85.598114,20.3361807],[85.5984592,20.3359595],[85.5990745,20.3355753],[85.5991668,20.33554],[85.5992489,20.335524],[85.5993514,20.335524],[85.5995224,20.3355432],[85.5997035,20.3355817],[85.6001822,20.3357676],[85.6002881,20.3357965],[85.600377,20.3358157],[85.6004864,20.3358221],[85.600859,20.3358189],[85.6011847,20.3357941],[85.6014349,20.3357838],[85.6015821,20.335801],[85.6019574,20.3358459],[85.6022811,20.3359066],[85.6028513,20.3360366],[85.6030453,20.3361108],[85.6033423,20.3362185],[85.6036793,20.3363205],[85.6039591,20.3363721],[85.6042664,20.3363979],[85.6046516,20.336428],[85.604866,20.3364666],[85.6050284,20.3365186],[85.6054917,20.3366968],[85.6057055,20.3367451],[85.6058797,20.3367636],[85.6062797,20.3368007],[85.6067141,20.3368534],[85.6068888,20.3368891],[85.6070889,20.3369546],[85.6072477,20.337038],[85.607432,20.3371751],[85.6075368,20.3372316],[85.6077655,20.3373359],[85.6079211,20.3373806],[85.6082007,20.3374372],[85.6085584,20.3375131],[85.6088763,20.3375964],[85.6092011,20.3377118],[85.6094712,20.3378048],[85.6096182,20.3378304],[85.6097618,20.3378272],[85.6098917,20.3378048],[85.6101105,20.3377503],[85.6107158,20.3374862],[85.6108886,20.3374446],[85.611012,20.3374492],[85.6111699,20.3374816],[85.6118561,20.3376251],[85.6121226,20.3376436],[85.6127051,20.3376714],[85.6134614,20.3377037],[85.6136678,20.3377381],[85.6140714,20.3378414],[85.6143053,20.3378844],[85.6145347,20.3378844],[85.6147227,20.3378543],[85.6149153,20.3377983],[85.6150896,20.3377123],[85.6154487,20.337518],[85.6157515,20.3373674],[85.6159395,20.3373115],[85.6162101,20.337247],[85.6166091,20.3372083],[85.6171972,20.3371587],[85.6175045,20.3371587],[85.6178347,20.3371931],[85.6187016,20.3373049],[85.6191373,20.3373522],[85.6205942,20.3375022],[85.6209535,20.3375364],[85.6216353,20.3376483],[85.6218825,20.3377202],[85.6223513,20.3379],[85.6228712,20.3381198],[85.6231184,20.3382397],[85.6231823,20.3382437],[85.6232815,20.338231],[85.6238492,20.3381061],[85.6245197,20.3379525],[85.6246382,20.3379201],[85.6246875,20.337883],[85.6247369,20.3377997],[85.6247616,20.3375914],[85.6247517,20.3374989],[85.6247319,20.3374248],[85.6246727,20.3373183],[85.6241396,20.3368092],[85.6240409,20.3366611],[85.6240063,20.3365454],[85.6240063,20.3364435],[85.6240359,20.3363417],[85.6241198,20.336263],[85.6241692,20.3362538],[85.6242383,20.3362723],[85.6243173,20.3363371],[85.6244604,20.3365361],[85.6248455,20.3369434],[85.6249096,20.3369712],[85.6249985,20.3369712],[85.6253292,20.3369203],[85.625423,20.3369203],[85.6255165,20.336947],[85.6260989,20.3372988],[85.6263655,20.3374284],[85.6266746,20.3375608],[85.627092,20.3376554],[85.6272342,20.3376855],[85.6274544,20.3376683],[85.6276103,20.3376296],[85.6278029,20.3375264],[85.6282891,20.3371866],[85.6285098,20.3370602],[85.6286224,20.3370146],[85.6287377,20.3369859],[85.6289061,20.3369563],[85.6290979,20.3369123],[85.6292036,20.3368717],[85.6294046,20.3367698],[85.629575,20.336606],[85.6297071,20.3364701],[85.629852,20.3362304],[85.6301905,20.3354785],[85.6304003,20.3348139],[85.6305661,20.3342492],[85.6307037,20.33366],[85.6307698,20.3330667],[85.6308176,20.3326079],[85.6308397,20.3325009],[85.6308654,20.3324147],[85.6309022,20.3323491],[85.6309942,20.3322525],[85.6312223,20.33208],[85.6313106,20.3320455],[85.6314136,20.3320317],[85.6319361,20.3320697],[85.6324622,20.3320938],[85.6326975,20.3320582],[85.6329319,20.3320222],[85.6330726,20.3319823],[85.6332132,20.3319263],[85.6337331,20.3316826],[85.6341478,20.3315087],[85.6344825,20.3313742],[85.6347588,20.3312945],[85.6350563,20.3312447],[85.6356087,20.3311634],[85.6365278,20.3310388],[85.6375538,20.3309998],[85.638413,20.3309515],[85.6386942,20.3309738],[85.6390941,20.3310221],[85.6395464,20.3311446],[85.6401381,20.3312736],[85.6406564,20.331437],[85.6409637,20.3315747],[85.6411701,20.3316951],[85.6413489,20.3318413],[85.641657,20.33214],[85.6422543,20.3327139],[85.6430491,20.3334181],[85.6435077,20.3338094],[85.6437406,20.3339838],[85.6439562,20.3341257],[85.6442177,20.3342805],[85.6444791,20.3344096],[85.6450524,20.3346719],[85.6453613,20.3347733],[85.6456032,20.3348288],[85.6457118,20.3348381],[85.645845,20.3348196],[85.6460918,20.3347316],[85.6463297,20.3346847],[85.6466544,20.3346587],[85.6470583,20.334629],[85.6474622,20.3346439],[85.6478034,20.3347104],[85.6479739,20.3347743],[85.648123,20.3348582],[85.6482765,20.3349741],[85.6490564,20.3356614],[85.6491631,20.3357575],[85.6492696,20.3358295],[85.6497129,20.3359773],[85.6504757,20.336305],[85.6510492,20.3365881],[85.6516225,20.3368375],[85.6520612,20.3369632],[85.6523731,20.337032],[85.6525245,20.3370535],[85.6526621,20.3370492],[85.6534051,20.3369718],[85.654051,20.336892],[85.6546903,20.336852],[85.6551079,20.33686],[85.6554105,20.336884],[85.6561478,20.3370278],[85.6563821,20.3370478],[85.6566719,20.3370438],[85.656885,20.3370278],[85.6571365,20.3369919],[85.6573623,20.3369399],[85.6576131,20.3368431],[85.6576899,20.336809],[85.6577874,20.3367657],[85.6578699,20.3367012],[85.6579433,20.3366238],[85.6579938,20.3365206],[85.6580488,20.3363571],[85.6581635,20.3358582],[85.6582251,20.3356481],[85.6582801,20.3355363],[85.6584957,20.3352911],[85.658793,20.3348859],[85.6588571,20.3347517],[85.6589361,20.3345295],[85.659119,20.3336698],[85.6595072,20.3321031],[85.6597318,20.3310999],[85.6598141,20.3307228],[85.6598355,20.3305023],[85.6599068,20.3296334],[85.6600044,20.3290996],[85.6600905,20.3288574],[85.6602494,20.3285966],[85.6606799,20.3280128],[85.6612049,20.3271363],[85.6617774,20.3260134],[85.6619421,20.3257095],[85.6620749,20.3255351],[85.6622502,20.3254056],[85.6626646,20.3252163],[85.6632325,20.3249605],[85.6642763,20.3245814],[85.6646556,20.3244135],[85.66489,20.3242736],[85.6652778,20.3240259],[85.6658489,20.3236023],[85.6664573,20.3231018],[85.6669958,20.3226339],[85.6676976,20.3219296],[85.6682286,20.3213577],[85.6685854,20.3209471],[85.6688504,20.3205641],[85.6692615,20.3199098],[85.669711,20.3191098],[85.6698127,20.318964],[85.6699953,20.3187557],[85.6703803,20.3183715],[85.6707308,20.3180799],[85.6711589,20.3177995],[85.6718124,20.3174657],[85.67259,20.3170266],[85.6729388,20.3167692],[85.6731675,20.3165815],[85.6734404,20.3162954],[85.673697,20.315901],[85.6741742,20.3151234],[85.6746972,20.3143962],[85.6750433,20.3137951],[85.6751867,20.3134165],[85.6753142,20.3130179],[85.6754633,20.3124227],[85.6754951,20.3121935],[85.675495,20.3121546],[85.6754895,20.3121263],[85.6754648,20.3120852],[85.6754237,20.3120492],[85.6752207,20.3119617],[85.6748286,20.3118357],[85.6748012,20.3118048],[85.6747984,20.311774],[85.6748094,20.3117405],[85.6752241,20.3113117],[85.6752926,20.3112449],[85.6753557,20.3111523],[85.6754242,20.311052],[85.6754709,20.3110031],[85.6757554,20.3108048],[85.6763776,20.3102245],[85.6770476,20.3095994],[85.6773337,20.3093688],[85.6775169,20.3092489],[85.6776277,20.309201],[85.6777172,20.309185],[85.6777982,20.309185],[85.6783565,20.3092689],[85.6790767,20.3092729],[85.6794201,20.3093105],[85.6795047,20.3093312],[85.6795746,20.3093691],[85.679777,20.3095175],[85.6798174,20.3095279],[85.6798726,20.3095279],[85.6801522,20.3094692],[85.6802737,20.3094588],[85.680362,20.3094692],[85.6804245,20.3094934],[85.680557,20.3095727],[85.6807372,20.3097038],[85.6808145,20.3097452],[85.6808623,20.3097556],[85.680969,20.3097625],[85.6813715,20.3097986],[85.6816187,20.3097826],[85.6818573,20.3097906],[85.6821514,20.3098346],[85.6826926,20.3099505],[85.6830338,20.3100411],[85.6832596,20.310133],[85.6834898,20.3102329],[85.6837284,20.3104008],[85.6840481,20.3106246],[85.6843932,20.3109323],[85.6847254,20.3112535],[85.6848542,20.3113673],[85.6849499,20.3114398],[85.6850492,20.3114846],[85.6853877,20.3115502],[85.6857041,20.3116227],[85.6860647,20.3117572],[85.6863,20.3118468],[85.6864048,20.3119093],[85.6865066,20.3119651],[85.686634,20.3120033],[85.6867257,20.3120248],[85.6867818,20.3120439],[85.6868404,20.3120774],[85.6870763,20.312226],[85.6871629,20.3122666],[85.6872725,20.3122953],[85.6873846,20.312312],[85.6874432,20.3123359],[85.6874865,20.3123694],[85.6875796,20.3124643],[85.6876904,20.3126002],[85.6877415,20.3126762],[85.6878584,20.3129253],[85.6878822,20.3129759],[85.6879163,20.3130079],[85.6879972,20.3130438],[85.6880398,20.3130758],[85.6880697,20.3131318],[85.6883765,20.3138432],[85.6888793,20.3150371]]}},{"type":"Feature","properties":{"id":867648011,"highway":"unclassified"},"geometry":{"type":"LineString","coordinates":[[85.6706451,20.3385882],[85.6706563,20.3386786]]}},{"type":"Feature","properties":{"id":867648012,"highway":"unclassified"},"geometry":{"type":"LineString","coordinates":[[85.6706563,20.3386786],[85.6706675,20.338769],[85.6706914,20.3390767],[85.6707153,20.3394485],[85.6707085,20.3396216],[85.6706914,20.3397274],[85.6705683,20.3401313],[85.670349,20.3407681],[85.6702698,20.3410688],[85.670254,20.3413064],[85.6702381,20.3416146],[85.6702613,20.3421011],[85.6702384,20.342385],[85.6701181,20.3436801],[85.6699671,20.3448111],[85.6699594,20.3449868],[85.6699807,20.3451467],[85.6700489,20.3453784],[85.6703387,20.3462495],[85.6706859,20.3473089],[85.6710709,20.3485493],[85.671707,20.3503006],[85.6721448,20.351449],[85.6724759,20.3521796],[85.6725796,20.3523092],[85.6726684,20.3524018],[85.6728264,20.3525036],[85.6730189,20.3525869],[85.673565,20.3527439],[85.6737366,20.352835],[85.6738338,20.3529208],[85.6743998,20.3536016],[85.6748408,20.3542458],[85.6748993,20.3543952],[85.6749418,20.3545895],[85.6749311,20.3547738],[85.6747824,20.3556056],[85.6745831,20.3560857],[85.6741339,20.3568876],[85.6734799,20.3579465],[85.6734404,20.3580946],[85.6734009,20.3582195],[85.673322,20.3583676],[85.6732084,20.3585389],[85.6731223,20.3586138]]}},{"type":"Feature","properties":{"id":870300733,"highway":"residential"},"geometry":{"type":"LineString","coordinates":[[85.6913242,20.312876],[85.6913565,20.3127359],[85.6913907,20.3126255],[85.691423,20.3125436],[85.6914553,20.312499],[85.6915237,20.3124278],[85.6916737,20.3122835],[85.6919282,20.3120466],[85.6921933,20.3117974],[85.692456,20.3115529],[85.6925315,20.3114875],[85.6926337,20.3114243],[85.6928463,20.3113035],[85.6932705,20.3110314],[85.6934402,20.3109183],[85.6935523,20.3108227],[85.6937536,20.3106459],[85.6941773,20.3102809],[85.694425,20.3100469],[85.6945702,20.3099059],[85.6947231,20.3097386],[85.6949106,20.309515],[85.695006,20.3093575],[85.6951291,20.309171],[85.6953683,20.3088242],[85.6954716,20.3086775],[85.6955796,20.3085661],[85.6959347,20.3082682],[85.6963065,20.3079609],[85.6969644,20.3073638],[85.6970138,20.3073151],[85.6971091,20.3072158],[85.6972638,20.3070225],[85.6973833,20.3068538],[85.6975209,20.3066435],[85.6978069,20.3061698],[85.6981795,20.3055447],[85.6983358,20.3053029],[85.698462,20.3051229],[85.6985634,20.3050175],[85.6988033,20.3048011],[85.6993027,20.3043803],[85.7001575,20.3036337],[85.7002034,20.3035835],[85.700211,20.3035597],[85.7002084,20.3035358],[85.7001193,20.3034139],[85.7001167,20.3033924],[85.7001193,20.3033685],[85.7001346,20.3033446],[85.7001864,20.3032969],[85.7002129,20.3032603],[85.7002161,20.3032332],[85.7002065,20.3032091],[85.699982,20.3029565],[85.6999499,20.3029204],[85.699937,20.3028903],[85.6999338,20.302779],[85.6999274,20.3027308],[85.6998986,20.3026707],[85.6998889,20.3026195],[85.6999404,20.3021648],[85.7000405,20.3014396],[85.7000972,20.3008689],[85.7001025,20.3008283],[85.7001308,20.3006789],[85.7001308,20.300649],[85.7001247,20.3006258],[85.7001003,20.3006063]]}},{"type":"Feature","properties":{"id":870303752,"highway":"residential"},"geometry":{"type":"LineString","coordinates":[[85.690967,20.3147403],[85.6913052,20.314981],[85.691346,20.3150025],[85.6913827,20.3150138],[85.691489,20.3150296],[85.6915244,20.3150352],[85.691551,20.3150545],[85.6915982,20.3151265],[85.6916779,20.3153064],[85.6917487,20.3155223],[85.6918195,20.3158074]]}},{"type":"Feature","properties":{"id":870303756,"highway":"residential"},"geometry":{"type":"LineString","coordinates":[[85.6872327,20.3063772],[85.6877043,20.306727],[85.6883515,20.3072362],[85.6885555,20.3074044],[85.6887355,20.3075566],[85.6887857,20.307612],[85.6888329,20.3076895],[85.6890484,20.3081158],[85.6890986,20.3081905],[85.6891549,20.3082876]]}},{"type":"Feature","properties":{"id":870303757,"highway":"residential"},"geometry":{"type":"LineString","coordinates":[[85.6870148,20.3068078],[85.6873133,20.307061],[85.6875833,20.3072695],[85.6878403,20.3074339],[85.6878629,20.3074483],[85.6879401,20.3074895],[85.687973,20.3075177],[85.6879922,20.3075537],[85.6880773,20.3078135],[85.6881513,20.307973],[85.688272,20.3082019],[85.6884994,20.3085127],[85.6887385,20.308795],[85.6888399,20.3089108],[85.6888871,20.3089772],[85.6889196,20.3090437],[85.6889639,20.3092208],[85.6889786,20.3092568],[85.6890081,20.3092928],[85.6891173,20.3094063],[85.689138,20.3094478],[85.6891852,20.3095696],[85.6891951,20.309592],[85.6892046,20.3095987],[85.6892141,20.3096027]]}},{"type":"Feature","properties":{"id":870318826,"highway":"unclassified"},"geometry":{"type":"LineString","coordinates":[[85.6889282,20.3151303],[85.6888793,20.3150371]]}},{"type":"Feature","properties":{"id":870318828,"highway":"unclassified"},"geometry":{"type":"LineString","coordinates":[[85.6908808,20.312183],[85.6910195,20.3121996],[85.6910963,20.3122412],[85.6911465,20.3122965],[85.6911789,20.3123685],[85.691297,20.312756],[85.6913242,20.312876],[85.6913265,20.3128861],[85.6913354,20.3129913],[85.6913209,20.3134519],[85.6913174,20.3140243],[85.6912814,20.3142334],[85.69108,20.3146075],[85.6910037,20.3147058],[85.690967,20.3147403],[85.6907051,20.3149858],[85.6904987,20.315099],[85.6903844,20.315157],[85.6903493,20.3151652],[85.6903301,20.3151517],[85.6900487,20.314813],[85.6900133,20.314788],[85.689969,20.3147797],[85.68991,20.3147908],[85.6898421,20.3148102],[85.6894289,20.3150261],[85.6891515,20.3151562],[85.6890895,20.3151672],[85.6890128,20.3151672],[85.6889744,20.3151589],[85.6889282,20.3151303]]}},{"type":"Feature","properties":{"id":870318829,"highway":"residential"},"geometry":{"type":"LineString","coordinates":[[85.6892141,20.3096027],[85.689258,20.3095975]]}},{"type":"Feature","properties":{"id":870318830,"highway":"residential"},"geometry":{"type":"LineString","coordinates":[[85.689258,20.3095975],[85.6892758,20.3095954]]}},{"type":"Feature","properties":{"id":870318831,"highway":"unclassified"},"geometry":{"type":"LineString","coordinates":[[85.6906037,20.312181],[85.6908808,20.312183]]}},{"type":"Feature","properties":{"id":870322333,"highway":"residential"},"geometry":{"type":"LineString","coordinates":[[85.6891951,20.309592],[85.6890906,20.3096752],[85.6890693,20.3097112],[85.6890501,20.3097532],[85.6890437,20.3098151],[85.6890544,20.3098711],[85.6890757,20.309925],[85.6893825,20.3104486]]}}]}