{"type":"FeatureCollection","features":[{"type":"Feature","properties":{"id":322946199,"highway":"tertiary"},"geometry":{"type":"LineString","coordinates":[[86.0109311,20.38936],[86.0106736,20.3894024],[86.0099952,20.3894856],[86.0096733,20.3894986],[86.0088853,20.3895426],[86.0087914,20.389554],[86.0087427,20.3895769],[86.0087166,20.3896209],[86.0087827,20.3901394],[86.0087635,20.3902046],[86.0084956,20.3902487],[86.0079372,20.3902536],[86.0076798,20.3902633],[86.0071909,20.3902046],[86.0070674,20.390203],[86.0067212,20.3903449],[86.0065647,20.3904297],[86.0064968,20.3905471],[86.0063559,20.3906465],[86.006222,20.3906922],[86.0058341,20.3906743],[86.0055192,20.3907297],[86.005307,20.3907509],[86.0052287,20.3907362],[86.0051034,20.3905471],[86.0050356,20.3905128],[86.0044441,20.3905373],[86.0040788,20.3904965],[86.0038961,20.3904541],[86.0033864,20.3904672],[86.0031586,20.3904541],[86.0030733,20.3904802],[86.0029342,20.3906188],[86.0027602,20.3908699],[86.0023723,20.3911846],[86.0020417,20.3916559],[86.0017617,20.3920081],[86.001626,20.3921059],[86.0014799,20.3921842],[86.0013337,20.3922168],[86.0011319,20.392194],[86.0006275,20.3921043],[86.0004518,20.3920978],[86.0003108,20.3921157],[86.0000569,20.3921776],[85.9992514,20.3923244],[85.9990131,20.3923815],[85.9986113,20.3924059],[85.9984373,20.3924336],[85.9981207,20.3925135],[85.9974771,20.392657],[85.9969134,20.3927728],[85.9956835,20.3930467],[85.9953095,20.3931169],[85.9937004,20.393487],[85.9930307,20.3936664],[85.991766,20.3940561],[85.9912858,20.3941865],[85.9908318,20.3943903],[85.9902856,20.3946545],[85.9898611,20.3949268],[85.9894575,20.3952529],[85.9892331,20.3954909],[85.9889513,20.3958399],[85.9882676,20.3966356],[85.9874553,20.3975666],[85.9868864,20.3982123],[85.9865594,20.3985139],[85.9859488,20.3989607],[85.9855661,20.3992167],[85.9852077,20.3994987],[85.9848615,20.3998542],[85.9843936,20.400464],[85.9840387,20.4008781]]}}]}