{"type":"FeatureCollection","features":[{"type":"Feature","properties":{"id":22828398,"highway":"primary"},"geometry":{"type":"LineString","coordinates":[[85.5152988,20.2616474],[85.5154919,20.2619644],[85.5156475,20.2623821],[85.5160713,20.2634289],[85.5164682,20.2647977],[85.516833,20.2659702],[85.5169349,20.2663929],[85.5171495,20.2673239],[85.5171871,20.2676208],[85.5172836,20.2689896],[85.5175036,20.270927],[85.5178093,20.2731009],[85.517922,20.2740972],[85.5180185,20.274535],[85.5182117,20.2755263],[85.5183,20.2759804],[85.5184487,20.2767453],[85.5185121,20.2770712],[85.5187267,20.2782486],[85.5191129,20.2809457],[85.5194777,20.2835874],[85.5195742,20.2842768],[85.5196493,20.2848856],[85.5197298,20.285268],[85.519998,20.2864454],[85.5200946,20.2869687],[85.5203306,20.2879398],[85.5205291,20.2888757],[85.5207008,20.2896355],[85.5209529,20.2909336],[85.5211138,20.2916733],[85.5214625,20.2928959],[85.5215966,20.2932833],[85.5216288,20.2937261],[85.5216449,20.2941638],[85.5218917,20.2960959],[85.5219882,20.2965638],[85.522412,20.2980279],[85.5227607,20.2992857],[85.5233025,20.3010919],[85.5235546,20.3018215],[85.523865,20.3027988],[85.5239301,20.3030038],[85.5245739,20.3046288],[85.5246972,20.3049911],[85.5247563,20.3051873],[85.5247294,20.3054539],[85.5246543,20.3057407],[85.5245739,20.3060727],[85.524547,20.3064098],[85.5245524,20.3067771],[85.5246597,20.3080449],[85.5247402,20.3089656],[85.5248206,20.309846],[85.5248957,20.3107767],[85.5249923,20.3115565],[85.5250728,20.3125677],[85.5251103,20.3131613],[85.5251693,20.3136392],[85.5252873,20.3143938],[85.5253517,20.3151988],[85.5254375,20.31622],[85.5255287,20.316874],[85.5257433,20.3185995],[85.5259579,20.3204759],[85.5261832,20.3227799],[85.5263763,20.3246613],[85.5264139,20.3256825],[85.5265158,20.3270859],[85.5266767,20.3284592],[85.5268484,20.329581],[85.5269986,20.3304059],[85.5272775,20.3320709],[85.5275404,20.33359],[85.5276369,20.3341534],[85.5279105,20.3359491],[85.5280071,20.336598],[85.5282753,20.3382378],[85.5284577,20.3392891],[85.5285704,20.3397468],[85.5286508,20.3400888],[85.5286616,20.3405415],[85.5286616,20.3414067],[85.5286884,20.3425535],[85.5287313,20.3434438],[85.5287581,20.343997],[85.5288171,20.3450382],[85.5288869,20.3459335],[85.5289834,20.3470501],[85.5290907,20.3482019],[85.5291551,20.3487049],[85.5292195,20.3491123],[85.5294448,20.3501584],[85.529536,20.3505859],[85.5295091,20.3509732],[85.5294179,20.352643],[85.529375,20.3534025],[85.5293844,20.3543759]]}},{"type":"Feature","properties":{"id":561435604,"highway":"unclassified"},"geometry":{"type":"LineString","coordinates":[[85.5297417,20.3788891],[85.5295813,20.378836],[85.5293637,20.3787754],[85.52894,20.3785642],[85.5285054,20.3784334],[85.528474,20.3784158],[85.5280226,20.3781619],[85.527572,20.3779004],[85.5274984,20.3778974],[85.5269605,20.3778752],[85.5264938,20.377654],[85.5263114,20.3773874],[85.5259734,20.3770757],[85.5255604,20.3768343],[85.5251688,20.3765275],[85.5247718,20.3762761],[85.5245089,20.3760699],[85.5241549,20.375743],[85.5240035,20.3756258],[85.5237526,20.3754313],[85.5235344,20.3753202],[85.5233771,20.3752402],[85.5230391,20.3749887],[85.5226797,20.374687],[85.5225013,20.374559],[85.5222452,20.3743752],[85.5218214,20.3740936],[85.5215478,20.3738321],[85.5211884,20.3736561],[85.5208182,20.3733795],[85.520373,20.3731884],[85.5199385,20.3729822],[85.5194288,20.3727911],[85.519048,20.3726051],[85.5184418,20.3722681],[85.5179161,20.3720267],[85.5174386,20.3718407],[85.5169827,20.3716697],[85.5163944,20.3714048],[85.5158365,20.3711651],[85.515469,20.3709929],[85.5153573,20.3709405],[85.5147994,20.3706689],[85.5144346,20.370498],[85.5140966,20.3702314],[85.5136299,20.3699649],[85.5132115,20.3697637],[85.5127126,20.3695173],[85.5123585,20.3693162],[85.5119562,20.3690949],[85.5114627,20.3688082],[85.5110013,20.3685165],[85.5104542,20.3682752],[85.509966,20.3679835],[85.5096495,20.3678477],[85.5094349,20.3676968],[85.5091238,20.3675258],[85.509038,20.367214],[85.5090433,20.3667614],[85.5087858,20.3662937],[85.5085927,20.3659216],[85.5085444,20.3654991],[85.5085874,20.3650867],[85.5087054,20.3648252],[85.5091292,20.3645587],[85.5094886,20.3643525],[85.509671,20.3640457],[85.509569,20.363759],[85.5093652,20.3634774],[85.5090916,20.3630248],[85.5087644,20.3627079],[85.5085391,20.3625068],[85.5083084,20.3622905],[85.5080992,20.3621095],[85.5082226,20.3618329],[85.5085605,20.3615261],[85.5087107,20.3612243],[85.5087966,20.3608924],[85.5088717,20.360485],[85.5088288,20.3603895]]}},{"type":"Feature","properties":{"id":561435657,"highway":"unclassified"},"geometry":{"type":"LineString","coordinates":[[85.530167,20.3769152],[85.5301201,20.3766482],[85.5296802,20.376613],[85.5293155,20.3765627],[85.5291009,20.3767689],[85.5288595,20.3770405],[85.5286181,20.3773221],[85.5283767,20.3775584],[85.5282976,20.37784],[85.5280576,20.3778614]]}},{"type":"Feature","properties":{"id":561435729,"highway":"unclassified"},"geometry":{"type":"LineString","coordinates":[[85.5282976,20.37784],[85.5285859,20.37783],[85.5289829,20.3778601],[85.5294764,20.3777998],[85.5298465,20.3777143],[85.5299569,20.3777299]]}},{"type":"Feature","properties":{"id":561435882,"highway":"unclassified"},"geometry":{"type":"LineString","coordinates":[[85.5289829,20.3778601],[85.5290285,20.378104],[85.529117,20.3783052],[85.529235,20.3785139],[85.5293208,20.3786672],[85.5293637,20.3787754]]}},{"type":"Feature","properties":{"id":561436027,"highway":"unclassified"},"geometry":{"type":"LineString","coordinates":[[85.5237311,20.3747121],[85.5235809,20.3745563],[85.5232,20.3745713],[85.5231571,20.3742948],[85.5231947,20.3738422],[85.5232269,20.3734549],[85.5232269,20.3730225],[85.5232376,20.3726],[85.5232322,20.3723134],[85.5232322,20.371891],[85.5232644,20.3715641],[85.5232161,20.3713529],[85.5229104,20.3713629],[85.5226099,20.3714032],[85.5227226,20.371896],[85.5227011,20.3723486],[85.5226207,20.3728867],[85.5225348,20.373113],[85.5225778,20.3735656],[85.5225617,20.3739629],[85.5225617,20.3743048],[85.5225013,20.374559]]}},{"type":"Feature","properties":{"id":561436040,"highway":"residential"},"geometry":{"type":"LineString","coordinates":[[85.5240035,20.3756258],[85.5241388,20.3753508],[85.5242783,20.3749234],[85.524348,20.3744255],[85.524348,20.3740333],[85.5243641,20.3736762],[85.524407,20.3733091],[85.5244017,20.3728465],[85.524407,20.3724441],[85.5244017,20.3719614],[85.5239832,20.3720267],[85.5238169,20.372067],[85.5239242,20.3725598],[85.5238545,20.3730124],[85.5238599,20.3734549],[85.523833,20.3738824],[85.5237687,20.3743501],[85.5237311,20.3747121],[85.5236936,20.3749837],[85.5235344,20.3753202]]}},{"type":"Feature","properties":{"id":561436043,"highway":"unclassified"},"geometry":{"type":"LineString","coordinates":[[85.5218214,20.3740936],[85.5220145,20.3739176],[85.5219394,20.3735706],[85.5219072,20.3731834],[85.5217946,20.3727358],[85.5218536,20.372248],[85.5218643,20.3719312],[85.5218053,20.3715993],[85.5217838,20.3711869],[85.5217999,20.3707645],[85.5218191,20.3704011],[85.5218214,20.3703571],[85.5218319,20.370197]]}},{"type":"Feature","properties":{"id":585318598,"highway":"unclassified"},"geometry":{"type":"LineString","coordinates":[[85.5499207,20.3876969],[85.5500597,20.3872283],[85.5500886,20.3870795],[85.550108,20.3869794]]}},{"type":"Feature","properties":{"id":867646294,"highway":"unclassified"},"geometry":{"type":"LineString","coordinates":[[85.6022379,20.3691397],[85.6019029,20.3690659],[85.6014941,20.3689624],[85.6012161,20.3688992],[85.6009531,20.3688419],[85.6008215,20.3688265],[85.6007008,20.3688265],[85.6005719,20.3688316],[85.600443,20.3688547],[85.5999576,20.3689961],[85.5991378,20.3693161],[85.5983366,20.3695783],[85.5977257,20.3697914],[85.5972118,20.3699687],[85.5966085,20.3701371],[85.5962872,20.3702237],[85.5960308,20.3703102],[85.5958086,20.3703775],[85.595663,20.3703903],[85.5955085,20.3703592],[85.5953466,20.3702972],[85.5951148,20.3701902],[85.5949345,20.3700868],[85.5948021,20.3699522],[85.5946452,20.3697618],[85.5945045,20.369538],[85.5943596,20.3692264],[85.5942105,20.3688309],[85.594168,20.3685919],[85.594173,20.3683975],[85.5942124,20.3681939],[85.5943829,20.3672258],[85.5945853,20.3663867],[85.5948508,20.3655675],[85.5949787,20.3650591],[85.5950285,20.3647866],[85.5950523,20.3645379],[85.5950816,20.3639707],[85.5951092,20.3637084],[85.5951458,20.363502],[85.595267,20.3629752],[85.5953732,20.3627113],[85.595468,20.3624319],[85.5954893,20.3622725],[85.5954733,20.3621081],[85.5954043,20.3618342],[85.5952731,20.3614009],[85.5952217,20.3612858],[85.5951742,20.3612116],[85.5948859,20.3608998],[85.5946008,20.3606028],[85.5945137,20.3605174],[85.5944543,20.3604135],[85.5943864,20.3602608],[85.594348,20.3601369],[85.5943437,20.360009],[85.5943437,20.3596175],[85.5943861,20.358667],[85.5944678,20.3576831],[85.5944916,20.3572933],[85.5945034,20.3564582],[85.5945098,20.3559161],[85.5945098,20.3556987],[85.5945193,20.3556273],[85.5946173,20.3552456],[85.5946728,20.3550192],[85.5947005,20.3547927],[85.5947084,20.3545996],[85.5946271,20.3534238]]}},{"type":"Feature","properties":{"id":867647712,"highway":"unclassified"},"geometry":{"type":"LineString","coordinates":[[85.5946271,20.3534238],[85.5946001,20.3531379]]}},{"type":"Feature","properties":{"id":1150649133,"highway":"unclassified"},"geometry":{"type":"LineString","coordinates":[[85.5745749,20.3067572],[85.5736951,20.3067622],[85.5734913,20.3067698],[85.5733465,20.3067245],[85.5730219,20.3065887],[85.572633,20.3064226],[85.5724801,20.3063497],[85.5722575,20.3062792],[85.572177,20.3062239],[85.5720939,20.3061359],[85.5719705,20.305829],[85.5718927,20.3056177],[85.5718203,20.3055296],[85.5716111,20.3053208],[85.5714233,20.30519],[85.5713267,20.3050642],[85.5712671,20.3049331],[85.571249,20.3048932],[85.5712114,20.3047247],[85.5712785,20.3041612],[85.571308,20.3039775],[85.5712812,20.3037662],[85.571139,20.3033864],[85.5710344,20.3032329],[85.5707903,20.3030719],[85.5702136,20.3027977],[85.5701198,20.3027021],[85.5699696,20.3025537],[85.5698328,20.3023701],[85.5696933,20.3021663],[85.5695431,20.3019273],[85.569476,20.3017236],[85.5694438,20.30155],[85.5693875,20.3009211],[85.569291,20.2999576],[85.5692293,20.2994143],[85.5691756,20.2992407],[85.569012,20.298891],[85.5689262,20.2986495],[85.5689181,20.2983225],[85.5689664,20.2973615],[85.5690952,20.296081],[85.5691086,20.2959477],[85.5691488,20.2958471],[85.5691729,20.2957892],[85.56935,20.2956257],[85.5701734,20.2949968],[85.5706052,20.2945389],[85.5711524,20.293759],[85.5714823,20.2932383],[85.5718605,20.2925288],[85.5720509,20.2919502],[85.5721877,20.2917917],[85.5723299,20.2916383],[85.572397,20.2915376],[85.5724586,20.2914697]]}},{"type":"Feature","properties":{"id":1150649137,"highway":"residential"},"geometry":{"type":"LineString","coordinates":[[85.4855985,20.3545179],[85.4878473,20.3538097],[85.4897871,20.3538258],[85.4903192,20.3537293],[85.4940099,20.3542926],[85.4944906,20.3546306],[85.4979238,20.3545984],[85.4991083,20.3548076],[85.5001039,20.3550651],[85.5009107,20.3553709],[85.5024042,20.3564975],[85.5040006,20.3566423],[85.5061979,20.3565779],[85.5072454,20.356998],[85.5081337,20.3578348],[85.5086959,20.3586637],[85.5088461,20.3596534],[85.5088717,20.360485]]}},{"type":"Feature","properties":{"id":1150649138,"highway":"unclassified"},"geometry":{"type":"LineString","coordinates":[[85.5353751,20.3733741],[85.5343862,20.3742764],[85.5337246,20.3748112],[85.5325351,20.3754313],[85.5317771,20.3758721],[85.5312241,20.3761937],[85.5307993,20.3765066],[85.5302271,20.3766077]]}},{"type":"Feature","properties":{"id":1150649139,"highway":"residential"},"geometry":{"type":"LineString","coordinates":[[85.5299866,20.3776146],[85.5322863,20.3779176]]}},{"type":"Feature","properties":{"id":1150649140,"highway":"residential"},"geometry":{"type":"LineString","coordinates":[[85.5295813,20.378836],[85.5294689,20.3798546],[85.5293384,20.3804991]]}},{"type":"Feature","properties":{"id":1150649142,"highway":"residential"},"geometry":{"type":"LineString","coordinates":[[85.5274984,20.3778974],[85.5279984,20.3778618],[85.5280576,20.3778614]]}},{"type":"Feature","properties":{"id":1387100088,"highway":"unclassified"},"geometry":{"type":"LineString","coordinates":[[85.5280576,20.3778614],[85.5280226,20.3781619]]}},{"type":"Feature","properties":{"id":1510808459,"highway":"residential"},"geometry":{"type":"LineString","coordinates":[[85.5308693,20.3729347],[85.5301697,20.3729562],[85.5294336,20.3730093],[85.5290796,20.3730955],[85.5288295,20.3731973],[85.528334,20.3734251],[85.5278669,20.373664],[85.5273124,20.373936]]}},{"type":"Feature","properties":{"id":1510808460,"highway":"residential"},"geometry":{"type":"LineString","coordinates":[[85.530757,20.3734254],[85.5305691,20.3734268],[85.5299495,20.3735085]]}},{"type":"Feature","properties":{"id":1510808461,"highway":"residential"},"geometry":{"type":"LineString","coordinates":[[85.5308125,20.3731864],[85.5312554,20.3732128],[85.531671,20.3732347],[85.5318002,20.3732493],[85.5318547,20.3730785],[85.5318967,20.3728918],[85.531906,20.3728362]]}},{"type":"Feature","properties":{"id":1510808462,"highway":"residential"},"geometry":{"type":"LineString","coordinates":[[85.531906,20.3728362],[85.531643,20.3728129],[85.5311339,20.3727604],[85.5309108,20.372729]]}},{"type":"Feature","properties":{"id":1510808463,"highway":"residential"},"geometry":{"type":"LineString","coordinates":[[85.531906,20.3728362],[85.5319232,20.3727341],[85.5319605,20.3724977],[85.5319932,20.372308]]}},{"type":"Feature","properties":{"id":1510808464,"highway":"residential"},"geometry":{"type":"LineString","coordinates":[[85.5305667,20.3741652],[85.5304397,20.3741701],[85.5302747,20.3741964],[85.5301454,20.3742139],[85.5300661,20.3742474],[85.5299353,20.3743598],[85.529775,20.3744882],[85.5296006,20.3746356],[85.5295399,20.3747202],[85.5294294,20.3748618],[85.5293173,20.3750748],[85.5291585,20.3753725],[85.5290215,20.3755973],[85.5289499,20.3756863],[85.5289063,20.3757738],[85.5288456,20.3759081]]}},{"type":"Feature","properties":{"id":1510808466,"highway":"residential"},"geometry":{"type":"LineString","coordinates":[[85.5303285,20.3720373],[85.5306675,20.3719892],[85.5308708,20.3719853],[85.5309571,20.3720046],[85.5310401,20.372071]]}},{"type":"Feature","properties":{"id":1510808467,"highway":"residential"},"geometry":{"type":"LineString","coordinates":[[85.5193179,20.3525318],[85.519654,20.3525435],[85.5202084,20.352567],[85.5205875,20.3525737],[85.5211293,20.3525754]]}},{"type":"Feature","properties":{"id":1510808468,"highway":"residential"},"geometry":{"type":"LineString","coordinates":[[85.5211293,20.3525754],[85.5217927,20.3525686],[85.5225777,20.3525552],[85.5229246,20.3525401],[85.5231159,20.3525234],[85.5233036,20.3525033],[85.5234842,20.3524664],[85.5237167,20.3524043],[85.5238758,20.3523641],[85.5239867,20.3523373],[85.5241476,20.3523138],[85.5243658,20.3523071],[85.5248146,20.3523088],[85.525022,20.3523205],[85.5252026,20.3523507],[85.5253975,20.352401]]}},{"type":"Feature","properties":{"id":1510808469,"highway":"residential"},"geometry":{"type":"LineString","coordinates":[[85.5253975,20.352401],[85.5256157,20.3524446],[85.5257874,20.3524831],[85.5259054,20.3525485],[85.5261343,20.3526927],[85.5263381,20.3528352],[85.5264973,20.3529324],[85.5266689,20.3529928],[85.5269461,20.3530532],[85.5272,20.3531001]]}},{"type":"Feature","properties":{"id":1510808470,"highway":"residential"},"geometry":{"type":"LineString","coordinates":[[85.5272,20.3531001],[85.5275076,20.3531655],[85.5276864,20.3532074],[85.5277954,20.3532476],[85.5279188,20.3533214],[85.5280798,20.3534505],[85.5283891,20.3536919]]}},{"type":"Feature","properties":{"id":1510808471,"highway":"residential"},"geometry":{"type":"LineString","coordinates":[[85.5293844,20.3543759],[85.5295371,20.3544866],[85.5298447,20.3547514],[85.5301594,20.3550566],[85.5304723,20.3553717],[85.5307298,20.3555897],[85.5308979,20.3557087],[85.5311411,20.3558831]]}},{"type":"Feature","properties":{"id":1510808472,"highway":"primary"},"geometry":{"type":"LineString","coordinates":[[85.5293844,20.3543759],[85.5293857,20.354509],[85.5294126,20.3555048],[85.5294609,20.3561033],[85.5295681,20.356908],[85.5296701,20.3575719],[85.5298954,20.3589851],[85.5301207,20.3600915],[85.5303245,20.361022],[85.530464,20.3616305],[85.5305498,20.3621032],[85.5307269,20.3626514],[85.5308663,20.3630789],[85.5310092,20.363537],[85.5314277,20.3649049],[85.5316852,20.366132],[85.5317173,20.3665545],[85.5315886,20.3675904],[85.531492,20.3686566],[85.5314062,20.3695216],[85.5311915,20.3710842],[85.5310401,20.372071],[85.5310289,20.3721437],[85.5309108,20.372729],[85.5308693,20.3729347],[85.5308582,20.3729897],[85.5308125,20.3731864],[85.530757,20.3734254],[85.5306386,20.3739349],[85.5305667,20.3741652]]}},{"type":"Feature","properties":{"id":1510808473,"highway":"residential"},"geometry":{"type":"LineString","coordinates":[[85.5323581,20.356424],[85.5324254,20.356497],[85.5324938,20.35657],[85.5325434,20.3566275],[85.5326012,20.3566662],[85.5327498,20.3567514],[85.5329103,20.3568465],[85.5329728,20.3568874],[85.5330554,20.3569516],[85.5331037,20.3569958],[85.5331297,20.3570456],[85.5331533,20.3571153],[85.5331568,20.3572469],[85.5331144,20.357394]]}},{"type":"Feature","properties":{"id":1510808474,"highway":"residential"},"geometry":{"type":"LineString","coordinates":[[85.5311411,20.3558831],[85.5313574,20.3560028],[85.5319761,20.3562408],[85.5321818,20.356323],[85.5322803,20.3563676],[85.5323581,20.356424]]}},{"type":"Feature","properties":{"id":1510808475,"highway":"residential"},"geometry":{"type":"LineString","coordinates":[[85.5331144,20.357394],[85.5330318,20.3576152],[85.5329657,20.3578563],[85.5329221,20.3580079]]}},{"type":"Feature","properties":{"id":1510808476,"highway":"residential"},"geometry":{"type":"LineString","coordinates":[[85.5283891,20.3536919],[85.5287002,20.3539166],[85.5290006,20.3541529],[85.5292313,20.354282],[85.5293844,20.3543759]]}},{"type":"Feature","properties":{"id":1510808477,"highway":"residential"},"geometry":{"type":"LineString","coordinates":[[85.5311351,20.3767257],[85.5310109,20.3768724],[85.530833,20.377061],[85.5306711,20.3772077],[85.5305308,20.3773216],[85.5303966,20.3773954],[85.5302277,20.37747],[85.5301311,20.3774926],[85.5300169,20.3774971]]}},{"type":"Feature","properties":{"id":1510808478,"highway":"residential"},"geometry":{"type":"LineString","coordinates":[[85.5317771,20.3758721],[85.531778,20.3759136],[85.5317547,20.3759765],[85.5316376,20.3761248],[85.53144,20.3763369],[85.5312907,20.3765405],[85.5311351,20.3767257]]}},{"type":"Feature","properties":{"id":1510808479,"highway":"residential"},"geometry":{"type":"LineString","coordinates":[[85.5322863,20.3779176],[85.5323315,20.3777362],[85.5323708,20.3775016],[85.5323958,20.3772937],[85.5323976,20.3770993]]}},{"type":"Feature","properties":{"id":1510808480,"highway":"residential"},"geometry":{"type":"LineString","coordinates":[[85.5293384,20.3804991],[85.529618,20.3805812],[85.5299024,20.38065],[85.5301616,20.380717],[85.5303762,20.3807874],[85.5306838,20.3808779],[85.5310003,20.3809936],[85.5312149,20.3811076],[85.5313382,20.3811897],[85.5314598,20.3812534],[85.5315403,20.3812685],[85.531653,20.3812668],[85.53183,20.3812299],[85.5319855,20.381188],[85.5320356,20.3811629],[85.5320732,20.3811009],[85.5321858,20.3806684],[85.5322697,20.380363]]}},{"type":"Feature","properties":{"id":1510808481,"highway":"unclassified"},"geometry":{"type":"LineString","coordinates":[[85.515469,20.3709929],[85.515526,20.3710888],[85.5156941,20.3712463],[85.5160267,20.3714643],[85.516463,20.3717107]]}},{"type":"Feature","properties":{"id":1510808482,"highway":"unclassified"},"geometry":{"type":"LineString","coordinates":[[85.516463,20.3717107],[85.5169547,20.3719688],[85.5173106,20.3721817],[85.5177379,20.372574],[85.518117,20.3728958],[85.5183727,20.3731322],[85.5185909,20.3733484]]}},{"type":"Feature","properties":{"id":1510808483,"highway":"unclassified"},"geometry":{"type":"LineString","coordinates":[[85.5185909,20.3733484],[85.5188913,20.3736635],[85.5190969,20.3739167],[85.5193169,20.3741966],[85.5195243,20.3744715],[85.5199141,20.3749342],[85.5201609,20.3752543]]}},{"type":"Feature","properties":{"id":1510808484,"highway":"unclassified"},"geometry":{"type":"LineString","coordinates":[[85.5201609,20.3752543],[85.5204738,20.3756382],[85.5208815,20.3761545],[85.5211855,20.3765216],[85.5214144,20.37683],[85.5216665,20.37713],[85.5217881,20.3772692],[85.5219687,20.3774234],[85.5224318,20.3777821]]}},{"type":"Feature","properties":{"id":1510808485,"highway":"unclassified"},"geometry":{"type":"LineString","coordinates":[[85.5224318,20.3777821],[85.5227698,20.3780218],[85.523029,20.378223],[85.5233348,20.3783956],[85.5237568,20.378647],[85.5240233,20.3787543],[85.5242843,20.3788515],[85.5245382,20.3789303],[85.5248905,20.3790309]]}},{"type":"Feature","properties":{"id":1510808486,"highway":"unclassified"},"geometry":{"type":"LineString","coordinates":[[85.5248905,20.3790309],[85.5252767,20.3791784],[85.5258865,20.3793829],[85.5265696,20.3796427],[85.5271847,20.3798288],[85.5274994,20.3799461],[85.5276424,20.3800132],[85.5277283,20.3800819],[85.5278445,20.3802026],[85.5279697,20.3803467],[85.5280931,20.3804674],[85.5282468,20.3805663],[85.5284024,20.3806417],[85.5286009,20.3807272]]}},{"type":"Feature","properties":{"id":1510808487,"highway":"unclassified"},"geometry":{"type":"LineString","coordinates":[[85.5286009,20.3807272],[85.5288977,20.380801],[85.52903,20.3808261],[85.5291677,20.3808663],[85.5293072,20.3809066],[85.5294824,20.3809853],[85.5297274,20.3811278],[85.5302621,20.3814178],[85.5308969,20.3817782],[85.5312903,20.3819659],[85.531546,20.3820648],[85.5317283,20.3821151],[85.5319215,20.3821838],[85.5321092,20.3822877],[85.5322827,20.3823984],[85.5325759,20.3826196],[85.5329729,20.3829096]]}},{"type":"Feature","properties":{"id":1510808488,"highway":"unclassified"},"geometry":{"type":"LineString","coordinates":[[85.5329729,20.3829096],[85.5333842,20.3831694],[85.5337489,20.3834343],[85.5340064,20.3836237],[85.5341817,20.3837142],[85.5345536,20.38386],[85.5349613,20.3840477],[85.535487,20.384336],[85.5360038,20.3845724],[85.536399,20.3847517],[85.5367459,20.3848875],[85.5370552,20.3849981]]}},{"type":"Feature","properties":{"id":1510808489,"highway":"unclassified"},"geometry":{"type":"LineString","coordinates":[[85.5370552,20.3849981],[85.537538,20.3852177],[85.537994,20.3854591],[85.5387432,20.3858446],[85.5393101,20.3861547],[85.539614,20.3863223],[85.5398358,20.3864295],[85.5402578,20.3865871],[85.5402805,20.3865966],[85.5409087,20.3868586],[85.5411092,20.3869336],[85.5412716,20.3869944],[85.5414219,20.3870564],[85.5415792,20.3871134],[85.5418582,20.3871704],[85.5421121,20.3871955]]}},{"type":"Feature","properties":{"id":1510808490,"highway":"unclassified"},"geometry":{"type":"LineString","coordinates":[[85.5421121,20.3871955],[85.5421911,20.3872023],[85.542763,20.3872508],[85.5435408,20.3873414],[85.5443133,20.3874453],[85.5447764,20.3875324],[85.5453039,20.3876313],[85.5458135,20.3877285],[85.5462159,20.3877772],[85.5463518,20.3877822],[85.5464751,20.3877604],[85.546738,20.3877068],[85.5469597,20.3876581],[85.5471582,20.3876229],[85.5473299,20.3876112],[85.5475087,20.3876297],[85.5479003,20.3877285],[85.5485601,20.3879012]]}},{"type":"Feature","properties":{"id":1510808491,"highway":"unclassified"},"geometry":{"type":"LineString","coordinates":[[85.5485601,20.3879012],[85.5494184,20.3881275],[85.5500067,20.3883135],[85.5506272,20.3884711],[85.5512012,20.3886336],[85.5517591,20.3887795],[85.5525727,20.3890074],[85.5531538,20.3891717]]}},{"type":"Feature","properties":{"id":1510808492,"highway":"unclassified"},"geometry":{"type":"LineString","coordinates":[[85.5531538,20.3891717],[85.55349,20.3892387],[85.5537421,20.3892722],[85.5541552,20.389341],[85.5547149,20.3894549],[85.5551905,20.3895488],[85.55582,20.3896561],[85.5563528,20.3897533],[85.5568893,20.3898606],[85.5572558,20.3899427],[85.557617,20.3900349],[85.5580802,20.3901438],[85.5581731,20.3901539],[85.5583269,20.3901438],[85.55847,20.3901304],[85.5585929,20.3900956]]}},{"type":"Feature","properties":{"id":1510808493,"highway":"primary"},"geometry":{"type":"LineString","coordinates":[[85.5305667,20.3741652],[85.5304435,20.3745599],[85.530289,20.3750249],[85.5302321,20.3752612],[85.5302402,20.3754975],[85.5302971,20.3759217],[85.5302727,20.376374],[85.5302271,20.3766077],[85.530167,20.3769152],[85.5300169,20.3774971],[85.5299866,20.3776146],[85.5299569,20.3777299],[85.5298682,20.3780737],[85.5297079,20.37879],[85.5297417,20.3788891],[85.5298514,20.3789449],[85.5306752,20.3793583],[85.5308461,20.379444],[85.5319789,20.3801753],[85.5322697,20.380363],[85.532616,20.3805866],[85.5346054,20.3817467],[85.5356655,20.3824252],[85.5364347,20.3830134],[85.537359,20.3838047],[85.538117,20.3844459],[85.5388186,20.3849486],[85.5399702,20.3856241],[85.5405283,20.3859514],[85.5409454,20.3861961],[85.5412843,20.3863174],[85.5416663,20.3863174],[85.5422059,20.3863118],[85.5422209,20.3863116],[85.5429419,20.3862712],[85.5441189,20.3862943],[85.5447474,20.3863636],[85.5453266,20.3864502],[85.545697,20.3865363],[85.5460969,20.3866293],[85.5474001,20.38699],[85.5475117,20.3870209],[85.5485802,20.3873167],[85.5496863,20.3876305],[85.5499207,20.3876969],[85.5502367,20.3877866],[85.5509218,20.3879809],[85.5523744,20.3883664],[85.5532942,20.3886105],[85.5538851,20.3887733],[85.5545062,20.3889444],[85.5551055,20.3891095],[85.5563312,20.3894472],[85.5566279,20.3895289],[85.557491,20.3897778],[85.5585929,20.3900956]]}},{"type":"Feature","properties":{"id":1510808494,"highway":"unclassified"},"geometry":{"type":"LineString","coordinates":[[85.5715358,20.394436],[85.5714182,20.3944988],[85.5712484,20.3945675],[85.5709176,20.3946764],[85.5705671,20.3947619],[85.5702792,20.394839],[85.5702041,20.3948725],[85.5701612,20.3949262],[85.5701344,20.3950284],[85.5701254,20.3951994],[85.5701469,20.3954525],[85.5702112,20.3957776],[85.5702488,20.3960223],[85.5702738,20.396272],[85.5702899,20.3964078],[85.5703096,20.3964547],[85.5703382,20.3964748],[85.5706029,20.3964748],[85.5714111,20.3964329]]}},{"type":"Feature","properties":{"id":1510808495,"highway":"unclassified"},"geometry":{"type":"LineString","coordinates":[[85.5714111,20.3964329],[85.571935,20.3964262],[85.5723552,20.3963994],[85.5724947,20.3963877]]}},{"type":"Feature","properties":{"id":1510808496,"highway":"unclassified"},"geometry":{"type":"LineString","coordinates":[[85.5724947,20.3963877],[85.5725642,20.3967748],[85.5726311,20.3971293],[85.5726731,20.3972986],[85.5727027,20.397446],[85.5727152,20.3975933],[85.5727432,20.3978384],[85.5728132,20.3980967],[85.5728848,20.3983024],[85.5729175,20.3984352],[85.5729284,20.3985651],[85.5729253,20.3988233],[85.5728957,20.3990991],[85.5728319,20.3992391],[85.5726015,20.3997235]]}},{"type":"Feature","properties":{"id":1510808497,"highway":"residential"},"geometry":{"type":"LineString","coordinates":[[85.5694968,20.3933681],[85.5695295,20.3932466],[85.5695688,20.3931947],[85.5696546,20.3931259],[85.569744,20.3930958],[85.569998,20.3930405],[85.5703019,20.3930036],[85.5704557,20.3929868],[85.5706631,20.3929516],[85.5707937,20.3929064],[85.5709153,20.3928192],[85.5710619,20.3927354],[85.5712139,20.3926382],[85.5713301,20.3925695],[85.5716055,20.3924957]]}},{"type":"Feature","properties":{"id":1510808498,"highway":"residential"},"geometry":{"type":"LineString","coordinates":[[85.5662636,20.3920187],[85.5663239,20.3918657],[85.5663865,20.391678],[85.5664223,20.39143],[85.5664241,20.391264],[85.5663972,20.3911383],[85.566349,20.3909908],[85.5662828,20.3907696],[85.5662527,20.3906708],[85.566247,20.3906522],[85.5662202,20.390493],[85.5661952,20.3902952],[85.5664044,20.3902952],[85.5666494,20.390245],[85.5668478,20.3902232],[85.5670141,20.3902098],[85.5671769,20.3902181],[85.5673449,20.3902416],[85.5676936,20.3902768],[85.5681746,20.3903422],[85.568391,20.390369],[85.5686878,20.3903589],[85.5688684,20.3902919]]}},{"type":"Feature","properties":{"id":1510808499,"highway":"residential"},"geometry":{"type":"LineString","coordinates":[[85.5662527,20.3906708],[85.5660817,20.3906935],[85.5658513,20.3907096],[85.5657096,20.3906993]]}},{"type":"Feature","properties":{"id":1510808500,"highway":"residential"},"geometry":{"type":"LineString","coordinates":[[85.5602291,20.3905272],[85.5602246,20.3903951],[85.5602103,20.3900934],[85.560196,20.3898688],[85.5601924,20.389557],[85.5601763,20.3892352],[85.5601388,20.3888967],[85.5601298,20.3886989]]}},{"type":"Feature","properties":{"id":1510808501,"highway":"residential"},"geometry":{"type":"LineString","coordinates":[[85.5631017,20.3900766],[85.5635774,20.3900884],[85.5637508,20.3901001],[85.5638903,20.3901303],[85.5640959,20.3901504],[85.5643159,20.3901822],[85.5647289,20.3902258],[85.5649882,20.3902359],[85.5653226,20.3902392],[85.5654352,20.3902241],[85.5656015,20.390209],[85.5657875,20.3902057],[85.5659323,20.3902208],[85.5660611,20.390261],[85.5661952,20.3902952]]}},{"type":"Feature","properties":{"id":1510808502,"highway":"primary"},"geometry":{"type":"LineString","coordinates":[[85.5585929,20.3900956],[85.558649,20.3901118],[85.5590311,20.390222],[85.5597918,20.3904158],[85.5602291,20.3905272],[85.5609352,20.3907072],[85.5619273,20.3909671],[85.563055,20.3912097],[85.5637575,20.3912675],[85.5642551,20.3913481],[85.564338,20.3913718]]}},{"type":"Feature","properties":{"id":1510808503,"highway":"residential"},"geometry":{"type":"LineString","coordinates":[[85.560196,20.3898688],[85.5604374,20.3898353],[85.5606144,20.3898235],[85.5608201,20.3898185],[85.5610007,20.3898235],[85.5614531,20.3898805],[85.561732,20.3899191],[85.5621647,20.3899576],[85.5626475,20.3900213],[85.5629211,20.3900582],[85.5631017,20.3900766]]}},{"type":"Feature","properties":{"id":1510808504,"highway":"unclassified"},"geometry":{"type":"LineString","coordinates":[[85.5545062,20.3889444],[85.5545627,20.3887918],[85.5546306,20.3885555],[85.5546682,20.388408],[85.554686,20.3883426],[85.5547019,20.3883027],[85.5547147,20.3882706],[85.5547904,20.3880909],[85.5548566,20.3878395],[85.5549192,20.3875244],[85.5550104,20.3872864],[85.5550926,20.387107],[85.5551534,20.3869746],[85.5551981,20.3868623],[85.5552142,20.3867534],[85.5552053,20.3866008],[85.5552035,20.3864198],[85.5551785,20.3863193]]}},{"type":"Feature","properties":{"id":1510808505,"highway":"residential"},"geometry":{"type":"LineString","coordinates":[[85.5500886,20.3870795],[85.5498719,20.387023],[85.5496218,20.3869744],[85.5494212,20.386939],[85.5491806,20.3869257],[85.5488196,20.3869523]]}},{"type":"Feature","properties":{"id":1510808506,"highway":"unclassified"},"geometry":{"type":"LineString","coordinates":[[85.5475117,20.3870209],[85.547536,20.3867997],[85.5476257,20.3864193],[85.5476729,20.3861738],[85.5477342,20.385873],[85.5477932,20.3855899],[85.5478451,20.385309],[85.5478923,20.3851586],[85.5479985,20.3848578],[85.5480881,20.3846588],[85.5481212,20.3845327],[85.5481448,20.3843491],[85.5481755,20.38417],[85.5482132,20.3840328],[85.5482675,20.3838581],[85.548343,20.3836768],[85.5484704,20.3834954],[85.5485786,20.3833086],[85.5486353,20.3832159],[85.5487299,20.3830752],[85.5489234,20.382938],[85.5491688,20.3827788],[85.5493221,20.3826925],[85.5494404,20.3826282],[85.549526,20.3825596],[85.5495774,20.382475],[85.5496163,20.3823757],[85.5496241,20.3823071],[85.5499198,20.3822955],[85.5502296,20.3823174],[85.5503572,20.3823042],[85.5505565,20.3822502],[85.5507184,20.3822021],[85.5508491,20.3821846],[85.5510562,20.3821962],[85.5512944,20.382294],[85.551398,20.3823705],[85.5514111,20.3823801],[85.5515232,20.3824341],[85.5516555,20.3824531],[85.5518719,20.382472]]}},{"type":"Feature","properties":{"id":1510808507,"highway":"residential"},"geometry":{"type":"LineString","coordinates":[[85.5496241,20.3823071],[85.5495048,20.3823075],[85.5493774,20.3823104],[85.5492871,20.3823133],[85.5491761,20.3823287]]}},{"type":"Feature","properties":{"id":1510808508,"highway":"residential"},"geometry":{"type":"LineString","coordinates":[[85.545697,20.3865363],[85.5457388,20.3861726],[85.545759,20.3860063],[85.5457652,20.3859508],[85.5457606,20.3859173],[85.5457419,20.3858968],[85.5455582,20.3858545],[85.5452873,20.3858166],[85.5450663,20.3857962],[85.5448079,20.3857757],[85.5445822,20.3857772],[85.5444436,20.3857757]]}},{"type":"Feature","properties":{"id":1510808509,"highway":"residential"},"geometry":{"type":"LineString","coordinates":[[85.5399702,20.3856241],[85.5398678,20.3858232],[85.5396934,20.3861384],[85.539614,20.3863223]]}},{"type":"Feature","properties":{"id":1510808510,"highway":"residential"},"geometry":{"type":"LineString","coordinates":[[85.528474,20.3784158],[85.5283766,20.3785183],[85.5282908,20.378639],[85.5281924,20.3787882],[85.528044,20.3790798],[85.5278902,20.3794302],[85.5277293,20.3798123],[85.5276424,20.3800132]]}},{"type":"Feature","properties":{"id":1510808511,"highway":"residential"},"geometry":{"type":"LineString","coordinates":[[85.528407,20.3802649],[85.5286645,20.3803471],[85.5289184,20.380404],[85.5291026,20.3804577],[85.5293384,20.3804991]]}},{"type":"Feature","properties":{"id":1510808512,"highway":"residential"},"geometry":{"type":"LineString","coordinates":[[85.5353751,20.3733741],[85.5355454,20.3734244],[85.5357027,20.3734536],[85.5358552,20.3734989],[85.5360918,20.373601],[85.5361806,20.3736608],[85.5362818,20.3737834],[85.5363067,20.3738783],[85.5362958,20.3740096],[85.5362537,20.3741847]]}},{"type":"Feature","properties":{"id":1510808513,"highway":"unclassified"},"geometry":{"type":"LineString","coordinates":[[85.5390936,20.3711799],[85.538584,20.3713228],[85.5375543,20.3716421],[85.5359763,20.3728256],[85.5353751,20.3733741]]}},{"type":"Feature","properties":{"id":1510808514,"highway":"unclassified"},"geometry":{"type":"LineString","coordinates":[[85.5390936,20.3711799],[85.5396058,20.3710534],[85.5399617,20.3709662],[85.5403998,20.3708422],[85.5406036,20.3707752],[85.5408003,20.3707064],[85.54114,20.3706226],[85.5414673,20.3705371],[85.5417802,20.3704449],[85.5421432,20.370341],[85.5423685,20.3702723],[85.5427512,20.3701734],[85.5428853,20.3701482],[85.5430408,20.3701247],[85.5431964,20.3700778],[85.5434646,20.3700124],[85.5437775,20.3699437],[85.5439635,20.3699102],[85.5442532,20.3698599],[85.5445053,20.3698331],[85.5448325,20.3698079],[85.5450829,20.3698163],[85.5453314,20.3698364],[85.5454924,20.3698414],[85.545639,20.369823],[85.5461272,20.3697342],[85.5465706,20.3696705],[85.5470767,20.3695883],[85.5476381,20.3695062]]}},{"type":"Feature","properties":{"id":1510808515,"highway":"residential"},"geometry":{"type":"LineString","coordinates":[[85.5306752,20.3793583],[85.5307689,20.3790372],[85.5308815,20.3786868],[85.5309388,20.3785695],[85.5309906,20.3784823],[85.5310371,20.37837],[85.5311194,20.3781219],[85.5311802,20.3780147]]}},{"type":"Feature","properties":{"id":1510808516,"highway":"residential"},"geometry":{"type":"LineString","coordinates":[[85.5322475,20.3782025],[85.5325256,20.3782114],[85.5328806,20.3782305],[85.533046,20.3782457],[85.5331192,20.3782686],[85.5331598,20.3783092],[85.5331801,20.3783981],[85.5332113,20.3785264],[85.533233,20.3786039],[85.5332642,20.3786319],[85.5333224,20.3786586],[85.5334471,20.3786662],[85.5336002,20.3786522],[85.5337588,20.3786319],[85.5339539,20.3785785],[85.534122,20.3785341]]}},{"type":"Feature","properties":{"id":1510808517,"highway":"residential"},"geometry":{"type":"LineString","coordinates":[[85.5322475,20.3782025],[85.5319789,20.3801753]]}},{"type":"Feature","properties":{"id":1510808518,"highway":"residential"},"geometry":{"type":"LineString","coordinates":[[85.5322863,20.3779176],[85.5322475,20.3782025]]}},{"type":"Feature","properties":{"id":1510808519,"highway":"residential"},"geometry":{"type":"LineString","coordinates":[[85.5405283,20.3859514],[85.5404594,20.3861137],[85.5402805,20.3865966]]}},{"type":"Feature","properties":{"id":1510808520,"highway":"residential"},"geometry":{"type":"LineString","coordinates":[[85.5411092,20.3869336],[85.5411708,20.3868039],[85.5412206,20.386728],[85.5412424,20.3866974],[85.5412938,20.3866667],[85.541423,20.3866667],[85.5417935,20.3866915],[85.5422013,20.386693],[85.5422059,20.3863118]]}},{"type":"Feature","properties":{"id":1510808521,"highway":"residential"},"geometry":{"type":"LineString","coordinates":[[85.5422013,20.386693],[85.5421911,20.3872023]]}},{"type":"Feature","properties":{"id":1510808522,"highway":"unclassified"},"geometry":{"type":"LineString","coordinates":[[85.5476381,20.3695062],[85.5480339,20.3694568],[85.548396,20.3694203],[85.5486627,20.3694181],[85.5488196,20.3694336],[85.5489694,20.3694756],[85.5490815,20.3695188],[85.5491511,20.369553],[85.5492254,20.3696006]]}},{"type":"Feature","properties":{"id":1510808523,"highway":"unclassified"},"geometry":{"type":"LineString","coordinates":[[85.5492254,20.3696006],[85.549341,20.3697178],[85.5494613,20.3698118],[85.5495545,20.3698583],[85.5496737,20.3699114],[85.5497834,20.3699634],[85.5498683,20.3700242],[85.5499462,20.3701093],[85.550155,20.3703084],[85.5503367,20.3704743],[85.5505089,20.3706004]]}},{"type":"Feature","properties":{"id":1510808524,"highway":"unclassified"},"geometry":{"type":"LineString","coordinates":[[85.5505089,20.3706004],[85.5506717,20.3706966],[85.5508145,20.3707408],[85.5509596,20.3707619],[85.5512073,20.370795],[85.5514834,20.3708315]]}},{"type":"Feature","properties":{"id":1510808525,"highway":"unclassified"},"geometry":{"type":"LineString","coordinates":[[85.5514834,20.3708315],[85.551842,20.3709067],[85.5521051,20.370951],[85.5521396,20.3709579],[85.5524378,20.3710173],[85.5526879,20.3710505],[85.5529073,20.3710759],[85.5532105,20.3711069],[85.5534335,20.37115],[85.5535408,20.3711954],[85.5536352,20.3712264],[85.5537166,20.3712452],[85.5538617,20.3712617],[85.5539667,20.3712772],[85.5540882,20.3712971],[85.5542239,20.3713403],[85.5542923,20.371358],[85.5544941,20.3713668],[85.5546923,20.3713701]]}},{"type":"Feature","properties":{"id":1510808526,"highway":"unclassified"},"geometry":{"type":"LineString","coordinates":[[85.5546923,20.3713701],[85.5548209,20.3713657],[85.5550179,20.3713414],[85.5553281,20.3712971],[85.5555676,20.3712617],[85.5556714,20.3712452],[85.5558165,20.3712076],[85.5560065,20.37115],[85.5561469,20.3711158],[85.5562023,20.3711025],[85.5562224,20.3710472],[85.556266,20.3709753],[85.556384,20.3708813],[85.5564784,20.3708083],[85.5565822,20.3707431],[85.5567497,20.370669],[85.5568618,20.3706302],[85.5570104,20.3705573]]}},{"type":"Feature","properties":{"id":1510808527,"highway":"unclassified"},"geometry":{"type":"LineString","coordinates":[[85.5575264,20.3701701],[85.5576753,20.3700286],[85.5577749,20.3699189],[85.5578848,20.3697985],[85.5580235,20.3696589],[85.5581344,20.3695694],[85.5583388,20.3694413]]}},{"type":"Feature","properties":{"id":1510808528,"highway":"unclassified"},"geometry":{"type":"LineString","coordinates":[[85.5640644,20.3685074],[85.5642215,20.3685642],[85.5643222,20.368594],[85.5645173,20.3686316],[85.5646734,20.368648],[85.5649065,20.3686586],[85.5650811,20.3686595]]}},{"type":"Feature","properties":{"id":1510808529,"highway":"unclassified"},"geometry":{"type":"LineString","coordinates":[[85.5628997,20.3684496],[85.5630939,20.3684718],[85.5633023,20.3684872],[85.5635077,20.3684949],[85.5636741,20.3684901],[85.5638323,20.3684862],[85.5639473,20.3684891],[85.5640644,20.3685074]]}},{"type":"Feature","properties":{"id":1510808530,"highway":"unclassified"},"geometry":{"type":"LineString","coordinates":[[85.5618717,20.3682792],[85.5620155,20.3682677],[85.5621141,20.3682773],[85.5622476,20.3683014],[85.5624088,20.3683505],[85.5625875,20.3683899],[85.5627755,20.3684284],[85.5628997,20.3684496]]}},{"type":"Feature","properties":{"id":1510808531,"highway":"unclassified"},"geometry":{"type":"LineString","coordinates":[[85.5603743,20.3684901],[85.5605592,20.36844],[85.5608067,20.3683861],[85.5609525,20.368362],[85.5610871,20.3683418],[85.5612041,20.3683312],[85.5613448,20.3683283],[85.5615307,20.3683148],[85.5616663,20.3682965],[85.5618717,20.3682792]]}},{"type":"Feature","properties":{"id":1510808532,"highway":"unclassified"},"geometry":{"type":"LineString","coordinates":[[85.5593175,20.3688116],[85.5593606,20.3687751],[85.5594253,20.3687317],[85.5595075,20.3687009],[85.5597478,20.3686075],[85.5599265,20.3685546],[85.5600426,20.3685228],[85.560171,20.3685103],[85.5602583,20.3685103],[85.5603743,20.3684901]]}},{"type":"Feature","properties":{"id":1510808533,"highway":"unclassified"},"geometry":{"type":"LineString","coordinates":[[85.5583388,20.3694413],[85.5585657,20.3692815],[85.5587136,20.3692112],[85.558803,20.3691669],[85.5589057,20.3691294],[85.5589714,20.369113],[85.5590186,20.3691024],[85.5590495,20.3690899],[85.5591039,20.3690552],[85.559184,20.3689695],[85.559259,20.3688848],[85.5593175,20.3688116]]}},{"type":"Feature","properties":{"id":1510808534,"highway":"unclassified"},"geometry":{"type":"LineString","coordinates":[[85.5570104,20.3705573],[85.5571865,20.3704484],[85.5573559,20.3703203],[85.5575264,20.3701701]]}},{"type":"Feature","properties":{"id":1510808535,"highway":"unclassified"},"geometry":{"type":"LineString","coordinates":[[85.5650811,20.3686595],[85.5652926,20.3686571],[85.5653943,20.3686254],[85.5656694,20.3685263],[85.5658632,20.3684361],[85.5659714,20.3683976]]}},{"type":"Feature","properties":{"id":1510808536,"highway":"unclassified"},"geometry":{"type":"LineString","coordinates":[[85.5677632,20.3687055],[85.5679638,20.3687525],[85.5682551,20.3687982],[85.5683297,20.3688287],[85.5684001,20.3688605],[85.5684598,20.3689126],[85.5685031,20.368985]]}},{"type":"Feature","properties":{"id":1510808537,"highway":"unclassified"},"geometry":{"type":"LineString","coordinates":[[85.5666193,20.3684158],[85.5667187,20.3684284],[85.56695,20.3684577],[85.567221,20.3685174],[85.5673823,20.3685898],[85.56745,20.3686317],[85.5675356,20.368661],[85.5676809,20.3686894],[85.5677632,20.3687055]]}},{"type":"Feature","properties":{"id":1510808538,"highway":"unclassified"},"geometry":{"type":"LineString","coordinates":[[85.5659714,20.3683976],[85.566038,20.36837],[85.5661491,20.3683726],[85.5663944,20.3684056],[85.5666193,20.3684158]]}},{"type":"Feature","properties":{"id":1510828643,"highway":"unclassified"},"geometry":{"type":"LineString","coordinates":[[85.5551785,20.3863193],[85.5550705,20.3858872],[85.5549924,20.385529],[85.5549513,20.3852075],[85.5549082,20.3849129],[85.5548938,20.3846588],[85.5548651,20.384368],[85.5548425,20.3841196],[85.5548609,20.3839098],[85.5548918,20.3836556],[85.554902,20.3834226]]}},{"type":"Feature","properties":{"id":1510828644,"highway":"unclassified"},"geometry":{"type":"LineString","coordinates":[[85.5551362,20.3757882],[85.5550643,20.3755725],[85.5550129,20.3753607],[85.5549411,20.3751605],[85.5548876,20.3750372],[85.5548137,20.3749044],[85.5547726,20.3748042],[85.5547418,20.3747041],[85.5547089,20.374527],[85.5546822,20.3743671],[85.5546555,20.374242],[85.5546083,20.3740879],[85.5545528,20.3738607],[85.5545035,20.3736682],[85.5544645,20.3734467],[85.5544378,20.3733351],[85.5543844,20.3731964],[85.5542961,20.3729134],[85.5542262,20.3727632],[85.5541708,20.3726207],[85.5541287,20.3724195]]}},{"type":"Feature","properties":{"id":1510828645,"highway":"unclassified"},"geometry":{"type":"LineString","coordinates":[[85.5521396,20.3709579],[85.5521515,20.371186],[85.5521538,20.37152],[85.5521562,20.3717412],[85.5521302,20.3720265],[85.5520972,20.3722566],[85.5520783,20.3724313],[85.5520783,20.3725087],[85.5521019,20.3725684],[85.5521397,20.3726016],[85.5522175,20.3726304],[85.552411,20.3726459],[85.5527838,20.3726038],[85.5532958,20.3725375],[85.5536899,20.3724689],[85.5540296,20.3724269],[85.5541287,20.3724195]]}},{"type":"Feature","properties":{"id":1510828646,"highway":"unclassified"},"geometry":{"type":"LineString","coordinates":[[85.5552512,20.3772766],[85.5553169,20.3771399],[85.5553786,20.3769858],[85.5554073,20.3768607],[85.5554094,20.376774],[85.5553991,20.3766681],[85.5553745,20.3765218],[85.555319,20.3763331],[85.5552163,20.3760269],[85.5551362,20.3757882]]}},{"type":"Feature","properties":{"id":1510828647,"highway":"unclassified"},"geometry":{"type":"LineString","coordinates":[[85.5551588,20.3791597],[85.5551608,20.3789633],[85.5551588,20.3786687],[85.5551649,20.3784203],[85.5551485,20.378326],[85.5551423,20.378247],[85.5551362,20.3781565],[85.5551423,20.3780737],[85.5551567,20.3779505],[85.5551773,20.3777387],[85.5551896,20.3775423],[85.5552163,20.3773883],[85.5552512,20.3772766]]}},{"type":"Feature","properties":{"id":1510828648,"highway":"unclassified"},"geometry":{"type":"LineString","coordinates":[[85.5551115,20.3815222],[85.5551547,20.381166],[85.555169,20.3808753],[85.5551732,20.3805557],[85.5551875,20.3803073],[85.5551855,20.3799607],[85.5551814,20.37967],[85.5551649,20.3793754],[85.5551588,20.3791597]]}},{"type":"Feature","properties":{"id":1510828649,"highway":"unclassified"},"geometry":{"type":"LineString","coordinates":[[85.554902,20.3834226],[85.5548856,20.3831165],[85.5548671,20.3829105],[85.5548876,20.3827526],[85.554902,20.3826689],[85.5549164,20.3825851],[85.5549678,20.3824715],[85.555017,20.3823444],[85.5550561,20.3822077],[85.5550766,20.3820768],[85.555091,20.3818091],[85.5551115,20.3815222]]}},{"type":"Feature","properties":{"id":1510828650,"highway":"unclassified"},"geometry":{"type":"LineString","coordinates":[[85.5518719,20.382472],[85.5520645,20.3824795],[85.5522793,20.3824591],[85.5525891,20.382408],[85.55286,20.3823599],[85.5529408,20.3823427],[85.5531557,20.3822971],[85.5533955,20.382265],[85.5538376,20.3822402],[85.5541318,20.3822183],[85.5543046,20.382214],[85.5543964,20.3822256],[85.554468,20.3822665],[85.5546034,20.3824328],[85.5546828,20.3825598],[85.554728,20.382605],[85.5547949,20.3826371],[85.554902,20.3826689]]}},{"type":"Feature","properties":{"id":1510828651,"highway":"residential"},"geometry":{"type":"LineString","coordinates":[[85.5529408,20.3823427],[85.5529414,20.3828703],[85.5529373,20.3834132],[85.5529455,20.3839485],[85.5529373,20.3844953],[85.5529147,20.3850441],[85.5529127,20.385485]]}},{"type":"Feature","properties":{"id":1510828652,"highway":"residential"},"geometry":{"type":"LineString","coordinates":[[85.551398,20.3823705],[85.5513804,20.3825192],[85.5513316,20.3829207],[85.551318,20.383082],[85.5512855,20.38319],[85.5512516,20.3832916],[85.5512164,20.3834085],[85.5511852,20.3835101],[85.5511215,20.3837311],[85.5510876,20.3838861],[85.55107,20.3840042],[85.5510741,20.3840906],[85.5510944,20.3842024],[85.5511066,20.384318],[85.5511053,20.3844501],[85.5511175,20.3846216],[85.5511283,20.3847842]]}},{"type":"Feature","properties":{"id":1510828653,"highway":"residential"},"geometry":{"type":"LineString","coordinates":[[85.5535447,20.3881464],[85.5539354,20.38818],[85.5545316,20.3882646],[85.5547019,20.3883027]]}},{"type":"Feature","properties":{"id":1510828654,"highway":"unclassified"},"geometry":{"type":"LineString","coordinates":[[85.5715358,20.394436],[85.5716302,20.3943891],[85.571796,20.39433],[85.5719151,20.3942855],[85.5720186,20.3942447],[85.572105,20.3942053],[85.5722622,20.3940185],[85.572365,20.3938405],[85.5724304,20.3936712],[85.5724833,20.3935385],[85.5725775,20.3933685],[85.5726825,20.3931642],[85.5728047,20.3928899]]}},{"type":"Feature","properties":{"id":1510828655,"highway":"unclassified"},"geometry":{"type":"LineString","coordinates":[[85.5728047,20.3928899],[85.5728713,20.3927411],[85.5729024,20.3926357],[85.572916,20.3925315],[85.5729051,20.3924223],[85.5728726,20.3922152],[85.5727181,20.3917834],[85.5726327,20.3916043],[85.5724312,20.3914004],[85.5723244,20.3912656],[85.572234,20.3910923],[85.5721559,20.3909075],[85.5721066,20.390765]]}},{"type":"Feature","properties":{"id":1510828656,"highway":"unclassified"},"geometry":{"type":"LineString","coordinates":[[85.5721066,20.390765],[85.5720573,20.3905532],[85.5720204,20.3903665],[85.5720142,20.3902721],[85.572008,20.3901162],[85.5720286,20.3899949],[85.5720779,20.3897658],[85.5721292,20.3895906],[85.5721785,20.3893287],[85.5722258,20.3889571]]}},{"type":"Feature","properties":{"id":1510828657,"highway":"unclassified"},"geometry":{"type":"LineString","coordinates":[[85.5722258,20.3889571],[85.5722833,20.3884912],[85.572349,20.3879925],[85.5724004,20.3876729],[85.572423,20.3874669],[85.5724291,20.3873514],[85.5724024,20.3872551],[85.5723223,20.3869721],[85.572273,20.3867757],[85.5722751,20.3866679],[85.5722977,20.3865832],[85.5723716,20.3864041],[85.5724271,20.3862751],[85.5724702,20.3861057],[85.5725195,20.3859459],[85.5725585,20.3858188],[85.5725811,20.3857167],[85.5725708,20.3856243],[85.5725277,20.3854356],[85.5725031,20.3853759]]}},{"type":"Feature","properties":{"id":1510828658,"highway":"unclassified"},"geometry":{"type":"LineString","coordinates":[[85.5706237,20.3743025],[85.5708001,20.3744355],[85.5709782,20.3745903],[85.5711127,20.3747208],[85.571279,20.3749033],[85.5715256,20.3751753],[85.5716424,20.3752903],[85.5717486,20.3753733],[85.571883,20.375464],[85.572073,20.3756011],[85.5721874,20.3756752],[85.5722983,20.3757836],[85.5723231,20.3758654],[85.572375,20.3760269],[85.5724092,20.3761331],[85.5724588,20.3762149]]}},{"type":"Feature","properties":{"id":1510828659,"highway":"unclassified"},"geometry":{"type":"LineString","coordinates":[[85.5724588,20.3762149],[85.5726133,20.376341],[85.5727325,20.3764604],[85.5728292,20.3765644],[85.5728835,20.3766573],[85.5729531,20.3768077],[85.5730274,20.3769735],[85.5730994,20.3771063],[85.5731772,20.37726],[85.5732055,20.3773529],[85.5732244,20.3774856],[85.5732197,20.377615],[85.5731784,20.377782]]}},{"type":"Feature","properties":{"id":1510828660,"highway":"unclassified"},"geometry":{"type":"LineString","coordinates":[[85.5731784,20.377782],[85.5731064,20.3779788],[85.5730451,20.3781403],[85.5730286,20.3782265],[85.5730333,20.3783128],[85.5730699,20.378388],[85.5731064,20.3785052],[85.5731454,20.3786014],[85.5731548,20.37868],[85.5731572,20.3787728],[85.5731206,20.3788657],[85.5730852,20.3789409],[85.5730793,20.3790018],[85.5730982,20.379046],[85.5731347,20.3790692],[85.5732268,20.3790759],[85.5732716,20.3790858],[85.5733341,20.37913],[85.5733695,20.3792108],[85.5734309,20.379453]]}},{"type":"Feature","properties":{"id":1510828661,"highway":"unclassified"},"geometry":{"type":"LineString","coordinates":[[85.5734309,20.379453],[85.573458,20.3796067],[85.5734651,20.3797272],[85.5734545,20.3798367]]}},{"type":"Feature","properties":{"id":1510828662,"highway":"unclassified"},"geometry":{"type":"LineString","coordinates":[[85.5725031,20.3853759],[85.5726157,20.3852856],[85.5727268,20.3851763],[85.5728257,20.385015],[85.5728704,20.3849185],[85.5728758,20.3848232],[85.5728691,20.3846314],[85.5728406,20.3845107],[85.5728325,20.3843761],[85.5728216,20.384249],[85.5728338,20.3841703],[85.5729138,20.3840636],[85.573029,20.384014],[85.5731835,20.383948]]}},{"type":"Feature","properties":{"id":1510828663,"highway":"unclassified"},"geometry":{"type":"LineString","coordinates":[[85.5731835,20.383948],[85.5732675,20.3838756],[85.5733244,20.3838019],[85.5733474,20.3837333],[85.5733325,20.3836571],[85.5733027,20.3835694],[85.573216,20.3834246],[85.5731482,20.3832709],[85.5730723,20.383055],[85.5730168,20.3828136],[85.5729477,20.3824884],[85.5728569,20.3822432],[85.5728108,20.3820781],[85.5728027,20.3818736],[85.5727783,20.3816881],[85.5727254,20.3815217],[85.5726902,20.381448],[85.5726482,20.3813438],[85.5726184,20.3812143],[85.5725831,20.3810555],[85.5725642,20.380945],[85.5725249,20.380837],[85.5724788,20.380762],[85.5724056,20.3806503],[85.57235,20.3805639],[85.5723392,20.3804965],[85.5723311,20.3804076],[85.5723284,20.380367],[85.572346,20.3803035],[85.5723866,20.3802539],[85.5724978,20.3801726],[85.5726577,20.3800723],[85.5727485,20.3800214],[85.5728813,20.3799668],[85.5730019,20.3799262],[85.573193,20.3798982],[85.5733081,20.3798842],[85.5734545,20.3798367]]}},{"type":"Feature","properties":{"id":1510828664,"highway":"unclassified"},"geometry":{"type":"LineString","coordinates":[[85.5695663,20.3695512],[85.5697188,20.3695994],[85.5698309,20.369595],[85.5698947,20.3695644],[85.5699477,20.3695191],[85.5700022,20.3694914],[85.5700343,20.3694908],[85.5700847,20.36949],[85.5701858,20.3695177],[85.5703026,20.3695658],[85.5703867,20.3696403],[85.5704334,20.3697103],[85.5704551,20.3698081],[85.5704645,20.3699029]]}},{"type":"Feature","properties":{"id":1510828665,"highway":"unclassified"},"geometry":{"type":"LineString","coordinates":[[85.5702559,20.3704867],[85.5700971,20.3707348],[85.5700193,20.3708719],[85.5699228,20.3710719],[85.5698512,20.3712732],[85.5697873,20.3714586]]}},{"type":"Feature","properties":{"id":1510828666,"highway":"unclassified"},"geometry":{"type":"LineString","coordinates":[[85.5694994,20.3723093],[85.5694994,20.3725676],[85.5694729,20.3728624],[85.5694713,20.3730186],[85.5694869,20.3731324],[85.5695305,20.3732418],[85.5696286,20.3733863],[85.5697251,20.3735045],[85.5698807,20.3737015],[85.5700146,20.3738387],[85.5701999,20.3739642],[85.5704287,20.3741495],[85.5706237,20.3743025]]}},{"type":"Feature","properties":{"id":1510828667,"highway":"unclassified"},"geometry":{"type":"LineString","coordinates":[[85.5697873,20.3714586],[85.5697235,20.3715914],[85.5696379,20.3717344],[85.5695678,20.3718774],[85.569532,20.3720087],[85.5695149,20.3721415],[85.5694994,20.3723093]]}},{"type":"Feature","properties":{"id":1510828668,"highway":"unclassified"},"geometry":{"type":"LineString","coordinates":[[85.5704645,20.3699029],[85.5704707,20.3700868],[85.5704614,20.370189],[85.5704474,20.3702619],[85.5703695,20.3703743],[85.5702559,20.3704867]]}},{"type":"Feature","properties":{"id":1510828669,"highway":"unclassified"},"geometry":{"type":"LineString","coordinates":[[85.5686305,20.3695427],[85.5688315,20.3695367],[85.5689592,20.3695133],[85.569051,20.3694841],[85.5691787,20.3694578],[85.5693561,20.369487],[85.5695663,20.3695512]]}},{"type":"Feature","properties":{"id":1510828670,"highway":"unclassified"},"geometry":{"type":"LineString","coordinates":[[85.5685031,20.368985],[85.568537,20.3691031],[85.5685899,20.3693648],[85.5686305,20.3695427]]}},{"type":"Feature","properties":{"id":1510828671,"highway":"unclassified"},"geometry":{"type":"LineString","coordinates":[[85.5686305,20.3695427],[85.5684858,20.3695708],[85.5683557,20.3696165],[85.568246,20.3696661],[85.568166,20.3696801],[85.568105,20.3696775],[85.56796,20.3696318],[85.5676768,20.3695327],[85.5675318,20.3694577]]}},{"type":"Feature","properties":{"id":1510828672,"highway":"residential"},"geometry":{"type":"LineString","coordinates":[[85.5676809,20.3686894],[85.5677092,20.3685723],[85.5677248,20.3684279],[85.5677357,20.3682907],[85.567745,20.3681623],[85.5677357,20.368063],[85.5677326,20.3679507],[85.5677388,20.3678062],[85.567759,20.3675523]]}},{"type":"Feature","properties":{"id":1510828673,"highway":"residential"},"geometry":{"type":"LineString","coordinates":[[85.5667187,20.3684284],[85.566646,20.3682571],[85.5665308,20.3680047],[85.5664779,20.3678237],[85.5664405,20.3676559]]}},{"type":"Feature","properties":{"id":1510828674,"highway":"residential"},"geometry":{"type":"LineString","coordinates":[[85.566038,20.36837],[85.5659984,20.3682673],[85.5659688,20.3681404],[85.5659533,20.3680251],[85.5659455,20.3679156],[85.5659611,20.3677828]]}},{"type":"Feature","properties":{"id":1510828675,"highway":"unclassified"},"geometry":{"type":"LineString","coordinates":[[85.5700343,20.3694908],[85.5700047,20.369379],[85.5700233,20.3693046],[85.5700809,20.3691324],[85.5701479,20.3689514],[85.5702335,20.3687311],[85.5703004,20.3685662],[85.5704265,20.3683181]]}},{"type":"Feature","properties":{"id":1510835232,"highway":"residential"},"geometry":{"type":"LineString","coordinates":[[85.5813276,20.3403833],[85.5816891,20.3403629],[85.5820279,20.3403452],[85.5823924,20.3403312],[85.5827204,20.3403197],[85.5830957,20.3403032],[85.5833126,20.340302],[85.5835633,20.3402994],[85.5837814,20.3402918],[85.5839048,20.3402753],[85.5840281,20.34026],[85.5841609,20.34026],[85.5843059,20.3402765],[85.5843913,20.3402943],[85.5845322,20.3403032],[85.5845932,20.3402905],[85.5846149,20.3403998],[85.5846582,20.3405446],[85.5846786,20.3406336],[85.5846936,20.3406944]]}},{"type":"Feature","properties":{"id":1510835233,"highway":"residential"},"geometry":{"type":"LineString","coordinates":[[85.5870009,20.3397509],[85.5869828,20.3396542],[85.586972,20.3395017],[85.5869988,20.3393759],[85.5870118,20.3393311],[85.5870436,20.3392217],[85.5871347,20.3390087],[85.5872295,20.3387438],[85.58731,20.3385527],[85.5873744,20.3384487],[85.5874155,20.3384051],[85.5875317,20.338328],[85.5876301,20.3382559],[85.5877821,20.3381],[85.5879716,20.3379323],[85.5881075,20.3377915],[85.5882094,20.3376859],[85.5882255,20.3376339],[85.5882148,20.3375433],[85.5881701,20.337431],[85.5880074,20.3371795],[85.587909,20.3369967],[85.5878482,20.336819],[85.5877856,20.3365792]]}},{"type":"Feature","properties":{"id":1510835234,"highway":"unclassified"},"geometry":{"type":"LineString","coordinates":[[85.5921792,20.3421046],[85.5907581,20.3415175],[85.5896149,20.3407423],[85.5879818,20.3402542],[85.5874817,20.3399096],[85.5872061,20.3397756],[85.5870009,20.3397509]]}},{"type":"Feature","properties":{"id":1510835235,"highway":"residential"},"geometry":{"type":"LineString","coordinates":[[85.5870118,20.3393311],[85.586866,20.3393133],[85.5866722,20.3393311],[85.5863971,20.3393806],[85.5861206,20.3394772],[85.585916,20.3395306],[85.5856897,20.3395674],[85.585462,20.3396271],[85.5853306,20.3396881],[85.5851869,20.3397618],[85.5850717,20.339847],[85.5849335,20.339988],[85.584882,20.3400427]]}},{"type":"Feature","properties":{"id":1510835236,"highway":"residential"},"geometry":{"type":"LineString","coordinates":[[85.5845932,20.3402905],[85.5846083,20.3402612],[85.5846069,20.3402078],[85.5845134,20.3399931],[85.5844294,20.339805],[85.5843793,20.3396513],[85.5843711,20.3395191],[85.5843345,20.339312]]}},{"type":"Feature","properties":{"id":1510835237,"highway":"residential"},"geometry":{"type":"LineString","coordinates":[[85.58687,20.3397648],[85.586785,20.3399563],[85.5866465,20.3401811],[85.5865422,20.3404044],[85.5864877,20.3405037],[85.586455,20.3405869],[85.5864394,20.3406657],[85.5861297,20.3406599],[85.5858137,20.340638],[85.5857498,20.3406599],[85.5857125,20.3407153],[85.5857016,20.3408175],[85.5857016,20.341124],[85.5856985,20.3413707]]}},{"type":"Feature","properties":{"id":1510835238,"highway":"residential"},"geometry":{"type":"LineString","coordinates":[[85.5853778,20.3423836],[85.5853326,20.3424595],[85.585261,20.3425004],[85.5851583,20.342534],[85.5850867,20.342585],[85.5849731,20.3426989],[85.5848765,20.3428157],[85.5847115,20.3430594],[85.5845792,20.3431981],[85.5844344,20.3432973],[85.5843161,20.343382],[85.5841869,20.3434331],[85.5840001,20.3434462],[85.5839052,20.3434126],[85.5837542,20.3433192]]}},{"type":"Feature","properties":{"id":1510835239,"highway":"residential"},"geometry":{"type":"LineString","coordinates":[[85.5853778,20.3423836],[85.5854463,20.3424318],[85.5856346,20.3426113],[85.5857856,20.3426901],[85.585893,20.3427237],[85.5860721,20.3427792],[85.5863585,20.3428624],[85.5864752,20.3429062]]}},{"type":"Feature","properties":{"id":1510835240,"highway":"residential"},"geometry":{"type":"LineString","coordinates":[[85.5856985,20.3413707],[85.5857109,20.3415371],[85.5856549,20.3417823],[85.5855739,20.3419501],[85.5855117,20.342134],[85.5854743,20.342242],[85.585398,20.3423165],[85.5853778,20.3423836]]}},{"type":"Feature","properties":{"id":1510835241,"highway":"unclassified"},"geometry":{"type":"LineString","coordinates":[[85.5870009,20.3397509],[85.58687,20.3397648],[85.586546,20.339818],[85.5862466,20.3399096],[85.585558,20.3401765],[85.5850239,20.3405756],[85.5846936,20.3406944],[85.5845336,20.3408232],[85.5841815,20.3410226],[85.58365,20.3412092],[85.5828032,20.3414078],[85.5823383,20.3414149],[85.5819475,20.3413595],[85.5814316,20.3411859],[85.5814078,20.3410917],[85.5813547,20.3407599],[85.5813264,20.3405309],[85.5813276,20.3403833],[85.5813299,20.3401094],[85.5814007,20.3394623],[85.5814609,20.3390276],[85.5814644,20.3388418]]}},{"type":"Feature","properties":{"id":1510835242,"highway":"unclassified"},"geometry":{"type":"LineString","coordinates":[[85.5814644,20.3388418],[85.5813936,20.3384635],[85.5812415,20.3381515],[85.5810008,20.3378761],[85.5809512,20.3377301],[85.580976,20.3365719]]}},{"type":"Feature","properties":{"id":1510835243,"highway":"unclassified"},"geometry":{"type":"LineString","coordinates":[[85.580976,20.3365719],[85.5810468,20.3361205],[85.581022,20.3358484],[85.5807,20.3346238],[85.5806363,20.3342654],[85.5805301,20.3340464]]}},{"type":"Feature","properties":{"id":1510835244,"highway":"residential"},"geometry":{"type":"LineString","coordinates":[[85.5798678,20.332733],[85.5799674,20.3326718],[85.5801246,20.3326149],[85.580394,20.3325317],[85.5805543,20.332504],[85.5807302,20.3324865],[85.5808547,20.3324981],[85.5810446,20.3325186],[85.5812953,20.3325609],[85.5814696,20.3325872],[85.581714,20.3326281]]}},{"type":"Feature","properties":{"id":1510835245,"highway":"unclassified"},"geometry":{"type":"LineString","coordinates":[[85.5805301,20.3340464],[85.5801478,20.3333429],[85.5799532,20.3329247],[85.5798678,20.332733],[85.579801,20.3325829],[85.5797833,20.3321149],[85.5797762,20.3317001]]}},{"type":"Feature","properties":{"id":1510835246,"highway":"unclassified"},"geometry":{"type":"LineString","coordinates":[[85.5797762,20.3317001],[85.5796701,20.3314147],[85.5794172,20.3311332],[85.5792579,20.3309407],[85.5791376,20.330725],[85.5789713,20.3303168]]}},{"type":"Feature","properties":{"id":1510835247,"highway":"unclassified"},"geometry":{"type":"LineString","coordinates":[[85.5789713,20.3303168],[85.57872,20.3298256],[85.5786138,20.3296166],[85.5785253,20.3294738],[85.578405,20.3293809],[85.5780688,20.3291254],[85.5778776,20.3288964],[85.5776299,20.3283919],[85.5770424,20.3270677]]}},{"type":"Feature","properties":{"id":1510835248,"highway":"unclassified"},"geometry":{"type":"LineString","coordinates":[[85.5770424,20.3270677],[85.5769114,20.3268786],[85.5768053,20.3265898],[85.5767628,20.3260057],[85.5767475,20.3247822],[85.5767019,20.3245332],[85.5766751,20.3244025],[85.5766134,20.3242214],[85.5765034,20.3240956],[85.5763827,20.3240277],[85.5762164,20.3238818],[85.5761333,20.3237082],[85.5760313,20.3233159]]}},{"type":"Feature","properties":{"id":1510835249,"highway":"residential"},"geometry":{"type":"LineString","coordinates":[[85.5734792,20.3156147],[85.5728637,20.3156418],[85.5722948,20.3156591]]}},{"type":"Feature","properties":{"id":1510835250,"highway":"residential"},"geometry":{"type":"LineString","coordinates":[[85.5735276,20.3158848],[85.5734019,20.3159519],[85.5732766,20.3160752],[85.5731451,20.3162967],[85.5730732,20.3164489],[85.5730404,20.3165992],[85.5731266,20.3169401],[85.5731472,20.3170576],[85.5731308,20.3171269],[85.5730506,20.3172078],[85.5728945,20.3173465],[85.5728165,20.3174698],[85.5726049,20.3177087],[85.5725063,20.3178551],[85.5724201,20.3180092]]}},{"type":"Feature","properties":{"id":1510835251,"highway":"residential"},"geometry":{"type":"LineString","coordinates":[[85.5734792,20.3156147],[85.5736615,20.3155909],[85.573796,20.3155743],[85.5739163,20.3155522],[85.5740166,20.3155522],[85.5742148,20.3155876],[85.5742903,20.3156041],[85.5743835,20.3156053],[85.5745333,20.3155898]]}},{"type":"Feature","properties":{"id":1510835252,"highway":"residential"},"geometry":{"type":"LineString","coordinates":[[85.5734679,20.3152273],[85.5733125,20.3152606],[85.5731892,20.3152848],[85.5730713,20.3152873],[85.5729073,20.3152492],[85.5727867,20.3152047],[85.5727308,20.3152024],[85.5726607,20.3151996],[85.5724533,20.3151717],[85.5723029,20.3151818]]}},{"type":"Feature","properties":{"id":1510835253,"highway":"residential"},"geometry":{"type":"LineString","coordinates":[[85.5727308,20.3152024],[85.5726986,20.3150446],[85.5726444,20.3148857],[85.5726249,20.3147247],[85.5726146,20.3146392],[85.5725482,20.3143011]]}},{"type":"Feature","properties":{"id":1510835254,"highway":"residential"},"geometry":{"type":"LineString","coordinates":[[85.5734599,20.3146938],[85.5732759,20.3147053],[85.5730686,20.3147192],[85.5728816,20.3147192],[85.5727447,20.3147205],[85.5726249,20.3147247]]}},{"type":"Feature","properties":{"id":1510835255,"highway":"unclassified"},"geometry":{"type":"LineString","coordinates":[[85.5740002,20.3110714],[85.5739021,20.3110167],[85.5737013,20.3110283],[85.5735082,20.3110678],[85.5731206,20.3112605],[85.5729478,20.3113349],[85.5728358,20.3113802],[85.5726988,20.3114181],[85.5723158,20.3114999],[85.5720792,20.311567],[85.5719983,20.311605],[85.5719329,20.3116663],[85.571866,20.3117145],[85.5717741,20.3117451],[85.5716371,20.311767],[85.5715079,20.3117845],[85.5714301,20.3118108],[85.5713351,20.3118488],[85.5712511,20.3119378],[85.5711343,20.3120824],[85.5709927,20.3122517],[85.5709024,20.3125057],[85.5708386,20.3127013],[85.5707856,20.3128415],[85.5707483,20.3130386],[85.5707296,20.3132079],[85.5707405,20.3133962],[85.5707171,20.3135729],[85.5706938,20.3137627],[85.5706642,20.3138926],[85.5706378,20.3139714]]}},{"type":"Feature","properties":{"id":1510835256,"highway":"unclassified"},"geometry":{"type":"LineString","coordinates":[[85.5706378,20.3139714],[85.5705879,20.3140853],[85.5704945,20.3141758],[85.5703731,20.3142561],[85.5702626,20.3143349],[85.570163,20.314386],[85.5701241,20.3144225],[85.57011,20.3144634],[85.5701163,20.3145568],[85.5701754,20.3148721],[85.5702439,20.3152094],[85.5702953,20.3154634],[85.570356,20.3156181],[85.5704229,20.3157218],[85.5705241,20.31584],[85.5705926,20.315951],[85.5706487,20.3160648],[85.5706829,20.3161831],[85.5707047,20.3163816],[85.5707436,20.3166896]]}},{"type":"Feature","properties":{"id":1510835257,"highway":"residential"},"geometry":{"type":"LineString","coordinates":[[85.5683405,20.3188359],[85.5685424,20.318738],[85.5687619,20.3186427],[85.56893,20.3185779],[85.5690533,20.3185334],[85.5692593,20.3184915],[85.5694368,20.3184788],[85.5696265,20.3184813],[85.569861,20.3184737],[85.5699386,20.318461]]}},{"type":"Feature","properties":{"id":1510835258,"highway":"unclassified"},"geometry":{"type":"LineString","coordinates":[[85.5699386,20.318461],[85.5699843,20.3183377],[85.5700439,20.3181725],[85.5701358,20.3180111],[85.5702065,20.3178802],[85.5703298,20.3177163],[85.5703908,20.3175358],[85.5704288,20.3174341],[85.5704586,20.3173782],[85.5705345,20.3172842],[85.5705968,20.3172257],[85.5706483,20.3171635],[85.5706835,20.3170936],[85.5707283,20.3170021],[85.5707567,20.3169093],[85.5707635,20.3168267],[85.5707436,20.3166896]]}},{"type":"Feature","properties":{"id":1510835259,"highway":"residential"},"geometry":{"type":"LineString","coordinates":[[85.5699386,20.318461],[85.5699856,20.3184534],[85.5701469,20.3184165],[85.5702838,20.3183873],[85.5704152,20.3183771]]}},{"type":"Feature","properties":{"id":1510835260,"highway":"residential"},"geometry":{"type":"LineString","coordinates":[[85.5732403,20.3125127],[85.572806,20.3125483],[85.5722525,20.3125676],[85.5720424,20.3125867],[85.5719204,20.312621],[85.5717551,20.3126985],[85.5715478,20.3127976]]}},{"type":"Feature","properties":{"id":1510835261,"highway":"residential"},"geometry":{"type":"LineString","coordinates":[[85.5739008,20.3111749],[85.5740468,20.3112573],[85.5742631,20.3113303],[85.5745231,20.3113916],[85.5748173,20.3114193],[85.5751816,20.3114354]]}},{"type":"Feature","properties":{"id":1510835262,"highway":"residential"},"geometry":{"type":"LineString","coordinates":[[85.5733297,20.3119078],[85.5735388,20.3119226],[85.5738253,20.3119401],[85.5741195,20.3119722],[85.5743966,20.3120087],[85.5745102,20.3120364]]}},{"type":"Feature","properties":{"id":1510835263,"highway":"residential"},"geometry":{"type":"LineString","coordinates":[[85.5732392,20.3127993],[85.5733894,20.3128161],[85.5736369,20.3128205],[85.5740946,20.312838],[85.5742175,20.312838]]}},{"type":"Feature","properties":{"id":1510835264,"highway":"unclassified"},"geometry":{"type":"LineString","coordinates":[[85.5760313,20.3233159],[85.575975,20.3226644],[85.5758007,20.3213967],[85.5757014,20.3206925]]}},{"type":"Feature","properties":{"id":1510835265,"highway":"unclassified"},"geometry":{"type":"LineString","coordinates":[[85.5757014,20.3206925],[85.5756049,20.3198398],[85.5755727,20.3195103],[85.5754708,20.3191456],[85.575342,20.318811],[85.5749772,20.3182099],[85.5743228,20.3172566],[85.5740465,20.3168214],[85.5737193,20.316346],[85.5735449,20.3159662],[85.5735276,20.3158848],[85.5734806,20.3156643],[85.5734792,20.3156147]]}},{"type":"Feature","properties":{"id":1510835266,"highway":"unclassified"},"geometry":{"type":"LineString","coordinates":[[85.5734679,20.3152273],[85.5734618,20.3150179],[85.5734599,20.3146938]]}},{"type":"Feature","properties":{"id":1510835267,"highway":"unclassified"},"geometry":{"type":"LineString","coordinates":[[85.5734792,20.3156147],[85.5734679,20.3152273]]}},{"type":"Feature","properties":{"id":1510835268,"highway":"unclassified"},"geometry":{"type":"LineString","coordinates":[[85.5734599,20.3146938],[85.5734564,20.3141174],[85.5734216,20.3139992],[85.573333,20.3135967],[85.5732392,20.3127993]]}},{"type":"Feature","properties":{"id":1510835269,"highway":"unclassified"},"geometry":{"type":"LineString","coordinates":[[85.5732392,20.3127993],[85.5732403,20.3125127]]}},{"type":"Feature","properties":{"id":1510835270,"highway":"unclassified"},"geometry":{"type":"LineString","coordinates":[[85.5732403,20.3125127],[85.5732418,20.312095],[85.5733297,20.3119078]]}},{"type":"Feature","properties":{"id":1510835271,"highway":"unclassified"},"geometry":{"type":"LineString","coordinates":[[85.5733297,20.3119078],[85.5734001,20.3117579],[85.5736308,20.3114561],[85.5739008,20.3111749],[85.5740002,20.3110714],[85.5740197,20.3110511],[85.5741779,20.3108826],[85.5745615,20.3106562],[85.5752428,20.3104021],[85.5756049,20.3102839],[85.5757443,20.310221],[85.5759375,20.3101053],[85.5761279,20.3099393],[85.5761869,20.3097984]]}},{"type":"Feature","properties":{"id":1510835272,"highway":"unclassified"},"geometry":{"type":"LineString","coordinates":[[85.5761869,20.3097984],[85.5763452,20.3093657],[85.5764471,20.3089784],[85.57649,20.3087042],[85.5765302,20.3084778],[85.5765168,20.3082615],[85.5764551,20.3080099],[85.5761842,20.3075068]]}},{"type":"Feature","properties":{"id":1510835273,"highway":"unclassified"},"geometry":{"type":"LineString","coordinates":[[85.5761842,20.3075068],[85.5758168,20.3070339],[85.5756022,20.3068226],[85.5755115,20.3067722],[85.5754708,20.3067496],[85.5752669,20.3067044],[85.5746258,20.3067533],[85.5745749,20.3067572]]}},{"type":"Feature","properties":{"id":1510835274,"highway":"residential"},"geometry":{"type":"LineString","coordinates":[[85.572177,20.3062239],[85.5725741,20.306137],[85.5730265,20.3060314],[85.5735039,20.3059207],[85.5736452,20.3058771],[85.5737721,20.3058184],[85.5739277,20.3057731],[85.5741494,20.3057312],[85.5743322,20.3057048],[85.5745128,20.305683],[85.5747256,20.3056478]]}},{"type":"Feature","properties":{"id":1510835275,"highway":"residential"},"geometry":{"type":"LineString","coordinates":[[85.5741494,20.3057312],[85.5742481,20.3058356],[85.5744645,20.3062465],[85.5745557,20.3064528],[85.5746258,20.3067533]]}},{"type":"Feature","properties":{"id":1510835276,"highway":"residential"},"geometry":{"type":"LineString","coordinates":[[85.5715091,20.3057848],[85.5714321,20.3058209],[85.571092,20.3059163],[85.570924,20.3059341],[85.5707031,20.3059557],[85.5704564,20.3059862]]}},{"type":"Feature","properties":{"id":1510835277,"highway":"residential"},"geometry":{"type":"LineString","coordinates":[[85.5715091,20.3057848],[85.571653,20.3059277],[85.5717913,20.3060395],[85.5720609,20.3062988],[85.5721192,20.3063738]]}},{"type":"Feature","properties":{"id":1510835278,"highway":"residential"},"geometry":{"type":"LineString","coordinates":[[85.5722825,20.3072851],[85.5727481,20.3072217],[85.5732183,20.3071295],[85.5735599,20.3070423]]}},{"type":"Feature","properties":{"id":1510835279,"highway":"residential"},"geometry":{"type":"LineString","coordinates":[[85.5721192,20.3063738],[85.5717163,20.3064637],[85.5713944,20.3065459],[85.5712979,20.3065794],[85.5712567,20.3066079],[85.5712442,20.3066465],[85.5712782,20.3068092],[85.5713962,20.3070456],[85.5714606,20.3071898],[85.5714928,20.3073223],[85.571727,20.3072804],[85.5719309,20.3072368],[85.5720936,20.3071563],[85.5721991,20.3071127],[85.5722677,20.3070874]]}},{"type":"Feature","properties":{"id":1510835280,"highway":"residential"},"geometry":{"type":"LineString","coordinates":[[85.5714928,20.3073223],[85.5713175,20.3074431],[85.5711584,20.3075403],[85.5709313,20.3077801],[85.5707972,20.3079579],[85.5706899,20.3080636],[85.5705951,20.3081373]]}},{"type":"Feature","properties":{"id":1510835281,"highway":"residential"},"geometry":{"type":"LineString","coordinates":[[85.5724024,20.3078646],[85.5722295,20.3079076],[85.5720346,20.3079395],[85.5719058,20.3079411],[85.5717217,20.3079244],[85.5715393,20.3078959]]}},{"type":"Feature","properties":{"id":1510835282,"highway":"residential"},"geometry":{"type":"LineString","coordinates":[[85.5724024,20.3078646],[85.5728998,20.3077324]]}},{"type":"Feature","properties":{"id":1510835283,"highway":"residential"},"geometry":{"type":"LineString","coordinates":[[85.5722825,20.3072851],[85.572294,20.3074223],[85.5724024,20.3078646]]}},{"type":"Feature","properties":{"id":1510835284,"highway":"residential"},"geometry":{"type":"LineString","coordinates":[[85.5722677,20.3070874],[85.5722642,20.3071389],[85.5722791,20.3072444],[85.5722825,20.3072851]]}},{"type":"Feature","properties":{"id":1510835285,"highway":"residential"},"geometry":{"type":"LineString","coordinates":[[85.5721192,20.3063738],[85.5721639,20.3064577],[85.5722059,20.3066216],[85.5722412,20.3067703],[85.572271,20.3068961],[85.5722696,20.3070588],[85.5722677,20.3070874]]}},{"type":"Feature","properties":{"id":1510835286,"highway":"residential"},"geometry":{"type":"LineString","coordinates":[[85.5718927,20.3056177],[85.571668,20.3057102],[85.5715091,20.3057848]]}},{"type":"Feature","properties":{"id":1510835287,"highway":"residential"},"geometry":{"type":"LineString","coordinates":[[85.5712671,20.3049331],[85.5710961,20.3050402],[85.5709321,20.3051304],[85.5708292,20.3051698],[85.5706987,20.3052075],[85.5705473,20.3052512]]}},{"type":"Feature","properties":{"id":1510835288,"highway":"residential"},"geometry":{"type":"LineString","coordinates":[[85.5706987,20.3052075],[85.5706801,20.3051088],[85.5706449,20.3049843],[85.5705974,20.3048788],[85.5705446,20.3047936]]}},{"type":"Feature","properties":{"id":1510835289,"highway":"unclassified"},"geometry":{"type":"LineString","coordinates":[[85.5755115,20.3067722],[85.5756978,20.3065571],[85.576025,20.3062146],[85.5763247,20.3059092],[85.576701,20.3055319],[85.5769985,20.3052152],[85.5770916,20.3051441],[85.5772071,20.305056],[85.5774779,20.3048662],[85.5776834,20.3047407]]}},{"type":"Feature","properties":{"id":1510835290,"highway":"unclassified"},"geometry":{"type":"LineString","coordinates":[[85.5776834,20.3047407],[85.5780702,20.3045144],[85.578444,20.3043256],[85.5786987,20.3042023],[85.5788939,20.3040559],[85.579126,20.3038459],[85.579187,20.3037814],[85.5792862,20.3036764],[85.5796354,20.3032738],[85.5799332,20.3029425],[85.5801509,20.3026728]]}},{"type":"Feature","properties":{"id":1510835291,"highway":"unclassified"},"geometry":{"type":"LineString","coordinates":[[85.579187,20.3037814],[85.5792767,20.3037999],[85.5793856,20.3037729],[85.5795479,20.3037459],[85.5797019,20.3037479],[85.5798662,20.3037922],[85.5800059,20.3038403],[85.5801066,20.3038885],[85.5802524,20.3040291],[85.5803469,20.304162],[85.5804126,20.3043123],[85.5804948,20.3044394],[85.5805564,20.3045011],[85.5806303,20.3045704],[85.5806701,20.3045883]]}},{"type":"Feature","properties":{"id":1510835292,"highway":"residential"},"geometry":{"type":"LineString","coordinates":[[85.5770916,20.3051441],[85.5772823,20.305104],[85.5775103,20.3050308],[85.577691,20.3049846],[85.5779231,20.3049191],[85.5783113,20.3048478],[85.5785968,20.3048132],[85.5789604,20.3047496],[85.5791822,20.3047361],[85.5793835,20.304738],[85.5797861,20.3047881],[85.579934,20.3047997],[85.5801435,20.3047843],[85.5803633,20.3047592],[85.580503,20.3047072],[85.5806701,20.3045883]]}},{"type":"Feature","properties":{"id":1510835293,"highway":"unclassified"},"geometry":{"type":"LineString","coordinates":[[85.5806701,20.3045883],[85.580768,20.3046147],[85.5809261,20.3046956],[85.5811048,20.3047997],[85.5812363,20.3048363],[85.581378,20.3048421],[85.5814684,20.3048189],[85.5816389,20.3047457],[85.5817354,20.3046725]]}},{"type":"Feature","properties":{"id":1510835294,"highway":"residential"},"geometry":{"type":"LineString","coordinates":[[85.575862,20.3027478],[85.5761843,20.3027639],[85.5766404,20.3028325],[85.5768941,20.3029143],[85.5769875,20.3029333],[85.5771167,20.3029391],[85.5773331,20.3029785],[85.577523,20.3030369],[85.5777363,20.3031012],[85.5779853,20.3032019],[85.5781394,20.3032355],[85.5783029,20.3032515],[85.5784679,20.3032647],[85.5786189,20.3032544],[85.5787714,20.3032588],[85.5788913,20.3032924],[85.5789707,20.3033172],[85.5790719,20.303415],[85.5791606,20.3035172],[85.5792862,20.3036764]]}}]}