{"type":"FeatureCollection","features":[{"type":"Feature","properties":{"id":315126272,"highway":"primary"},"geometry":{"type":"LineString","coordinates":[[85.729407,20.4578074],[85.7290768,20.45805],[85.7287792,20.4583354],[85.7282926,20.459032],[85.7281889,20.4592225],[85.7281222,20.4594447],[85.7280312,20.4598738],[85.7279922,20.4601035],[85.7279887,20.4603447],[85.7280161,20.4605825],[85.7280216,20.4608056],[85.7279994,20.4608773],[85.7279576,20.460929],[85.727879,20.4609588],[85.7278114,20.46095],[85.7275633,20.4608509],[85.7268743,20.460425],[85.7263771,20.4600124],[85.7260507,20.4593668],[85.7258505,20.4590751],[85.7256029,20.4588278],[85.725263,20.4585491],[85.7251203,20.4584586],[85.7245029,20.4583022],[85.7243346,20.4582275],[85.724175,20.4581016],[85.7237914,20.4576756],[85.7236731,20.4575375],[85.7235144,20.457456],[85.7230243,20.4574361],[85.7220938,20.4574693],[85.7215791,20.4575966],[85.721348,20.4576357],[85.7210497,20.4576158],[85.7209307,20.4575363],[85.720838,20.4574218],[85.7206519,20.4571366],[85.7205732,20.4570394],[85.7204508,20.4569837],[85.7195368,20.4567772],[85.7188762,20.4566109],[85.7185637,20.4564977],[85.7183577,20.4563447],[85.7181233,20.4561383],[85.7179202,20.4560065],[85.7177089,20.4559255],[85.7171857,20.4558522],[85.7162115,20.4559376],[85.7158303,20.4560419],[85.7152395,20.4563047],[85.7146145,20.4565177],[85.7144915,20.4565189],[85.7139468,20.4565243],[85.7133952,20.456328],[85.7132662,20.4562578],[85.7131821,20.4561571],[85.7131432,20.4560174],[85.7131276,20.4557557],[85.713091,20.4556503],[85.7130125,20.4555671],[85.7127534,20.455494],[85.7124268,20.455393],[85.7118798,20.4551002],[85.7112193,20.455007],[85.7105326,20.4549217],[85.7098413,20.4548805],[85.7091452,20.4548206],[85.7087349,20.454776],[85.7086715,20.4547854],[85.7086314,20.4548176],[85.708364,20.4551224],[85.7080562,20.4553332],[85.7077349,20.4555375],[85.7073837,20.4556991],[85.7066805,20.4559387],[85.7065038,20.4559764],[85.7063334,20.4559909],[85.7059631,20.4559919],[85.7058161,20.4560076],[85.7056815,20.456052],[85.7054091,20.4561783],[85.7052846,20.4562455],[85.7051393,20.4562793],[85.7049413,20.4562745],[85.7047425,20.4562294],[85.7046171,20.4561128],[85.7045354,20.4559387],[85.7044683,20.45588],[85.7044289,20.4558455],[85.7026176,20.4553531],[85.7023051,20.4552932],[85.7021262,20.4553108],[85.7019867,20.45538],[85.7019287,20.4554873],[85.7014527,20.4575958],[85.7010834,20.4590399],[85.7007425,20.4604507],[85.7005436,20.4610497],[85.7001955,20.4617285],[85.6997765,20.4625536],[85.6995634,20.4628531],[85.6991869,20.4630394],[85.6988176,20.4631459],[85.6984553,20.4632058],[85.6980362,20.4630794],[85.6970134,20.4626867],[85.6966157,20.462527],[85.6960616,20.4624871],[85.6935685,20.4626535],[85.6933909,20.4627533],[85.6933199,20.462933],[85.6926025,20.4656214],[85.6917075,20.4689687],[85.6913169,20.4705058],[85.6912103,20.4706922],[85.6909759,20.4708519],[85.6857066,20.4728971],[85.6855482,20.4730024],[85.6854215,20.4731211],[85.6835321,20.4753901],[85.6829212,20.4765413],[85.6811242,20.4802143],[85.6808618,20.4807799],[85.6806613,20.4811038],[85.6775443,20.4836277],[85.6774532,20.4837252],[85.6773989,20.4838551],[85.6773497,20.4842566],[85.6773198,20.4848115],[85.6773452,20.4857866],[85.6773138,20.4859916],[85.6772602,20.4861961],[85.6766635,20.4876533],[85.6762516,20.4886912],[85.6761521,20.4890306],[85.6758465,20.4911208],[85.6756833,20.4922376],[85.6756052,20.4924837],[85.6750796,20.493495],[85.6750528,20.4935451],[85.6750017,20.4936122],[85.6749339,20.4936746],[85.6718975,20.4958769],[85.6717671,20.4959421],[85.6716134,20.4959701],[85.6686017,20.4963094],[85.6668402,20.4963693],[85.6642121,20.4964824],[85.6625215,20.4965669],[85.6613165,20.4966245],[85.6604973,20.4965956],[85.659709,20.4964271],[85.6593329,20.4963457],[85.6582835,20.496059],[85.6577058,20.4957572],[85.6568251,20.4953114],[85.6559017,20.4949588],[85.6543841,20.4944511],[85.6540245,20.4943535],[85.6536807,20.4942982],[85.6531545,20.4942865],[85.6529233,20.494316],[85.652033,20.4944911],[85.6516671,20.4946036],[85.6514602,20.4946909],[85.6513,20.4948134],[85.6508765,20.4952394],[85.6497483,20.496193],[85.6488486,20.496885],[85.647492,20.4976901],[85.6472192,20.4978589],[85.646881,20.4979918],[85.6454256,20.4982664],[85.6439711,20.4984553],[85.642933,20.4985029],[85.6414034,20.4986614],[85.6400087,20.4988848],[85.6399297,20.4989111],[85.6398824,20.4989618],[85.6397072,20.499366],[85.6395952,20.4998214],[85.6392762,20.5007349],[85.6388334,20.5034881],[85.6386252,20.5053598],[85.6384405,20.5060695],[85.6381789,20.506758],[85.6380725,20.5072226],[85.6378718,20.5085354],[85.6376472,20.5098349],[85.6375663,20.5102676],[85.6373004,20.5118513],[85.6372921,20.511896],[85.6371061,20.5128378],[85.6369375,20.5137168],[85.636809,20.5143188],[85.6367742,20.5143633],[85.6367229,20.5143912],[85.6366562,20.5144091],[85.636585,20.5144165],[85.6357818,20.5144885],[85.6354587,20.5144987],[85.6353416,20.5145252],[85.6352383,20.5145762],[85.6351604,20.5146502],[85.6351328,20.5147346],[85.6351185,20.515443],[85.6353792,20.5167995],[85.6353848,20.5168285],[85.635422,20.5170424]]}},{"type":"Feature","properties":{"id":317636808,"highway":"primary"},"geometry":{"type":"LineString","coordinates":[[85.5936083,20.4038047],[85.5944074,20.4039699],[85.5971937,20.4074451],[85.6016789,20.4092674],[85.6036356,20.4101248],[85.6041214,20.4103072],[85.6044058,20.4103877],[85.6046244,20.4104132],[85.6048577,20.4104025],[85.6051516,20.4103757],[85.6054467,20.4103522],[85.6057749,20.4104264],[85.606173,20.4105899],[85.606487,20.4107794],[85.606843,20.4111555],[85.6072056,20.4117005],[85.6081516,20.4126183],[85.6090164,20.4134046],[85.6096984,20.4137957]]}},{"type":"Feature","properties":{"id":387295552,"highway":"primary"},"geometry":{"type":"LineString","coordinates":[[85.6096984,20.4137957],[85.6102923,20.4141157],[85.6115239,20.4147658],[85.6123025,20.4150908],[85.614058,20.415867],[85.6152967,20.4165237],[85.616047,20.4169416],[85.6164009,20.4172402],[85.6167548,20.4175984],[85.6170734,20.4178903],[85.6173565,20.4180627],[85.6177883,20.4183148],[85.6181351,20.4184409],[85.6184749,20.4185404],[85.6188571,20.4185138],[85.6192606,20.4184807],[85.619572,20.4185072],[85.6197348,20.4186266],[85.6200392,20.4188986],[85.6204781,20.4192767],[85.6210231,20.419688],[85.6220849,20.4204973],[85.6232174,20.4212601],[85.6240739,20.4218638],[85.6253197,20.4227991],[85.6262965,20.4237145],[85.6265089,20.4239467],[85.6270397,20.4246432],[85.6277688,20.425678],[85.6280236,20.4261092],[85.6284625,20.4269052],[85.6287244,20.4275154],[85.6290217,20.4283048],[85.6292553,20.4291074],[85.6294605,20.4299233],[85.6296021,20.4305203],[85.6296941,20.4309448],[85.6297861,20.4312698],[85.6299136,20.4315882],[85.6300976,20.4320857],[85.6301825,20.432424],[85.6302038,20.4325832],[85.6302038,20.4328153],[85.6302109,20.4332199],[85.6303029,20.4335582],[85.6304374,20.4339098],[85.6306072,20.4345266],[85.6307488,20.4347986],[85.6311027,20.4352563],[85.6315345,20.4358068],[85.6319026,20.4361517],[85.6327378,20.4368084],[85.6335165,20.4374053],[85.6339341,20.4377767],[85.6342951,20.4382211],[85.6345711,20.4384865],[85.6348826,20.4386854],[85.6352577,20.4388247],[85.6357603,20.4388911],[85.6362275,20.4388579],[85.6365885,20.4387916],[85.6370203,20.4387717],[85.6377423,20.4388247],[85.6382661,20.4389375],[85.6392424,20.4392391],[85.6405084,20.4397015],[85.6412487,20.4399328],[85.6417315,20.4400333],[85.642107,20.4400635],[85.6427722,20.4400232],[85.6433153,20.4400102],[85.6444478,20.4400898],[85.6465714,20.4403153],[85.6488364,20.4406336],[85.6501813,20.4409918],[85.6510024,20.4411643],[85.6522765,20.4412173],[85.6533949,20.4411377],[85.6545416,20.4409122],[85.6556883,20.4405806],[85.6576278,20.4398643],[85.6606029,20.4388795],[85.6625119,20.4383287],[85.6644952,20.4376366],[85.6661174,20.4371452],[85.6673899,20.4367261],[85.6687559,20.4362118],[85.6702357,20.4356747],[85.6713862,20.4353661],[85.6724676,20.4350766],[85.6739637,20.4346689],[85.6749124,20.4344068],[85.6764207,20.4339497],[85.6771647,20.4337211],[85.6779574,20.4335954],[85.6785795,20.4334811],[85.6792096,20.4333325],[85.6799294,20.4332301],[85.6803682,20.4332168],[85.6808933,20.4331943],[85.6809876,20.4331903],[85.681522,20.4331372],[85.6819821,20.4330377],[85.682382,20.4328586],[85.6828987,20.4325933],[85.6835216,20.4322815],[85.684151,20.4319445],[85.6846821,20.4317006],[85.6851515,20.4315448],[85.6857576,20.4313211],[85.6864284,20.4310936],[85.6866591,20.4309855],[85.6868388,20.4308649],[85.6870856,20.4306789],[85.6873189,20.430513],[85.6874959,20.4303999],[85.6877776,20.4302742],[85.6880351,20.4301736],[85.6882979,20.4301108],[85.6885447,20.4300882],[85.6888424,20.4301787],[85.6890624,20.4302792],[85.6894298,20.4305381],[85.689867,20.4309327],[85.6903579,20.4313701],[85.6906974,20.4317161],[85.6910265,20.4319814],[85.6913486,20.4321871],[85.6915892,20.4323031],[85.6919432,20.432406],[85.6926793,20.4325585],[85.6932208,20.4326473],[85.6936526,20.4326481],[85.6939322,20.4326149],[85.6944454,20.4325121],[85.6950683,20.4323396],[85.6957266,20.4321207],[85.6965901,20.4318488],[85.6971448,20.4316639],[85.6977269,20.4314477],[85.6982097,20.431136],[85.6987139,20.4307138],[85.6987959,20.4306386],[85.6991382,20.4303249],[85.6994789,20.4300535],[85.6998562,20.4298178],[85.7002811,20.4296471],[85.7009209,20.4293976],[85.7018222,20.4291263],[85.7030826,20.4287695],[85.703937,20.4285511],[85.7047076,20.4283104],[85.7053847,20.4280172],[85.7061036,20.4276675],[85.7066776,20.4273282],[85.7075574,20.4267651],[85.7089575,20.4258509],[85.7102584,20.4250013],[85.7106243,20.4247803],[85.7111243,20.4245479],[85.7117504,20.4243345],[85.7126968,20.4239849],[85.71321,20.42382],[85.7141797,20.4235746],[85.7155246,20.4232827],[85.7164519,20.4230306],[85.7177968,20.4226525],[85.7179737,20.4225597],[85.7182356,20.4224535],[85.7185895,20.4223408],[85.7196796,20.4220754],[85.7230206,20.4212595],[85.723778,20.4210671],[85.7245637,20.4210008],[85.7252078,20.421087],[85.7265315,20.4213391],[85.7278552,20.4214784],[85.7299645,20.4216841],[85.7302972,20.4216641],[85.7308706,20.4215713],[85.7319252,20.4212927]]}},{"type":"Feature","properties":{"id":461514857,"highway":"unclassified"},"geometry":{"type":"LineString","coordinates":[[85.6292092,20.5162702],[85.6292263,20.5161731],[85.6291961,20.5160763],[85.6290627,20.5156207],[85.6288776,20.5151168],[85.6288044,20.5149556],[85.62879,20.5149162],[85.6287571,20.5148265],[85.6287097,20.5145968],[85.6285676,20.5137125],[85.6285289,20.513472],[85.6284644,20.513089],[85.628473,20.512964],[85.628473,20.5126532],[85.628473,20.512452],[85.6284761,20.5123529],[85.6284857,20.5120473],[85.6284888,20.5119463],[85.6284979,20.5116548],[85.6285087,20.5113112],[85.6285117,20.5112143],[85.6285117,20.5107789],[85.6285195,20.5105496],[85.6285246,20.5103999],[85.6285333,20.5101863],[85.6285634,20.5100452],[85.628615,20.509896],[85.6286968,20.5097589],[85.6292478,20.5090131],[85.6294526,20.508727],[85.6295018,20.5086583],[85.6295792,20.5085333],[85.6296438,20.5084164],[85.6296825,20.5082954],[85.6296911,20.5081705],[85.6296696,20.5078641],[85.6296008,20.5075657],[85.629364,20.5068118],[85.6290928,20.5060256],[85.6289336,20.5056023],[85.6287872,20.5053523],[85.6286193,20.5050741],[85.6284773,20.5048846],[85.6281932,20.5046024],[85.6279694,20.5044371],[85.6277498,20.5042597],[85.6276336,20.5041831],[85.6275863,20.5041065],[85.6275174,20.5039654],[85.6274528,20.5037759],[85.6273452,20.5032397],[85.6273237,20.5030583],[85.6273194,20.5028325],[85.627328,20.5025785],[85.627384,20.5021793],[85.6274744,20.501764],[85.6276293,20.5013407],[85.6277972,20.500877],[85.627823,20.5007924],[85.6278187,20.500744],[85.6278015,20.5006513],[85.6277197,20.5005585],[85.6275906,20.5004658],[85.6273108,20.5003207],[85.6269837,20.5001997],[85.6258473,20.4998852],[85.6251629,20.4996957],[85.6248099,20.499603],[85.6246506,20.4995022],[85.6245258,20.4993611],[85.6243795,20.4991837],[85.6242762,20.4989821],[85.6239798,20.4981808],[85.6238479,20.4978512],[85.6237983,20.4977153],[85.6237559,20.4975728],[85.623724,20.4972976],[85.6236683,20.4966966],[85.623671,20.4965961],[85.6236952,20.4965157],[85.6237488,20.4964454],[85.6238588,20.4963574],[85.6239097,20.4963072],[85.6239419,20.4962569],[85.6239553,20.4962117],[85.6239553,20.4961665],[85.6239473,20.4961012],[85.6239097,20.4959655],[85.6238534,20.4958499],[85.6237407,20.4956916],[85.623663,20.4955962],[85.6236388,20.4955535],[85.6236174,20.4954806],[85.6235905,20.4952997],[85.6235369,20.4947821],[85.6234833,20.4944053],[85.6233675,20.493995],[85.623312,20.4938305],[85.6232966,20.4937439],[85.6232966,20.4935852],[85.6232966,20.4934582],[85.6233028,20.4934034],[85.6232874,20.493337],[85.6232442,20.4932735],[85.6231056,20.4931523],[85.622514,20.4928868],[85.6217807,20.4925895],[85.6212385,20.4923904],[85.620878,20.4922518],[85.6206808,20.4921566],[85.6203881,20.4920123],[85.6192204,20.4913716],[85.6191095,20.4912792],[85.6188722,20.4910887],[85.6185487,20.4907309],[85.6172733,20.4893034],[85.6168274,20.4888193],[85.6164346,20.4882657],[85.6158078,20.4872704],[85.6153672,20.4866267],[85.6146969,20.4856608],[85.6143288,20.4852265],[85.6138404,20.4847126],[85.6136705,20.4844938],[85.6133626,20.4840197],[85.6130719,20.4834874],[85.6129925,20.4833802],[85.6129131,20.4833211],[85.612815,20.4832971],[85.6120842,20.4832293],[85.6117946,20.4831702],[85.6117129,20.4831462],[85.6116289,20.4831002],[85.6114818,20.4829909],[85.6112132,20.4828334],[85.6110241,20.4827612],[85.6107089,20.4826431],[85.6103703,20.4825446],[85.6101975,20.4825096],[85.6097655,20.4824462],[85.6093662,20.4823696],[85.6091678,20.4823084],[85.6090627,20.4822646],[85.6089786,20.4822121],[85.6089226,20.4821421],[85.6088315,20.481989],[85.6087405,20.4818709],[85.6086611,20.4818119],[85.6085934,20.4817747],[85.6083809,20.4817178],[85.6081007,20.4816565],[85.6079816,20.481615],[85.6078812,20.4815428],[85.6077271,20.4813744],[85.6076141,20.4812394],[85.6074901,20.4811614],[85.6073783,20.4810909],[85.6073132,20.4810471],[85.6072502,20.4809633],[85.6070835,20.4807158],[85.6068325,20.4804162],[85.606698,20.4802438],[85.6066379,20.4801244],[85.6065671,20.4798194],[85.6064751,20.4795475],[85.6064715,20.4793652],[85.6064963,20.4792127],[85.6065494,20.4790469],[85.6067051,20.478785],[85.6068148,20.4786358],[85.6069316,20.4785661],[85.6071807,20.4784802]]}},{"type":"Feature","properties":{"id":561436409,"highway":"unclassified"},"geometry":{"type":"LineString","coordinates":[[85.6065073,20.4107348],[85.6067294,20.4105432],[85.6071156,20.4104728],[85.6075716,20.4104276],[85.6078291,20.410322],[85.6077594,20.4098443],[85.6076896,20.4094271],[85.6077433,20.4089545],[85.6077647,20.4085573],[85.6077701,20.408336],[85.6077164,20.4080444],[85.6075501,20.4078031],[85.6074536,20.4076372],[85.6072658,20.4076472]]}},{"type":"Feature","properties":{"id":561436453,"highway":"unclassified"},"geometry":{"type":"LineString","coordinates":[[85.6081516,20.4126183],[85.6082582,20.4122475],[85.6082797,20.4119308],[85.6081939,20.4116744],[85.6080651,20.4113577],[85.6081027,20.411061],[85.6081134,20.4106689],[85.6081241,20.4104326],[85.6078291,20.410322]]}},{"type":"Feature","properties":{"id":561468942,"highway":"primary"},"geometry":{"type":"LineString","coordinates":[[85.6051516,20.4103757],[85.6050598,20.4104466],[85.6050025,20.410533],[85.6049406,20.4106963],[85.604943,20.410865],[85.6049716,20.4112207],[85.6050105,20.4116132],[85.6050128,20.4119409],[85.6050026,20.4122226],[85.6050045,20.4124986],[85.6050393,20.4128843],[85.6050515,20.4130595],[85.6050407,20.4132676],[85.6050217,20.4134357],[85.6049793,20.413599],[85.6049013,20.4137969],[85.6047439,20.4142558],[85.6046256,20.4146575],[85.6045272,20.4150723],[85.6044866,20.4152273]]}},{"type":"Feature","properties":{"id":563832290,"highway":"unclassified"},"geometry":{"type":"LineString","coordinates":[[85.6987959,20.4306386],[85.6985979,20.4303323],[85.6983511,20.4298748],[85.6980346,20.4294525],[85.697879,20.4291107],[85.6976752,20.4286482],[85.6975196,20.4279746],[85.6975786,20.4277333],[85.6975357,20.4275222],[85.6974928,20.4272356],[85.6974231,20.4270747],[85.6976189,20.426934],[85.6977986,20.4270044],[85.6980882,20.4268837],[85.6985013,20.4267631],[85.6986891,20.4267027],[85.6985925,20.4262604],[85.6985067,20.4259336],[85.6982277,20.4257023],[85.697761,20.4255817],[85.69782,20.4252097],[85.6978468,20.4247723],[85.6975947,20.4241037],[85.6974767,20.4239529],[85.697246,20.4236161],[85.6971119,20.4229977],[85.6970636,20.4225252],[85.6970315,20.4220426],[85.6969242,20.4215046],[85.6967257,20.4211276],[85.6963234,20.4203735],[85.696082,20.4201322],[85.6958006,20.4195499]]}},{"type":"Feature","properties":{"id":563832392,"highway":"unclassified"},"geometry":{"type":"LineString","coordinates":[[85.6808933,20.4331943],[85.6808581,20.4330956],[85.6808366,20.4330177]]}},{"type":"Feature","properties":{"id":576686274,"highway":"primary"},"geometry":{"type":"LineString","coordinates":[[85.6044866,20.4152273],[85.6039659,20.4174398],[85.6032213,20.4207358],[85.6026535,20.4233432],[85.6009221,20.4310411],[85.6006283,20.432362],[85.6003672,20.4336786]]}},{"type":"Feature","properties":{"id":585312395,"highway":"residential"},"geometry":{"type":"LineString","coordinates":[[85.6976189,20.426934],[85.6974605,20.4267238],[85.6973773,20.4265805],[85.6971547,20.4265905],[85.69707,20.4266]]}},{"type":"Feature","properties":{"id":585312820,"highway":"unclassified"},"geometry":{"type":"LineString","coordinates":[[85.697761,20.4255817],[85.6972513,20.4255977],[85.696696,20.4256278],[85.6966236,20.4256982],[85.6963715,20.4258189],[85.696283,20.4258968],[85.6962857,20.426128],[85.6962159,20.4264649]]}},{"type":"Feature","properties":{"id":594044274,"highway":"unclassified"},"geometry":{"type":"LineString","coordinates":[[85.6749339,20.4936746],[85.675364,20.4945113],[85.6754779,20.4946869],[85.6756989,20.4947058],[85.6762011,20.4947371],[85.6765962,20.4948061],[85.6774935,20.4949567],[85.677761,20.4953187],[85.678175,20.4952443],[85.6782033,20.4951062],[85.6784925,20.4950266],[85.678742,20.4948779],[85.679241,20.4946123],[85.6793203,20.4944636],[85.6802559,20.4940971],[85.6801142,20.4928808],[85.6803807,20.4928223],[85.6808457,20.4926789],[85.6807266,20.4921956],[85.6809307,20.4918875],[85.6808286,20.4916485],[85.6806173,20.4913718],[85.680025,20.490765],[85.6795361,20.4909532],[85.6790874,20.4909532],[85.677949,20.4910096],[85.6775204,20.4909343],[85.6758465,20.4911208]]}},{"type":"Feature","properties":{"id":594044275,"highway":"unclassified"},"geometry":{"type":"LineString","coordinates":[[85.6801142,20.4928808],[85.6792426,20.4925239],[85.6789761,20.4924867],[85.6779441,20.492747],[85.6764528,20.4931506],[85.6750528,20.4935451]]}},{"type":"Feature","properties":{"id":594044276,"highway":"unclassified"},"geometry":{"type":"LineString","coordinates":[[85.6801142,20.4928808],[85.6799614,20.492159],[85.6798594,20.4917181],[85.679729,20.4915269],[85.6792867,20.4912454],[85.6790874,20.4909532]]}},{"type":"Feature","properties":{"id":599259505,"highway":"unclassified"},"geometry":{"type":"LineString","coordinates":[[85.6165945,20.3905219],[85.61682,20.39065],[85.6168544,20.3906398],[85.6174528,20.3904615],[85.6183755,20.3902403],[85.6194913,20.3901397],[85.6199634,20.39019],[85.6212723,20.390552],[85.6219911,20.3909241],[85.6229782,20.391427],[85.6239653,20.3917287],[85.6249094,20.3919298],[85.6250809,20.3920607],[85.6251991,20.392151],[85.62536,20.3931969],[85.6254458,20.3942126],[85.6255853,20.3953288],[85.6261861,20.3964451],[85.6267869,20.3977021],[85.6270015,20.3991099],[85.6272054,20.4008396],[85.6274414,20.4022977],[85.6274843,20.4032329],[85.6280422,20.4044094],[85.6284392,20.4054753],[85.6290507,20.4067423],[85.6295979,20.4074562],[85.6309605,20.4079389],[85.6314862,20.4083411],[85.6314754,20.408864],[85.6308424,20.410332],[85.6306064,20.411961],[85.6303918,20.413067],[85.6305635,20.4148267],[85.6305849,20.4153596],[85.6298447,20.4156009],[85.6295335,20.4158724],[85.6294906,20.4165762],[85.6293189,20.4169181],[85.6284284,20.4170991],[85.6285357,20.4180442],[85.6289112,20.4189793],[85.6284499,20.4193916],[85.6278598,20.4195223],[85.6272697,20.4194217],[85.6263685,20.4193212],[85.6256604,20.4193212],[85.6251025,20.4195726],[85.6241584,20.4198742],[85.6235683,20.4200451],[85.6235576,20.4206786],[85.6232174,20.4212601]]}},{"type":"Feature","properties":{"id":681438094,"highway":"primary"},"geometry":{"type":"LineString","coordinates":[[85.6046244,20.4104132],[85.604825,20.4105331],[85.6049028,20.4106287],[85.6049406,20.4106963]]}},{"type":"Feature","properties":{"id":749341552,"highway":"tertiary"},"geometry":{"type":"LineString","coordinates":[[85.6969729,20.4478517],[85.6968302,20.4477909],[85.695304,20.4464463],[85.6946254,20.4456823],[85.6943679,20.4453707],[85.6942445,20.4453154],[85.6940675,20.4453103],[85.6923509,20.4453958],[85.6919753,20.4453807],[85.6909186,20.4453556],[85.6907201,20.4453103],[85.6902319,20.4452601],[85.6899959,20.4452852],[85.6880754,20.445441],[85.6876624,20.4455064],[85.6872332,20.4455265],[85.6862998,20.4455617],[85.6858009,20.445632],[85.6852484,20.4457476],[85.6849801,20.4458431],[85.6846154,20.4460492],[85.6844169,20.4462252],[85.6841648,20.4464664],[85.6839877,20.4465418],[85.6837463,20.446572],[85.6833976,20.4465569],[85.6832153,20.4464765],[85.683006,20.4463056],[85.6826949,20.4460392],[85.6823462,20.4458733],[85.6819332,20.445813],[85.681622,20.445823],[85.6808549,20.4459688],[85.6800932,20.4460945],[85.6795299,20.4462603],[85.6786555,20.4466273],[85.678162,20.4469389],[85.6779098,20.4471651],[85.6778347,20.4473008],[85.6778347,20.4473863],[85.6780171,20.4477884],[85.678001,20.4478839]]}},{"type":"Feature","properties":{"id":749341553,"highway":"tertiary"},"geometry":{"type":"LineString","coordinates":[[85.7019867,20.45538],[85.7025521,20.4522092],[85.7025839,20.4520003],[85.7025662,20.451934],[85.7025344,20.4518876],[85.7023893,20.4518577],[85.7017557,20.4518478],[85.7013558,20.4518345],[85.7004321,20.4517615],[85.6992323,20.4516919],[85.6985846,20.4516587],[85.6978272,20.4515593],[85.6974521,20.4514996],[85.6972893,20.4514465],[85.6972362,20.4514167],[85.6971973,20.4513868],[85.6971725,20.4513271],[85.697176,20.4509491],[85.6971503,20.450606],[85.697169,20.4498009],[85.6971877,20.4489301],[85.6971877,20.4487376],[85.6971597,20.4485144],[85.6970569,20.44809],[85.6969822,20.4479281],[85.6969729,20.4478517]]}},{"type":"Feature","properties":{"id":866283875,"highway":"unclassified"},"geometry":{"type":"LineString","coordinates":[[85.696036,20.4082049],[85.6960294,20.4082694]]}},{"type":"Feature","properties":{"id":866283876,"highway":"unclassified"},"geometry":{"type":"LineString","coordinates":[[85.6960294,20.4082694],[85.6960271,20.4082977],[85.695925,20.4089884],[85.6958515,20.4098042],[85.6958383,20.4098887],[85.6958141,20.4099403],[85.695702,20.410132],[85.6954597,20.4104871],[85.695322,20.4106777],[85.6952482,20.4107591],[85.6950843,20.4109328],[85.6950285,20.4109988],[85.6949629,20.4110926],[85.6949017,20.4112077],[85.6948717,20.4112871],[85.6947958,20.4115766],[85.6947117,20.4118323],[85.6946002,20.4121396],[85.6945855,20.4121965],[85.6945707,20.4122595],[85.6945658,20.4123855],[85.6945922,20.4127297],[85.6946606,20.4131131],[85.6947153,20.4134472],[85.6947615,20.4138389],[85.6948231,20.4144995],[85.6948531,20.414812],[85.6949007,20.415232],[85.6949007,20.4152919],[85.6948824,20.415459],[85.694826,20.4158045],[85.6947684,20.4161332],[85.6947372,20.4162961],[85.694729,20.4163745],[85.6947343,20.4165765],[85.6947502,20.4166906],[85.6947855,20.416861],[85.6948583,20.4170899],[85.6949157,20.417242],[85.6949829,20.4174095],[85.6950207,20.4175217],[85.6950387,20.4175954],[85.6950853,20.4178854],[85.6951065,20.4180028],[85.6951347,20.4180937],[85.6951929,20.4182343],[85.6954139,20.418687],[85.6955075,20.4188689],[85.6955675,20.4189847],[85.6956292,20.4191319],[85.6958006,20.4195499]]}},{"type":"Feature","properties":{"id":1353641990,"highway":"tertiary"},"geometry":{"type":"LineString","coordinates":[[85.678001,20.4478839],[85.6781529,20.4479788],[85.6783783,20.4481887],[85.678916,20.4487466],[85.6793961,20.4494773],[85.6801858,20.4508681],[85.6803158,20.4510699],[85.6804202,20.4513699],[85.6804987,20.4520009],[85.680555,20.4524458],[85.6806208,20.4525901],[85.6807244,20.4527799],[85.6807294,20.452915],[85.6806933,20.4530136],[85.680523,20.4532046],[85.6797064,20.4540945],[85.679597,20.4542028],[85.6795248,20.4542407],[85.6793288,20.4542956],[85.6787075,20.4543503],[85.6780112,20.4543741],[85.6768041,20.4544161],[85.6766001,20.4544469],[85.6764901,20.4544715],[85.6763546,20.4545523],[85.6760834,20.4547622],[85.6758142,20.4550334],[85.6755805,20.4553392],[85.6754577,20.4555996],[85.6753921,20.4559764],[85.6753436,20.4561482],[85.6752387,20.4562838],[85.6749052,20.4564547],[85.6742157,20.4567805],[85.6740391,20.4568417],[85.6728807,20.4570503],[85.6725499,20.4571158],[85.6723577,20.4571183],[85.6721976,20.4570717],[85.6720378,20.4569901],[85.671948,20.4569506],[85.6717879,20.4569905],[85.671511,20.4571838],[85.6701946,20.458093],[85.6701385,20.458149],[85.6694731,20.4595762],[85.6690756,20.4604765],[85.6687159,20.4610054],[85.6684586,20.4612959],[85.6683102,20.4614092],[85.6678668,20.4616775],[85.6669438,20.4621803],[85.6661,20.4625695],[85.6655017,20.4629685],[85.6650057,20.4632012],[85.6648271,20.4632566],[85.6644147,20.4633859],[85.6638666,20.4635585],[85.6637592,20.4636625],[85.6636903,20.4638198],[85.6632936,20.4646548],[85.6631928,20.4650482],[85.6631634,20.4658781],[85.6631488,20.4660854],[85.6630946,20.4661662],[85.6629143,20.466246],[85.6616047,20.4668263],[85.6613653,20.4668989],[85.6611429,20.4669422],[85.6595807,20.467005],[85.6577476,20.4670083],[85.6576336,20.4670072],[85.6574376,20.4670276],[85.6567308,20.4672035],[85.6558184,20.4674603],[85.6557667,20.4674907],[85.6557691,20.4675563],[85.6557113,20.467646],[85.65562,20.4677071],[85.6548629,20.4680792],[85.6517398,20.4695746],[85.6513278,20.469767],[85.6512145,20.4698526],[85.6511196,20.4699513],[85.6499619,20.4718765],[85.6493067,20.4734661],[85.6485994,20.4747892],[85.6485588,20.4748651],[85.648529,20.47501],[85.6485339,20.4751561],[85.6486409,20.4759504],[85.6486374,20.4760966],[85.6486036,20.4762283],[85.6485123,20.4763819],[85.6483973,20.4764833],[85.6481357,20.4767558],[85.6480896,20.4768803],[85.6480682,20.4772671],[85.6480446,20.4777044],[85.6482933,20.4784429],[85.6485431,20.4789405],[85.6485628,20.4790067],[85.6485298,20.4790748],[85.648472,20.4791134],[85.6484112,20.4791204],[85.6482958,20.4791188],[85.6466011,20.4789777],[85.6463522,20.4789582],[85.646251,20.4789715],[85.6461281,20.4790125],[85.6460253,20.4790617],[85.6459509,20.4791039],[85.6458858,20.4791607],[85.6458484,20.4792452],[85.6455363,20.4808878],[85.64534,20.4814879],[85.6450961,20.4820001],[85.6444915,20.4831886],[85.6441321,20.4837932],[85.644044,20.4840767],[85.6440277,20.4843102],[85.6439951,20.4851171],[85.6438859,20.485716],[85.6436741,20.4871978],[85.6433326,20.48863],[85.6430041,20.4914969],[85.6429646,20.4919685],[85.6427468,20.492642],[85.6425654,20.4929615],[85.6419879,20.4940254],[85.6411944,20.4959194],[85.6400478,20.4984977],[85.6399255,20.4987664],[85.6399297,20.4989111]]}},{"type":"Feature","properties":{"id":1354863005,"highway":"unclassified"},"geometry":{"type":"LineString","coordinates":[[85.678001,20.4478839],[85.6778884,20.4479744],[85.67725,20.448296],[85.6764185,20.4487786],[85.6743586,20.4502614],[85.672642,20.4517441],[85.670743,20.4532822]]}},{"type":"Feature","properties":{"id":1492115774,"highway":"unclassified"},"geometry":{"type":"LineString","coordinates":[[85.6001901,20.4343985],[85.600437,20.4346034],[85.6007945,20.4349609],[85.6011189,20.4353212],[85.6014643,20.4357434],[85.6017647,20.4360896],[85.601954,20.4363176],[85.6021342,20.4365062],[85.6023324,20.4366667],[85.6025728,20.4367933],[85.6029002,20.4369285],[85.6032036,20.4370495],[85.603522,20.4371564],[85.6041077,20.4372972],[85.6047145,20.4374351],[85.6054685,20.4375927],[85.6059041,20.4376603],[85.6062105,20.4376913],[85.6065078,20.4377476],[85.6068293,20.4378489],[85.6069765,20.4379108],[85.6071026,20.4380121],[85.6072108,20.4381501],[85.6073697,20.438369],[85.6074702,20.4384583],[85.6075474,20.4385113],[85.6076581,20.4385717],[85.6078307,20.4386127],[85.608047,20.4386392],[85.6082633,20.4386561],[85.6084822,20.4386585],[85.6086823,20.4386425],[85.6087826,20.4386213],[85.608917,20.4385663],[85.6090665,20.4384457],[85.6092046,20.4382985],[85.6093219,20.4381957],[85.6094885,20.4381106],[85.6096436,20.4380361],[85.6098007,20.4379563],[85.6099861,20.4378748]]}},{"type":"Feature","properties":{"id":1492612348,"highway":"unclassified"},"geometry":{"type":"LineString","coordinates":[[85.6099861,20.4378748],[85.6101295,20.4380785],[85.6102132,20.4382112],[85.6102582,20.438356],[85.6102904,20.4385068],[85.610358,20.4387964],[85.6103999,20.4390558],[85.6104482,20.4393453],[85.6104932,20.4395082],[85.610564,20.4396741],[85.6106606,20.4398701],[85.61077,20.4400782],[85.6109278,20.4403467],[85.6111595,20.4406815],[85.6112464,20.440772],[85.6113269,20.4408624],[85.6114621,20.440965],[85.6115747,20.4410525],[85.6117679,20.4411912],[85.6119385,20.441333],[85.6121863,20.4415833],[85.6124728,20.4418789],[85.6127496,20.4421292],[85.6131069,20.4424248],[85.6133362,20.4426288],[85.6134592,20.4427618],[85.6136201,20.4429436],[85.6138803,20.4432605],[85.6140269,20.4434799],[85.6141949,20.4437149],[85.6145142,20.4441648],[85.6146585,20.4443754],[85.6148453,20.4446835],[85.6149896,20.4449827],[85.615212,20.4455257],[85.6153515,20.4458936],[85.6155219,20.4463325],[85.6155644,20.446481],[85.6155857,20.4466006],[85.6155905,20.4467691],[85.615555,20.4470328],[85.6155455,20.4472833],[85.6155834,20.447536]]}},{"type":"Feature","properties":{"id":1492612349,"highway":"unclassified"},"geometry":{"type":"LineString","coordinates":[[85.6155834,20.447536],[85.6157974,20.4475009],[85.6160517,20.4474768],[85.6163059,20.4474768],[85.6165087,20.4474798],[85.6167115,20.4474828],[85.6168821,20.447504],[85.6170591,20.4475794],[85.6172265,20.4476759],[85.6174454,20.4477905],[85.6176321,20.44789]]}},{"type":"Feature","properties":{"id":1492612350,"highway":"unclassified"},"geometry":{"type":"LineString","coordinates":[[85.6155834,20.447536],[85.6156203,20.4476819],[85.6156944,20.4478629],[85.6157882,20.4480255],[85.6159178,20.4482142],[85.6160337,20.448359],[85.6162738,20.4486434],[85.6164752,20.448845],[85.6167274,20.4490628],[85.6168305,20.4491744],[85.616882,20.4492709],[85.6168884,20.4493433],[85.6168659,20.4494338],[85.6168272,20.4495122],[85.6167017,20.4496358],[85.6164925,20.4497474],[85.6161706,20.4499103],[85.6158423,20.4501033],[85.6156431,20.4502189],[85.6154748,20.4503223],[85.6153285,20.4504361],[85.6151685,20.4505291],[85.6150305,20.4505989],[85.6149008,20.4506325],[85.6147518,20.4506506],[85.6146111,20.4506894],[85.6144842,20.4507489],[85.6144041,20.4508316],[85.6143214,20.4509118],[85.6142662,20.45101],[85.6142193,20.451116],[85.6141751,20.4511936],[85.6140923,20.4512866],[85.6139902,20.4513513],[85.6137474,20.4514961],[85.6132425,20.451752],[85.6129389,20.4519589],[85.6127016,20.452145],[85.6125724,20.452271],[85.6124947,20.4523467]]}},{"type":"Feature","properties":{"id":1492629194,"highway":"unclassified"},"geometry":{"type":"LineString","coordinates":[[85.6124947,20.4523467],[85.6122933,20.4520741],[85.6121433,20.4518704],[85.6120306,20.451793],[85.6118504,20.4517192],[85.6115275,20.4516101],[85.6112872,20.4515432],[85.6110656,20.451487],[85.6108629,20.4514623],[85.6106226,20.4514447],[85.6104161,20.4514588],[85.6099372,20.4515027],[85.6096668,20.4515182],[85.609413,20.451526],[85.6092364,20.4515234],[85.6090653,20.451513],[85.6088335,20.4514717],[85.6083479,20.4513838],[85.6080002,20.4513217],[85.6075863,20.4512907],[85.6072993,20.4513036],[85.6070427,20.4513243],[85.6068634,20.4513527],[85.6067116,20.4513812],[85.6065985,20.4514329],[85.6063998,20.4515699],[85.6062287,20.4517018],[85.6060769,20.4518362],[85.6059362,20.4520043],[85.6058093,20.452237],[85.6056934,20.4525524],[85.6056189,20.4528911],[85.6056023,20.4530772],[85.6055996,20.4532116],[85.6056134,20.4532995],[85.6056355,20.4533849],[85.6056851,20.4534805],[85.6059004,20.4537339],[85.6061515,20.454026],[85.6064191,20.454357],[85.6066178,20.4546181],[85.6067254,20.4547809],[85.6067944,20.4549335],[85.6068661,20.4550808],[85.6069296,20.4551791],[85.6070041,20.4552567],[85.6070979,20.4553471],[85.6072331,20.4554506],[85.607418,20.4555953],[85.6075173,20.4556936],[85.6076001,20.4557815],[85.6076774,20.4558849],[85.6078208,20.4560633],[85.6080168,20.456314],[85.6082347,20.4565493],[85.6083313,20.4566734],[85.6084224,20.4568104],[85.6085934,20.4570922],[85.6087618,20.4573766],[85.6088721,20.4575834],[85.6089301,20.4577127],[85.6089312,20.4577663],[85.6089328,20.4578497],[85.6088832,20.4580953],[85.6088252,20.4582117],[85.6087314,20.4583409],[85.6083948,20.4588942],[85.6083313,20.4590364],[85.6082927,20.4591113],[85.6082375,20.4591605],[85.6081464,20.4592096],[85.6078595,20.4593052],[85.6075421,20.4594242],[85.6074401,20.4594862],[85.6073849,20.4595534],[85.6073297,20.4596361],[85.6072911,20.4597525],[85.6071945,20.4602333],[85.6071476,20.4604738],[85.6070813,20.4607039],[85.6069958,20.4609081],[85.6068854,20.4611175],[85.6067806,20.461314],[85.6066619,20.4614846],[85.6065819,20.4615777],[85.6064053,20.4617379],[85.606226,20.4619086],[85.6061266,20.4620068],[85.6060714,20.4620973],[85.6060162,20.4622162],[85.6059914,20.4623377],[85.6059224,20.4627307],[85.6058093,20.4633692],[85.6057486,20.4636639],[85.6057072,20.4638216],[85.6056906,20.4639173],[85.6056796,20.4640259]]}},{"type":"Feature","properties":{"id":1492629195,"highway":"unclassified"},"geometry":{"type":"LineString","coordinates":[[85.6056796,20.4640259],[85.6056851,20.4641215],[85.6057044,20.464212],[85.6057651,20.4643645],[85.6058314,20.4644964],[85.6059473,20.4646954],[85.6061928,20.4650806],[85.6064191,20.4654451],[85.606684,20.4658665],[85.6069379,20.4662646],[85.60728,20.4668127],[85.6075284,20.4671694],[85.6075863,20.4672987],[85.6076332,20.4674357],[85.6076774,20.4676399],[85.6077022,20.4678157],[85.6077022,20.4679992],[85.607658,20.4684284],[85.6075311,20.4688859],[85.6075146,20.4690384],[85.6075256,20.4692013],[85.6075394,20.4693616],[85.6075863,20.4695477],[85.6077187,20.4698838],[85.6079257,20.4703879],[85.6079836,20.4705481],[85.6080637,20.4707549],[85.6081437,20.4709488],[85.6082182,20.4711298],[85.6083258,20.4713314],[85.6084224,20.4714994],[85.608599,20.4717476],[85.6087976,20.472019],[85.6089577,20.4722491],[85.6091508,20.4725412],[85.6093992,20.4728773],[85.6095217,20.473048]]}},{"type":"Feature","properties":{"id":1492965853,"highway":"unclassified"},"geometry":{"type":"LineString","coordinates":[[85.6095217,20.473048],[85.6096895,20.4729095],[85.6098418,20.4727275],[85.6099787,20.4725351],[85.6101045,20.4723221],[85.6102259,20.472167],[85.6103518,20.4720243],[85.610557,20.4717989],[85.6108219,20.4715197],[85.6109676,20.4713708],[85.6110339,20.4712757],[85.6110957,20.4711371],[85.6111531,20.4709696],[85.6112171,20.4708104],[85.6112899,20.4706429],[85.6113716,20.4704423],[85.6114224,20.4702872],[85.6114422,20.4701714],[85.6114467,20.4700369],[85.61144,20.4697309],[85.6114202,20.4694951],[85.6113716,20.4692345],[85.6113517,20.4689988],[85.6113363,20.4687837],[85.6113341,20.4683928],[85.6113297,20.4681446],[85.6113341,20.4679626],[85.6113606,20.4678055],[85.6114113,20.4676131],[85.6115217,20.4672533],[85.6117248,20.4666494],[85.6119235,20.466122],[85.6120449,20.4657394],[85.6120846,20.4655367],[85.6121243,20.4652948],[85.6122215,20.4648812],[85.6122789,20.4645937],[85.6123164,20.4642959],[85.6123252,20.4641511],[85.612312,20.4640415],[85.6122877,20.4638864],[85.6122369,20.4636775],[85.6121575,20.46339],[85.6119764,20.4627654],[85.6118241,20.462267],[85.6116608,20.4617231],[85.6115592,20.4613487],[85.61144,20.4609413],[85.6113385,20.4606228],[85.6113054,20.4604904],[85.6112988,20.460356],[85.611301,20.4602009],[85.6113274,20.4599961]]}},{"type":"Feature","properties":{"id":1493003750,"highway":"unclassified"},"geometry":{"type":"LineString","coordinates":[[85.6113274,20.4599961],[85.6111933,20.4600014],[85.6110131,20.4600279],[85.6107865,20.4600882],[85.6106783,20.46011],[85.6104697,20.4601365],[85.6102843,20.4601558],[85.6101152,20.4601752],[85.6099851,20.4602123],[85.609856,20.4602497],[85.6097178,20.4602781],[85.6096062,20.4602887],[85.6094264,20.4602922],[85.6092182,20.4602887],[85.608959,20.4602816],[85.6086127,20.4602674],[85.6082569,20.4602692],[85.6078368,20.4602639],[85.6074584,20.4602444],[85.6071945,20.4602333]]}},{"type":"Feature","properties":{"id":1493003751,"highway":"unclassified"},"geometry":{"type":"LineString","coordinates":[[85.6113274,20.4599961],[85.6113626,20.4598817],[85.6114118,20.4597469],[85.6114686,20.4596175],[85.6115499,20.4594491],[85.6116275,20.4593268],[85.6116937,20.4592044],[85.6117505,20.4590839],[85.6117789,20.4589988],[85.6118035,20.4588587],[85.6118319,20.4587027],[85.6118754,20.4585661],[85.6119435,20.4583924],[85.6119889,20.4582789],[85.6120211,20.4581761],[85.6120552,20.4580591],[85.6121101,20.4578499],[85.6121593,20.4576655],[85.6121861,20.4576023],[85.6122293,20.4575006],[85.6123163,20.4573357],[85.6124015,20.4571956],[85.6125358,20.4570414],[85.612744,20.4568393],[85.6129673,20.4566247],[85.6135899,20.4561017],[85.6136864,20.4560166],[85.6137507,20.4559155]]}},{"type":"Feature","properties":{"id":1493003752,"highway":"unclassified"},"geometry":{"type":"LineString","coordinates":[[85.6137507,20.4559155],[85.6137034,20.4557347],[85.6135804,20.4553287],[85.6134309,20.454811],[85.6133344,20.4543872],[85.6132454,20.4540042],[85.6131773,20.4536851],[85.6131092,20.453451],[85.6130449,20.4532542],[85.6129673,20.4530486],[85.6128727,20.4528872],[85.6127818,20.4527471],[85.6127118,20.4526159],[85.6126626,20.4524706],[85.6125724,20.452271]]}},{"type":"Feature","properties":{"id":1493003753,"highway":"residential"},"geometry":{"type":"LineString","coordinates":[[85.6124947,20.4523467],[85.6124461,20.452452],[85.6123424,20.4526691],[85.6122122,20.4529421],[85.6121106,20.4531862],[85.6120554,20.4533558],[85.6120157,20.4536392],[85.611976,20.4538915],[85.6119451,20.4541211],[85.6118987,20.4544065],[85.6118457,20.4546216],[85.6117899,20.4548662],[85.6117356,20.455016],[85.6116035,20.4553248],[85.6115298,20.4555828],[85.6115257,20.455631],[85.6115451,20.4556688],[85.6116536,20.4557326],[85.611794,20.455773],[85.611915,20.4558108],[85.6120763,20.455872],[85.6122084,20.4559202],[85.6123628,20.4559606],[85.6125297,20.4559789],[85.6126298,20.4559789],[85.6127869,20.4559606],[85.6129914,20.4559215],[85.613161,20.4558968],[85.6132889,20.4558837],[85.6134197,20.4558733],[85.6135337,20.4558772],[85.6136185,20.4558811],[85.6137507,20.4559155]]}},{"type":"Feature","properties":{"id":1493005403,"highway":"residential"},"geometry":{"type":"LineString","coordinates":[[85.6089312,20.4577663],[85.609038,20.4577095],[85.6091724,20.4576368],[85.60932,20.457534],[85.6094752,20.457401],[85.6096871,20.4571989],[85.6099426,20.4569578],[85.6099863,20.4569197],[85.6101299,20.4567947],[85.6103248,20.4566227],[85.6105103,20.4564684],[85.6107033,20.4563106],[85.6109531,20.456118],[85.6110136,20.4560713],[85.6112994,20.455855],[85.6115451,20.4556688]]}},{"type":"Feature","properties":{"id":1493005404,"highway":"residential"},"geometry":{"type":"LineString","coordinates":[[85.6117356,20.455016],[85.6115527,20.4549999],[85.6113632,20.4549988],[85.6112475,20.4549943],[85.6111152,20.4549865],[85.6110091,20.4549652],[85.6108923,20.4549451],[85.6107933,20.4549429],[85.6104822,20.4549507],[85.6103141,20.4549574],[85.6101293,20.4549909],[85.6099839,20.4550222],[85.6098778,20.4550658],[85.6097884,20.4551004],[85.6097216,20.4551138],[85.6096144,20.4551283],[85.6095321,20.4551462],[85.609432,20.4551842]]}},{"type":"Feature","properties":{"id":1493005405,"highway":"residential"},"geometry":{"type":"LineString","coordinates":[[85.609432,20.4551842],[85.609488,20.4553673],[85.6095869,20.455679],[85.6097109,20.4560598],[85.6099279,20.4567289],[85.6099863,20.4569197]]}},{"type":"Feature","properties":{"id":1493005406,"highway":"residential"},"geometry":{"type":"LineString","coordinates":[[85.609432,20.4551842],[85.6093443,20.4549332],[85.6092421,20.4546399],[85.6091593,20.454421],[85.6090231,20.4541186],[85.6089793,20.4539955],[85.608963,20.453924],[85.6089338,20.4538556],[85.6088917,20.4537766],[85.6088252,20.4536504],[85.6087262,20.453468],[85.6086191,20.453196],[85.6085364,20.4529877],[85.6084634,20.4527598],[85.6084115,20.4526085],[85.6083684,20.4524691],[85.6083308,20.4523349],[85.6083002,20.4522007],[85.6082752,20.4520404],[85.6082571,20.4518932],[85.6082571,20.4517798],[85.6082724,20.4516417],[85.6083183,20.4515205],[85.6083479,20.4513838]]}},{"type":"Feature","properties":{"id":1493005407,"highway":"residential"},"geometry":{"type":"LineString","coordinates":[[85.6084634,20.4527598],[85.6086557,20.4527423],[85.6089201,20.4527195],[85.609131,20.4526967],[85.6092932,20.4526861],[85.6094733,20.452677],[85.6096322,20.4526678],[85.6098512,20.4526435],[85.6100167,20.4526298],[85.6101578,20.4526192],[85.6103914,20.4526192],[85.6106802,20.4526253],[85.6109332,20.4526298],[85.6114929,20.4526405],[85.6117914,20.4526618],[85.6119065,20.4526542],[85.611986,20.4526253],[85.6120558,20.452563],[85.6121661,20.45249],[85.612291,20.4524307],[85.6124947,20.4523467]]}},{"type":"Feature","properties":{"id":1493014545,"highway":"residential"},"geometry":{"type":"LineString","coordinates":[[85.6099851,20.4602123],[85.6099269,20.4600241],[85.6098231,20.459746],[85.6097274,20.459515],[85.6096106,20.4593053],[85.6095262,20.4591639],[85.6094808,20.459056],[85.6094468,20.4589314],[85.6094159,20.4588295],[85.609364,20.4586669],[85.6093105,20.4585727],[85.6092359,20.4584754],[85.6091142,20.458366],[85.6088832,20.4580953]]}},{"type":"Feature","properties":{"id":1493014546,"highway":"residential"},"geometry":{"type":"LineString","coordinates":[[85.6121861,20.4576023],[85.6120829,20.4575998],[85.6119856,20.4576105],[85.6118802,20.4576363],[85.611645,20.4576941],[85.611353,20.4577807],[85.610988,20.4579205],[85.6110074,20.4576667],[85.6110091,20.4574175],[85.6110107,20.4571606],[85.6109912,20.4567913],[85.6109685,20.456507],[85.6109531,20.456118]]}},{"type":"Feature","properties":{"id":1493014547,"highway":"residential"},"geometry":{"type":"LineString","coordinates":[[85.610988,20.4579205],[85.6109442,20.4580801],[85.6108841,20.4582975],[85.6108452,20.4584418]]}},{"type":"Feature","properties":{"id":1493014803,"highway":"unclassified"},"geometry":{"type":"LineString","coordinates":[[85.6137507,20.4559155],[85.6140008,20.4559341],[85.6143641,20.4559926],[85.6146518,20.4560387],[85.6147275,20.4560387],[85.6148278,20.4560299],[85.6149224,20.4560121],[85.6151267,20.4559093],[85.6153141,20.45581],[85.6154257,20.4557763],[85.6155071,20.4557657],[85.615596,20.4557799],[85.6157134,20.45581],[85.6158591,20.4558827],[85.6159745,20.4559536],[85.6160843,20.45606],[85.6161921,20.4561877],[85.6163132,20.4562799],[85.6164419,20.4563526],[85.6169036,20.4566008],[85.6170304,20.4566416],[85.6171383,20.4566486],[85.6172405,20.4566256],[85.6173938,20.4565635],[85.6176095,20.4564784],[85.6178195,20.456404],[85.6180428,20.4563419],[85.6182869,20.4562905],[85.6184667,20.4562568],[85.618567,20.4562196],[85.6186503,20.4562089],[85.6187468,20.4562125],[85.6188471,20.4562178],[85.6189379,20.4562125],[85.6190079,20.4561823],[85.619165,20.4560831],[85.6193693,20.4559607],[85.6196172,20.4557994],[85.6197497,20.4557107],[85.6199049,20.4556008],[85.6200903,20.4554164],[85.6202266,20.4552462],[85.6203382,20.4550884],[85.6204536,20.4549732],[85.6207729,20.454718],[85.6212544,20.4543802],[85.6214089,20.4543247],[85.621548,20.4543006],[85.6216896,20.4542933],[85.621857,20.4543271],[85.6221248,20.4544429],[85.622511,20.4546456],[85.6229076,20.454952],[85.6234432,20.4553742],[85.6238398,20.4557216],[85.624226,20.4560498],[85.6245093,20.4563007],[85.6246561,20.4564503],[85.6248131,20.456595],[85.6249342,20.4567277],[85.6250191,20.456846],[85.6251608,20.4569449],[85.625341,20.4570486],[85.6255547,20.4571499],[85.6260054,20.4573864],[85.6263968,20.4576373],[85.6267934,20.4578858],[85.6270509,20.4580643],[85.6272955,20.4582284],[85.6275607,20.4584287],[85.6279238,20.4587519],[85.6283564,20.4591114],[85.6285959,20.4593165],[85.6287504,20.4594395],[85.6288637,20.4595143],[85.6289667,20.4595409],[85.6291006,20.4595891],[85.6292371,20.4596663],[85.6294019,20.4597846],[85.6295564,20.4599631]]}},{"type":"Feature","properties":{"id":1493026400,"highway":"unclassified"},"geometry":{"type":"LineString","coordinates":[[85.6295564,20.4599631],[85.6296757,20.4601107],[85.6297633,20.4601797],[85.6298999,20.4602716],[85.6300751,20.4604325],[85.6302223,20.4605934],[85.630373,20.4607969],[85.6304396,20.4608691],[85.6305412,20.4609545],[85.6310843,20.4610595],[85.6313401,20.4610858],[85.6316064,20.4611055],[85.6318237,20.4611318],[85.6320655,20.4611942],[85.6322897,20.4612697],[85.6328399,20.461456],[85.6331103,20.4615381],[85.6333086,20.4616056],[85.6334657,20.4616514],[85.6336099,20.4616852],[85.6337901,20.4617166],[85.633973,20.4617311],[85.6341584,20.4617455],[85.6344288,20.4617697],[85.634694,20.461789],[85.6351652,20.4618613],[85.6353558,20.4618903],[85.6354845,20.4618927],[85.6357652,20.4618782],[85.6360201,20.4618638],[85.6362545,20.4618372],[85.636445,20.4618252],[85.6365918,20.4618276],[85.6367463,20.4618493],[85.6369549,20.4618999],[85.6371918,20.4620037],[85.6375008,20.4621605],[85.6377094,20.4622522],[85.6380055,20.4623632],[85.6383016,20.4624717],[85.6384716,20.4625562],[85.6386004,20.4626358],[85.6387549,20.4627685],[85.6389943,20.462988],[85.6393858,20.4633547],[85.6397875,20.4637287],[85.6402304,20.4641605],[85.6405703,20.464561],[85.6407634,20.4647516],[85.6409076,20.4649181],[85.6410673,20.4651111],[85.6411471,20.4652799],[85.6412166,20.4654633],[85.6412836,20.4656973],[85.6413273,20.4659651],[85.6413814,20.4662715],[85.6414226,20.4666889],[85.6414355,20.4668601],[85.6414561,20.4670001],[85.6414793,20.4671496],[85.6415771,20.4675284],[85.641711,20.4679627],[85.6417831,20.468257],[85.6418346,20.4684452],[85.6419145,20.4686044],[85.6419969,20.4687395],[85.6420741,20.4688432],[85.6422054,20.4689759],[85.6424346,20.469152],[85.6427385,20.4694053],[85.643032,20.4696369],[85.6432844,20.469842],[85.6435677,20.4700688],[85.6437659,20.4702521],[85.6439127,20.4704186],[85.6441084,20.4706333],[85.6443711,20.4709276],[85.6445616,20.4711447],[85.6447522,20.4713377],[85.6449762,20.4715548],[85.6451848,20.4717551],[85.6453316,20.4718805],[85.645535,20.4720638]]}},{"type":"Feature","properties":{"id":1493026711,"highway":"unclassified"},"geometry":{"type":"LineString","coordinates":[[85.645535,20.4720638],[85.6459047,20.4723507],[85.6461873,20.4725782],[85.6463506,20.4727312],[85.6465007,20.4728615],[85.6466111,20.4729814],[85.646759,20.4731572],[85.6469003,20.4732978],[85.647015,20.473393],[85.6471762,20.473486],[85.6473528,20.473608],[85.6474654,20.4737114],[85.6476398,20.4738624],[85.6477899,20.4740403],[85.6479731,20.4742305],[85.6481806,20.4744539],[85.648341,20.4746013],[85.6484513,20.4746925],[85.6485994,20.4747892]]}},{"type":"Feature","properties":{"id":1493026712,"highway":"unclassified"},"geometry":{"type":"LineString","coordinates":[[85.645535,20.4720638],[85.6454955,20.4721697],[85.6454671,20.4723009],[85.6454311,20.4724959],[85.6453838,20.4727867],[85.6453535,20.4730189],[85.6453289,20.4732193],[85.6453157,20.4733611],[85.6453233,20.4734958],[85.6453498,20.4736288],[85.6454387,20.4738486],[85.6455201,20.4740401],[85.6455636,20.4741837],[85.6455863,20.4743219],[85.6456033,20.4744868],[85.6456223,20.474758],[85.6456336,20.475187],[85.6456185,20.4755983],[85.645626,20.4758252],[85.6456506,20.4759901],[85.6456923,20.4762064],[85.6457358,20.4764138],[85.6457774,20.4766638],[85.645838,20.4769049],[85.6458607,20.4770626],[85.6458626,20.4772186],[85.6458493,20.4774952],[85.6458456,20.4778568],[85.6458569,20.4784117],[85.6458569,20.4788886],[85.6458664,20.4790233],[85.6458858,20.4791607]]}},{"type":"Feature","properties":{"id":1493027680,"highway":"unclassified"},"geometry":{"type":"LineString","coordinates":[[85.6112899,20.4706429],[85.6115397,20.4706018],[85.6117749,20.4705577],[85.6119485,20.4705182],[85.6121691,20.4704559],[85.6123492,20.4704042],[85.6124676,20.470383],[85.6125877,20.4703769],[85.6126785,20.4703906],[85.6127499,20.470424],[85.6129348,20.4705653],[85.6132008,20.4707659],[85.6132738,20.4708176],[85.6133679,20.4708374],[85.6135253,20.4708389],[85.6136469,20.4708343],[85.6137086,20.4708161],[85.6138335,20.4707583],[85.6139649,20.4706884],[85.6140768,20.4706504],[85.6142455,20.470614],[85.6145813,20.4705593],[85.6147857,20.4705243],[85.6150242,20.4704848],[85.6151458,20.4704696],[85.6152562,20.470462],[85.6153308,20.470462],[85.6154378,20.4704772],[85.6156179,20.4705289],[85.6161273,20.470693],[85.6168978,20.4709483],[85.61773,20.471234],[85.6181761,20.4713617],[85.6183156,20.4713769],[85.6184146,20.4713723],[85.6184989,20.4713495],[85.6185881,20.4712948],[85.6186546,20.4712127],[85.618713,20.4711109],[85.6188688,20.4708754],[85.6190034,20.4707097],[85.6191397,20.4705577],[85.6192208,20.4704924],[85.6193003,20.4704529],[85.6193992,20.4704179],[85.6195517,20.470383],[85.6198502,20.4703237],[85.6200789,20.4702811],[85.6202476,20.4702644],[85.6203644,20.4702644],[85.6205137,20.4702857],[85.6206743,20.4703359],[85.6208186,20.4704149],[85.6211999,20.4707614],[85.6213284,20.4709409],[85.6213889,20.4710792],[85.6214419,20.4712618],[85.621493,20.4715241],[85.6215289,20.471845],[85.62158,20.4721198],[85.6216236,20.472384],[85.6217087,20.4727545],[85.6217806,20.4731285],[85.621826,20.473398],[85.6218809,20.4736285],[85.6219415,20.4737703],[85.6220096,20.4738483],[85.6220683,20.4738873],[85.622144,20.4739121],[85.6222537,20.4738979],[85.6223862,20.4738642],[85.6226908,20.4737721],[85.6229936,20.4737118],[85.6232018,20.4736905],[85.6233437,20.4736817],[85.6234667,20.4736958],[85.6235802,20.4737313],[85.6236748,20.4737987],[85.6238546,20.4739706],[85.6241271,20.4743199],[85.6243277,20.4745308],[85.6244261,20.4746301],[85.6245472,20.4747418],[85.6249332,20.4750591],[85.6253685,20.4753888],[85.6259948,20.47591],[85.6261368,20.4760093],[85.6262352,20.4760359],[85.6263184,20.4760324],[85.6264263,20.4759845],[85.6266099,20.4758657],[85.6266931,20.4758303],[85.626818,20.4758303],[85.6269448,20.4758657],[85.6274273,20.4760253],[85.6279193,20.4761972],[85.6284454,20.4764206],[85.6285665,20.4764667],[85.6286649,20.4764773],[85.6287463,20.4764596],[85.6287955,20.4764241],[85.6288485,20.4763639],[85.628909,20.476254],[85.6289828,20.4760536],[85.6290642,20.4758515],[85.6291096,20.4756707],[85.6291323,20.4755378],[85.6291683,20.4753392],[85.6291948,20.4751247],[85.6292402,20.474912],[85.6292761,20.4748198],[85.6293329,20.4747489],[85.6294067,20.4746939],[85.6295335,20.4746549],[85.6296811,20.4746336],[85.6298666,20.4746319],[85.6300728,20.4746301],[85.6302564,20.474639],[85.6304248,20.474662],[85.6306102,20.4746921],[85.6307086,20.4746992],[85.6308449,20.4747046],[85.6309982,20.4746921],[85.6312442,20.4746673],[85.6314542,20.4746195],[85.6316643,20.4745645],[85.6317494,20.4745273],[85.6318175,20.4744776],[85.6318932,20.4743819],[85.6319462,20.4742879],[85.6319708,20.4741639],[85.6320087,20.4739086],[85.6320162,20.4737614],[85.6320181,20.4736161],[85.6320068,20.473437],[85.6319557,20.473258],[85.6318157,20.4728449],[85.6316567,20.4724354],[85.6315053,20.4720968],[85.6313369,20.4717422],[85.6311931,20.4714851],[85.6310341,20.4712316],[85.6309092,20.4710313],[85.6305894,20.470581],[85.6304078,20.470253],[85.6303472,20.470113],[85.6303094,20.4699694],[85.6302961,20.4698311],[85.6303131,20.4693879],[85.6303321,20.4689092],[85.6303453,20.468599],[85.6303642,20.468388],[85.6304059,20.4681451],[85.6304778,20.4678544],[85.630597,20.4673792],[85.6306954,20.4671452],[85.6307654,20.4670424],[85.6308335,20.4669874],[85.6309092,20.4669715],[85.6310076,20.4669768],[85.6311022,20.4670247],[85.6313199,20.4672002],[85.6314485,20.4672835],[85.6315564,20.4673331],[85.631704,20.4673899],[85.6318289,20.4674058],[85.6319841,20.4674058],[85.632425,20.4674182],[85.6325309,20.4674058],[85.6326085,20.4673509],[85.6326956,20.467264],[85.6327864,20.4671204],[85.6328432,20.4670122],[85.6328754,20.466913],[85.6329075,20.466796],[85.6330002,20.4666346],[85.6331384,20.4664946],[85.6333238,20.4663332],[85.633479,20.4662233],[85.6335604,20.4661772],[85.6336758,20.4661294],[85.6337988,20.4660921],[85.6339464,20.4660177],[85.6340486,20.4659521],[85.6341016,20.4658723],[85.6340997,20.4657872],[85.6340486,20.4656542],[85.6339464,20.4654344],[85.6338499,20.4651933],[85.6337856,20.4650071],[85.6337591,20.4648227],[85.6337477,20.4646632],[85.6337496,20.4645267],[85.6337647,20.4643565],[85.6338196,20.4640728],[85.6338953,20.4638654],[85.6339616,20.4637023],[85.6340581,20.4635072],[85.6342322,20.463259],[85.6343968,20.4630959],[85.63448,20.4630037],[85.6345671,20.4628991],[85.6346409,20.4627644],[85.6347204,20.4625179],[85.634815,20.4623708],[85.6348983,20.4622502],[85.6349872,20.4621439],[85.6350818,20.4620694],[85.6351348,20.4620091],[85.6351575,20.4619524],[85.6351652,20.4618613]]}},{"type":"Feature","properties":{"id":1493048347,"highway":"unclassified"},"geometry":{"type":"LineString","coordinates":[[85.6095217,20.473048],[85.6093545,20.4731959],[85.6091514,20.4733779],[85.60869,20.4737998],[85.6081911,20.4742361],[85.6079329,20.4744553],[85.6078556,20.4745442],[85.607807,20.4746352],[85.6077828,20.4747242],[85.6077828,20.4748151],[85.6078092,20.4749454],[85.6079991,20.4754852],[85.6081978,20.4760849],[85.608264,20.4763],[85.6082883,20.4764551],[85.6082905,20.4765667],[85.6082728,20.4767363],[85.6082242,20.4769989],[85.6081801,20.4771809],[85.6081448,20.4773071],[85.6080697,20.4774787],[85.6079638,20.4776442],[85.6077872,20.4779171],[85.6077187,20.4779957],[85.6076327,20.4780743],[85.6075245,20.4781715],[85.6074318,20.4782625],[85.6073214,20.4783679],[85.6072552,20.4784196],[85.6071807,20.4784802]]}},{"type":"Feature","properties":{"id":1493049258,"highway":"residential"},"geometry":{"type":"LineString","coordinates":[[85.6065494,20.4790469],[85.6063173,20.4789933],[85.6059641,20.478923],[85.605565,20.478837],[85.6052924,20.4787836],[85.6049003,20.4787276],[85.6048697,20.4789047]]}},{"type":"Feature","properties":{"id":1493049259,"highway":"residential"},"geometry":{"type":"LineString","coordinates":[[85.6049003,20.4787276],[85.6049086,20.4786103],[85.604917,20.4784631],[85.6049198,20.4782833],[85.6049059,20.4781622],[85.6048794,20.4780775],[85.6048043,20.4779042]]}},{"type":"Feature","properties":{"id":1493049260,"highway":"residential"},"geometry":{"type":"LineString","coordinates":[[85.608264,20.4763],[85.6084724,20.476263],[85.6088807,20.4762093],[85.6092074,20.4761514],[85.609426,20.4761141],[85.6097262,20.4760728],[85.6101964,20.476017],[85.6100595,20.4756633],[85.6099138,20.4752353],[85.6098035,20.4749416],[85.6097483,20.47477],[85.6097019,20.4746252],[85.6096865,20.474499],[85.6096511,20.4743584],[85.6096136,20.4741806],[85.6095319,20.4740007],[85.6093752,20.4737215],[85.6091514,20.4733779]]}}]}