{"type":"FeatureCollection","features":[{"type":"Feature","properties":{"id":322971470,"highway":"tertiary"},"geometry":{"type":"LineString","coordinates":[[85.9152132,20.4658065],[85.916227,20.4648969],[85.9172228,20.4640817],[85.9184024,20.46352],[85.9193113,20.4629765],[85.919785,20.4625598],[85.9201814,20.4619257],[85.9211737,20.460084],[85.9215908,20.4597061],[85.921646,20.4596768],[85.9235323,20.4586759],[85.9237033,20.4585851],[85.9248861,20.4581816],[85.9249501,20.4581692],[85.9252615,20.4581097],[85.9252954,20.4581031],[85.9259458,20.4579766],[85.9267867,20.4579189],[85.9276755,20.4579574],[85.9288895,20.4580132],[85.9295167,20.458042],[85.9308819,20.4581047],[85.9314972,20.4580791],[85.9332885,20.4577588],[85.9334171,20.4577312],[85.9350433,20.4573823],[85.9355834,20.4573003],[85.9357245,20.457279],[85.936406,20.4571759],[85.9371717,20.4570862],[85.9378691,20.4569517],[85.9384297,20.4567788],[85.9386316,20.4566813],[85.9390929,20.4564585],[85.9394552,20.4562535],[85.9403235,20.4556321],[85.9410003,20.4550556],[85.94139,20.4546072],[85.9416772,20.4541204],[85.9419301,20.4535759],[85.9423745,20.4523299],[85.9428132,20.4511],[85.9428326,20.4510456],[85.943776,20.4480413],[85.9441452,20.4467344],[85.9442409,20.4465102],[85.9444802,20.4461451],[85.9447537,20.4458184],[85.9450067,20.4455878],[85.945328,20.4453379],[85.949683,20.4430189],[85.9508521,20.4424744],[85.9515973,20.4420324],[85.9533817,20.4408024],[85.9542978,20.4402258],[85.9552003,20.4398158],[85.9560754,20.4394442],[85.9570599,20.4391367],[85.9583999,20.4388805],[85.9594732,20.4387075],[85.9621396,20.4385089],[85.9632813,20.4382526],[85.9647854,20.4379003],[85.9666245,20.4372661],[85.9685182,20.4364524],[85.9696805,20.4362026],[85.9701659,20.436177],[85.9704941,20.4361898],[85.9709111,20.4363307],[85.972675,20.437202],[85.9730412,20.4372927],[85.9732698,20.4373493],[85.9741039,20.4374647],[85.9748969,20.4374711],[85.9788212,20.4369586],[85.9831831,20.4363435],[85.9847145,20.4359912],[85.9866356,20.435421],[85.9878594,20.4349085],[85.9891926,20.4342038],[85.9905257,20.4334798],[85.9913393,20.4331339],[85.9922349,20.4329225],[85.9931852,20.4328007],[85.9972463,20.4323907],[86.0011637,20.4320191],[86.0060383,20.4313464],[86.0109403,20.430962],[86.0113197,20.4308614],[86.0115453,20.430714],[86.0119624,20.4305539],[86.012523,20.4303232],[86.0127657,20.4302592],[86.0129469,20.4302496],[86.0131622,20.430288],[86.0150799,20.4311113],[86.0152645,20.431217],[86.0153431,20.4313483],[86.0156748,20.4320552],[86.0157431,20.4323862],[86.0159277,20.4326841],[86.0160473,20.432825],[86.0178112,20.4341448],[86.018136,20.4342761],[86.0183992,20.4342921],[86.0187171,20.4342537],[86.0212091,20.4337348],[86.0214928,20.433722],[86.0217765,20.4338148],[86.0221799,20.4340615],[86.0230687,20.4342313],[86.0244941,20.4343786],[86.0251197,20.4343882],[86.025359,20.4344139],[86.0261862,20.4348559],[86.02674,20.4353172],[86.0276561,20.4358393],[86.0283535,20.4364928],[86.0285039,20.4365536],[86.0301515,20.4365632],[86.0304113,20.4365825],[86.0305857,20.4366561],[86.0309549,20.4369316],[86.0312933,20.4370725],[86.0319394,20.4375242],[86.0321069,20.437553],[86.032582,20.4374249],[86.0331324,20.4372135],[86.0335118,20.4369957],[86.0337443,20.436922],[86.033922,20.4369124],[86.0341579,20.4369636],[86.0345373,20.4371142],[86.0348587,20.437316],[86.0351253,20.437569],[86.0354466,20.4381488],[86.0355252,20.4382289],[86.0356073,20.4382545],[86.0359594,20.4382065],[86.0362226,20.4382161],[86.0367969,20.4383442],[86.0371079,20.4383538],[86.0376549,20.4383186],[86.0381027,20.4382033],[86.0402699,20.4374409],[86.041815,20.436938],[86.0419928,20.4368547],[86.0420475,20.436765],[86.0422252,20.4361212],[86.0423141,20.4360027],[86.0430286,20.4354966],[86.0432849,20.4354069],[86.0434661,20.4353812],[86.0436507,20.4353844],[86.0437498,20.4354133],[86.0441566,20.4356311],[86.0442865,20.4356503],[86.0444369,20.4356311],[86.0453907,20.4352948],[86.046153,20.4350225],[86.0481698,20.4343466],[86.0508156,20.4335746],[86.0531196,20.4328442],[86.0540426,20.432431],[86.0543673,20.4323638],[86.0562372,20.4321427],[86.0572148,20.4321491],[86.057813,20.4320626],[86.0587565,20.4318192],[86.0590607,20.4317872],[86.0592898,20.4317936],[86.059888,20.4318576],[86.0600316,20.4318224],[86.0602674,20.4316494],[86.0609785,20.4313771],[86.0611836,20.4312042],[86.0613852,20.4309639],[86.0615835,20.4308454],[86.0623321,20.4305731],[86.0626637,20.4305539],[86.0627868,20.4305122],[86.0629303,20.4303809],[86.0630842,20.4302047],[86.0632483,20.4301374],[86.0634534,20.4301342],[86.0643592,20.4303713],[86.064913,20.4304482],[86.0651079,20.4304161],[86.0652959,20.4303457],[86.0654668,20.4302079],[86.0659556,20.4297178],[86.066335,20.4294455],[86.0666871,20.4292661],[86.0670392,20.4291796],[86.0673811,20.4291828],[86.0677879,20.4292405],[86.0682083,20.4294327],[86.0683314,20.4294519],[86.0686664,20.4293654],[86.0702183,20.429122],[86.071155,20.4291508],[86.0722454,20.4291412],[86.0725941,20.4290899],[86.0732573,20.428981],[86.0735239,20.4289714],[86.0738862,20.4289778],[86.076262,20.4293174],[86.0767748,20.4293398],[86.0784874,20.4292661],[86.0793317,20.4291796],[86.0798205,20.4290675],[86.0806922,20.4288497],[86.0813417,20.4286319],[86.0817724,20.4283724],[86.0820049,20.4282763],[86.0823706,20.4281674],[86.0831193,20.4277798],[86.083656,20.4274594],[86.083926,20.4273409],[86.0847601,20.4271102],[86.086459,20.426556],[86.0880486,20.4259666],[86.0883084,20.4258161],[86.0885921,20.425579]]}},{"type":"Feature","properties":{"id":397452268,"highway":"tertiary"},"geometry":{"type":"LineString","coordinates":[[85.9939505,20.4633765],[85.9939449,20.4629404],[85.9940863,20.4623704],[85.9943091,20.461973],[85.9948275,20.4614793],[85.9953501,20.4612345],[85.9955943,20.4611663],[85.9970938,20.4610739],[86.0019092,20.460805],[86.0060434,20.4606003],[86.0080185,20.4604839],[86.009158,20.4603033],[86.0130781,20.4596129],[86.0143291,20.459368],[86.0149288,20.4593239],[86.0152459,20.4593239],[86.0185275,20.4598055],[86.0190202,20.4598979],[86.0236514,20.4610378],[86.0239984,20.4611181],[86.0280084,20.4615717],[86.0312944,20.461957],[86.0348417,20.4623303],[86.0378706,20.4626514],[86.0402483,20.4628681],[86.042489,20.4630648],[86.044648,20.463126],[86.046911,20.4631686],[86.0486014,20.4631884],[86.0489831,20.4632878],[86.0495465,20.4634524],[86.0512975,20.4639831],[86.0528909,20.464477],[86.0549994,20.4651269],[86.0572381,20.4658762],[86.0586952,20.4663587],[86.0608733,20.467037],[86.061461,20.4670739],[86.0621245,20.4670115],[86.0628031,20.4670569],[86.0636785,20.4672442],[86.0656173,20.4678317],[86.0667503,20.4682943],[86.0686497,20.4691145],[86.070846,20.4700426],[86.0714034,20.4702128],[86.071664,20.4702299],[86.0719033,20.4702242],[86.0721093,20.4701674],[86.0724243,20.4700426],[86.0727182,20.4698496],[86.0730908,20.4694153],[86.0732208,20.4691627],[86.0732964,20.4687378],[86.0733538,20.4686425],[86.0734189,20.4686205],[86.0735156,20.4686002],[86.0736327,20.468662],[86.073677,20.4687353],[86.0736953,20.4688941],[86.0736726,20.4705235],[86.0737169,20.4718705],[86.0738385,20.472544],[86.0739473,20.4728151],[86.073986,20.4728997]]}},{"type":"Feature","properties":{"id":594015800,"highway":"unclassified"},"geometry":{"type":"LineString","coordinates":[[85.9856254,20.4249823],[85.986785,20.4247917],[85.9881633,20.42472],[85.98955,20.4246817],[85.9908333,20.42472],[85.9923317,20.4247467],[85.993705,20.4247317],[85.9952283,20.4247217],[85.9968783,20.4247267],[85.998485,20.4246917],[85.9999333,20.42462],[86.0013617,20.4243533],[86.002635,20.423965],[86.0039967,20.4233717],[86.0050717,20.422765],[86.006015,20.422045],[86.0069267,20.4212467],[86.0077683,20.4202917],[86.00852,20.4192783],[86.009125,20.4182017],[86.009715,20.4171733],[86.0103367,20.4160967],[86.0109967,20.4149433],[86.0114817,20.414125],[86.0119967,20.413225],[86.0126283,20.4121483],[86.013235,20.41111],[86.0136822,20.4103257],[86.0138118,20.4101255],[86.0138942,20.4100373],[86.0139614,20.409982],[86.014025,20.4099404]]}},{"type":"Feature","properties":{"id":1225854986,"highway":"residential"},"geometry":{"type":"LineString","coordinates":[[86.0009712,20.4914812],[86.0007674,20.4913907],[86.0006762,20.4913907],[86.000483,20.4914259],[86.0002255,20.4915264],[85.9998286,20.4917374],[85.998922,20.4920187]]}}]}