{"type":"FeatureCollection","features":[{"type":"Feature","properties":{"id":44948331,"highway":"primary"},"geometry":{"type":"LineString","coordinates":[[85.7319252,20.4212927],[85.73301,20.4209949],[85.7353489,20.4206832],[85.7368402,20.4205223],[85.7370655,20.420462],[85.7373552,20.4203614],[85.7387929,20.4196878],[85.7394473,20.4193962],[85.7402627,20.4191549],[85.7414107,20.4189839],[85.7421617,20.4189135],[85.7428698,20.4189337],[85.7448118,20.4190644],[85.7460027,20.4190644],[85.7475369,20.4190443],[85.7494895,20.4192252],[85.7504122,20.4193459],[85.7534914,20.4199693],[85.7556586,20.4204117],[85.7573538,20.4208038],[85.758137,20.4210652],[85.7589094,20.4213769],[85.7590975,20.4214817],[85.7597034,20.4218193],[85.7602184,20.4221813],[85.7623856,20.4240112],[85.7626324,20.4243128],[85.7628147,20.4246647],[85.7631581,20.4255897],[85.7635228,20.4268968],[85.7636838,20.4272587],[85.7639627,20.4276709],[85.7653213,20.4292623],[85.7659274,20.4299723],[85.7667093,20.4308882],[85.7692377,20.4338769],[85.7695171,20.4342224],[85.7695781,20.4343884],[85.7704,20.4350461],[85.7706982,20.4352854],[85.7709,20.4354473],[85.7716488,20.4360482],[85.7728619,20.436988],[85.7735516,20.4375908],[85.7742958,20.438439],[85.7746209,20.4387435],[85.7747323,20.4388192],[85.7750497,20.4390348],[85.7757622,20.439337],[85.7758588,20.439378],[85.7759584,20.4394202],[85.776483,20.4397277],[85.7767886,20.4399137],[85.7768694,20.4399629],[85.7768962,20.4399813],[85.7769703,20.4400481],[85.7794851,20.4421721],[85.7796299,20.4422944],[85.7797663,20.4424096],[85.7807641,20.4433043],[85.7810645,20.4436964],[85.7815044,20.4444906],[85.7819497,20.4455754],[85.7823627,20.4465816],[85.7824807,20.4467224],[85.7826309,20.4468128],[85.7828348,20.4468631],[85.7830578,20.446899],[85.785517,20.4472954],[85.7859385,20.4473612],[85.7860963,20.4473858],[85.7867186,20.4475869],[85.7871799,20.4478483],[85.7873945,20.4480292],[85.7875769,20.4483409],[85.7877271,20.4485118],[85.787931,20.4486123],[85.7890007,20.4490312],[85.7893156,20.4492691],[85.7894031,20.4493866],[85.7896621,20.4497345]]}},{"type":"Feature","properties":{"id":44948465,"highway":"primary"},"geometry":{"type":"LineString","coordinates":[[85.7896621,20.4497345],[85.7901094,20.4503179]]}},{"type":"Feature","properties":{"id":77356042,"highway":"primary"},"geometry":{"type":"LineString","coordinates":[[85.7783984,20.4703952],[85.7784888,20.470953]]}},{"type":"Feature","properties":{"id":315126273,"highway":"primary"},"geometry":{"type":"LineString","coordinates":[[85.7451979,20.4457863],[85.735064,20.4535504]]}},{"type":"Feature","properties":{"id":315126274,"highway":"secondary"},"geometry":{"type":"LineString","coordinates":[[85.745029,20.4450394],[85.7452128,20.4456434]]}},{"type":"Feature","properties":{"id":315126275,"highway":"secondary"},"geometry":{"type":"LineString","coordinates":[[85.7452128,20.4456434],[85.7452712,20.4457487]]}},{"type":"Feature","properties":{"id":315126276,"highway":"secondary"},"geometry":{"type":"LineString","coordinates":[[85.7695781,20.4343884],[85.7691176,20.434077],[85.7688832,20.4339971],[85.7685423,20.4340037],[85.7680593,20.4340969],[85.7675976,20.4343432],[85.7670578,20.4346294],[85.7662623,20.4353882],[85.7657793,20.4358674],[85.7654809,20.4362401],[85.7651755,20.4367127],[85.7647422,20.4375447],[85.7644013,20.4383767],[85.7640106,20.4390023],[85.7633572,20.4395547],[85.7624551,20.4398942],[85.7616809,20.4399873],[85.7564247,20.4395747],[85.7549331,20.4394283],[85.7546277,20.4393151],[85.7521559,20.438137],[85.7515095,20.4378708],[85.7506358,20.437731],[85.7497267,20.4378375],[85.7494568,20.4378309],[85.7481671,20.4374732],[85.7478174,20.4374021],[85.747638,20.4373956]]}},{"type":"Feature","properties":{"id":322931810,"highway":"unclassified"},"geometry":{"type":"LineString","coordinates":[[85.7654388,20.4509746],[85.7653239,20.4512468],[85.7651547,20.451779],[85.7650686,20.4518568],[85.7649122,20.4519345],[85.7647334,20.4519525],[85.7645164,20.4519226],[85.7631856,20.4516265],[85.7630834,20.4516265],[85.7630356,20.4516923],[85.7629909,20.451779]]}},{"type":"Feature","properties":{"id":322931811,"highway":"primary"},"geometry":{"type":"LineString","coordinates":[[85.7741161,20.4696128],[85.774456,20.4696822],[85.7748988,20.4696988],[85.7753018,20.4696469],[85.7776199,20.469203],[85.7777993,20.4691823],[85.7778967,20.4691926],[85.7779698,20.4692466],[85.7780428,20.4693316],[85.7781602,20.4695556],[85.7783984,20.4703952]]}},{"type":"Feature","properties":{"id":322931812,"highway":"primary"},"geometry":{"type":"LineString","coordinates":[[85.7741161,20.4696128],[85.7743043,20.4698015],[85.7744061,20.4699177],[85.774488,20.4699612],[85.7767862,20.4703699],[85.7775457,20.4705068],[85.7776918,20.4705192],[85.7782475,20.470457],[85.7783984,20.4703952]]}},{"type":"Feature","properties":{"id":322931813,"highway":"residential"},"geometry":{"type":"LineString","coordinates":[[85.774488,20.4699612],[85.7742289,20.4699351],[85.7741277,20.4699415],[85.7740265,20.4699846],[85.7737021,20.4702389],[85.7731179,20.4707389],[85.7729316,20.4708682],[85.7721702,20.4712604],[85.7719241,20.4714608],[85.7716733,20.4716978],[85.7715468,20.4717689],[85.7709488,20.4720254],[85.7703921,20.472271],[85.7689936,20.4725684],[85.7684691,20.4726654],[85.7683633,20.4726417],[85.7678895,20.4717776],[85.7675859,20.4711828]]}},{"type":"Feature","properties":{"id":322931814,"highway":"unclassified"},"geometry":{"type":"LineString","coordinates":[[85.7629909,20.451779],[85.762876,20.4525206]]}},{"type":"Feature","properties":{"id":322931816,"highway":"unclassified"},"geometry":{"type":"LineString","coordinates":[[85.762876,20.4525206],[85.7628154,20.4526253],[85.7627292,20.452706],[85.7624132,20.4528825],[85.7620717,20.4531426],[85.7617813,20.4535314],[85.76166,20.4537766],[85.7615547,20.4539111],[85.7612515,20.4540756],[85.7611686,20.4541653],[85.761143,20.4542729],[85.7611334,20.454569],[85.7610696,20.4546826],[85.7608909,20.4547723],[85.7607026,20.4549966],[85.7604058,20.4553016],[85.7602398,20.4554063],[85.7591356,20.455798],[85.7587717,20.4559236],[85.7585994,20.4560312],[85.7584807,20.4561266]]}},{"type":"Feature","properties":{"id":322931817,"highway":"residential"},"geometry":{"type":"LineString","coordinates":[[85.7669533,20.4715685],[85.7675859,20.4711828],[85.7683231,20.4706622]]}},{"type":"Feature","properties":{"id":322931824,"highway":"tertiary"},"geometry":{"type":"LineString","coordinates":[[85.7990163,20.4496415],[85.7987349,20.4501065],[85.7986128,20.4501945],[85.7982088,20.4503999],[85.7981493,20.4504644],[85.7979803,20.4507197],[85.7977861,20.4509896],[85.7977517,20.451104],[85.7977485,20.4513534],[85.7977673,20.4515499],[85.797808,20.4517054],[85.7979489,20.4520076],[85.7979803,20.4522277],[85.7979834,20.4524007],[85.7978957,20.4526296],[85.7977579,20.4528232],[85.797664,20.4529171],[85.7975607,20.4529728],[85.7973133,20.4530168],[85.7964115,20.4530256],[85.7962769,20.4530608],[85.7961517,20.4531342],[85.7955035,20.4537767],[85.7949869,20.4542989],[85.7947646,20.4546069],[85.7946894,20.45478],[85.7946362,20.4550206],[85.7946268,20.4552318],[85.7947301,20.4556836],[85.7948053,20.4559271],[85.7948366,20.4560797],[85.7948522,20.4562645],[85.794655,20.4578252],[85.794531,20.4587774],[85.7943649,20.459993],[85.7941834,20.4613019],[85.7940682,20.4618101],[85.7939575,20.4621068],[85.7938269,20.4623059],[85.7935479,20.4625673],[85.7932712,20.4627934],[85.7927686,20.4633929],[85.7911523,20.4654112],[85.789846,20.4670354],[85.7894563,20.4674378],[85.7890932,20.4677572],[85.7886814,20.4680642],[85.7875744,20.4687695],[85.7863256,20.4694623],[85.7857057,20.4697921],[85.7851832,20.4700078],[85.7850526,20.4700452],[85.7849441,20.470041],[85.7845389,20.4699788],[85.7842653,20.469919],[85.7838459,20.4698274],[85.7835359,20.4696946],[85.7829691,20.4693026],[85.7826259,20.4688836],[85.7825307,20.4688193],[85.7824134,20.4687799],[85.7822451,20.4687716],[85.7814481,20.4689147],[85.7806576,20.4690391],[85.7804672,20.4691221],[85.7799558,20.4695183],[85.7792893,20.4700555],[85.7790812,20.4701489],[85.7783984,20.4703952]]}},{"type":"Feature","properties":{"id":322931825,"highway":"residential"},"geometry":{"type":"LineString","coordinates":[[85.7809485,20.4835355],[85.7803476,20.4832693],[85.7772938,20.4815926],[85.776749,20.4812465],[85.7764453,20.4810617],[85.7762793,20.4809209],[85.776223,20.4808182],[85.7762167,20.4806892],[85.7763204,20.4804875],[85.7765701,20.4804376],[85.7770089,20.4805956],[85.7770266,20.4805006],[85.7770478,20.4803864],[85.7765701,20.4804376]]}},{"type":"Feature","properties":{"id":322931827,"highway":"tertiary"},"geometry":{"type":"LineString","coordinates":[[85.7919028,20.4512139],[85.7915957,20.4513853],[85.7892652,20.4524529],[85.788665,20.4527692],[85.7871645,20.4538588],[85.7856125,20.4549132],[85.7839619,20.4560159],[85.7838447,20.4561565],[85.7838119,20.4562883],[85.7838072,20.4564113],[85.783831,20.4565227],[85.784128,20.4570367],[85.7842407,20.4570945],[85.7844177,20.4570895],[85.7859862,20.4564731],[85.7860981,20.4565064],[85.7861598,20.4565529],[85.7862464,20.4567093],[85.7862664,20.4567455],[85.7863509,20.4569391],[85.7863402,20.4570057],[85.7862872,20.4570643],[85.7845924,20.4579726],[85.7841794,20.458445],[85.7838982,20.4586089],[85.7819321,20.4595611]]}},{"type":"Feature","properties":{"id":322931829,"highway":"unclassified"},"geometry":{"type":"LineString","coordinates":[[85.8104482,20.4423736],[85.8098348,20.4432187],[85.8096856,20.4433616],[85.809364,20.4436195],[85.8087141,20.4440669],[85.807746,20.4446261],[85.8076797,20.4446944],[85.8076498,20.4447628],[85.8076332,20.4449368],[85.8075868,20.4450144],[85.8070762,20.4454929],[85.8069403,20.4455674],[85.8065523,20.4457166],[85.8063136,20.4458595],[85.8057533,20.446369],[85.8055013,20.4465088],[85.8053355,20.4465616],[85.805173,20.4465678],[85.8050271,20.4465274],[85.804921,20.4464839],[85.8048779,20.4465368],[85.8046923,20.4471084],[85.8046624,20.447183],[85.8045629,20.4472016],[85.8044345,20.4472056],[85.8040951,20.4472278],[85.8037217,20.4472352],[85.8021989,20.4473259],[85.8014098,20.4473352],[85.8005311,20.4474191],[85.7999045,20.4474346],[85.7999224,20.4467286],[85.79974,20.4466106],[85.7995709,20.4465733],[85.7991376,20.4465358],[85.7990323,20.4465202],[85.7986392,20.4464583],[85.7983342,20.4462937],[85.7982281,20.4461601],[85.7981386,20.4459302],[85.7977871,20.4454393],[85.7974224,20.4449329],[85.7971804,20.4444483],[85.797051,20.4443799],[85.7968256,20.4442494],[85.7967659,20.4441749],[85.7967593,20.4440413],[85.7968156,20.4439853],[85.7970643,20.4438207],[85.7970942,20.443743],[85.7969251,20.4430781],[85.7969251,20.4428917],[85.7971373,20.4422113],[85.7971472,20.4412917],[85.7970842,20.4411333],[85.7969582,20.4410711],[85.796746,20.4409251],[85.7966896,20.4407791],[85.7967062,20.4405833],[85.7971373,20.4398284],[85.7972566,20.4392629],[85.79724,20.4388466],[85.7970942,20.4384085],[85.7968554,20.4380139],[85.7968621,20.4378772],[85.7969151,20.4377654],[85.7973495,20.4372403],[85.7974423,20.4370042],[85.7976014,20.4361063],[85.7977341,20.435081],[85.797691,20.4349101],[85.7970643,20.4339593],[85.7966797,20.433049],[85.7965404,20.4324493],[85.7965272,20.4317098],[85.7965007,20.4310542],[85.7963747,20.430756],[85.7961326,20.4305105],[85.795748,20.4301874],[85.7951711,20.4296343],[85.7949058,20.4294696],[85.7947102,20.4294168],[85.7944449,20.4293982],[85.7932977,20.429538],[85.7931452,20.4295473],[85.7929861,20.4294852],[85.7927208,20.4293764],[85.7925782,20.4293702],[85.7923229,20.4295597],[85.7919483,20.4298394],[85.7916488,20.430028],[85.7915537,20.4300879],[85.7911956,20.4303862],[85.7906518,20.4312686],[85.7902473,20.4318559],[85.7899456,20.432499],[85.7899191,20.4326917],[85.7898528,20.4328222],[85.7897865,20.4328594],[85.7894516,20.4329185],[85.789004,20.4332354]]}},{"type":"Feature","properties":{"id":459719033,"highway":"secondary"},"geometry":{"type":"LineString","coordinates":[[85.8159669,20.4869708],[85.8156719,20.4872044],[85.8138306,20.4892259],[85.813046,20.4900662],[85.8123124,20.4909049],[85.8120137,20.4912214],[85.8116869,20.4915457],[85.8111669,20.491899],[85.8111369,20.4919194],[85.8105331,20.4921214],[85.8096489,20.4921517],[85.8054652,20.4918487],[85.8025646,20.4916568],[85.8015618,20.491576],[85.800009,20.4913537],[85.7985534,20.4910204],[85.7973565,20.4906568],[85.7966017,20.4905356],[85.7947686,20.4903942],[85.7935501,20.4902023],[85.7925042,20.4899498],[85.7922203,20.4898635],[85.7920783,20.4898203],[85.7916523,20.4896642],[85.7910292,20.4893696],[85.7905334,20.4890883],[85.7901639,20.4888092],[85.7899602,20.488648],[85.7897499,20.4884815],[85.7895729,20.4883793],[85.7892589,20.4882001],[85.7881647,20.4877256],[85.7879922,20.4876508],[85.7877518,20.4875259],[85.7872314,20.4872327],[85.7866707,20.4869195],[85.7861423,20.4866973],[85.7859814,20.4866493],[85.7856544,20.4865518],[85.7853833,20.4864683],[85.785233,20.4863984],[85.7849308,20.4862204],[85.7845033,20.4859701],[85.7841906,20.4857781],[85.7834145,20.4853744],[85.7831764,20.4852095],[85.7826124,20.4847011],[85.782424,20.4844983],[85.7822741,20.4843433],[85.7821181,20.484201],[85.7813241,20.4837368],[85.7809485,20.4835355],[85.7809936,20.4834146],[85.7814271,20.4822605],[85.7814476,20.4822061]]}},{"type":"Feature","properties":{"id":489991568,"highway":"primary"},"geometry":{"type":"LineString","coordinates":[[85.7729727,20.4686128],[85.7721003,20.4693139],[85.7716974,20.4695835],[85.7712678,20.4697661],[85.7707143,20.4699652],[85.7696648,20.470546],[85.7693017,20.4707327],[85.7689873,20.4707825],[85.7686951,20.4707659],[85.7684692,20.4707244],[85.7683231,20.4706622],[85.7681903,20.4704589],[85.7669947,20.4683473],[85.7670041,20.4682475],[85.7670823,20.4681185],[85.7687385,20.4669942],[85.7689643,20.4667619],[85.7690927,20.4665503],[85.7691547,20.4663221],[85.7690846,20.4661677],[85.7689733,20.4659495],[85.7688552,20.4656468],[85.7687739,20.4654841],[85.7685259,20.465287],[85.7663251,20.4637251],[85.766024,20.4634554],[85.7658668,20.4632459],[85.7654431,20.4625747],[85.7654085,20.4625199],[85.7649701,20.4620054],[85.7644144,20.4614059],[85.763748,20.4607774],[85.7619258,20.4593855],[85.7607258,20.4584437],[85.7601988,20.4581305],[85.7595058,20.4578504],[85.75939,20.4577907],[85.7593287,20.4577591],[85.7591759,20.4576015],[85.7590342,20.4573857],[85.7586357,20.4564502],[85.7584807,20.4561266],[85.7583191,20.4559482],[85.757987,20.4556598],[85.7574534,20.4552574],[85.7565832,20.4545375],[85.7562035,20.4542158],[85.7560265,20.4540658],[85.7555678,20.4536771],[85.7550512,20.4530933],[85.7542308,20.4520752],[85.7539835,20.4518611],[85.7538848,20.4518102],[85.7533443,20.4514956],[85.7531318,20.4513741],[85.7523177,20.4507961],[85.7511779,20.4499247],[85.7508109,20.4496884],[85.7505579,20.4495785],[85.7497965,20.4494039],[85.74921,20.4492164],[85.748954,20.4491896],[85.748697,20.4491626],[85.748421,20.449141],[85.7483267,20.4491044],[85.7482393,20.4490225],[85.748122,20.44885],[85.7478712,20.4483285],[85.74777,20.4481668],[85.7473261,20.4476646],[85.7470455,20.4472918],[85.7468661,20.4470978],[85.746107,20.4465029],[85.7453653,20.4458594],[85.7452712,20.4457487]]}},{"type":"Feature","properties":{"id":489991569,"highway":"primary"},"geometry":{"type":"LineString","coordinates":[[85.7452712,20.4457487],[85.7451979,20.4457863]]}},{"type":"Feature","properties":{"id":489991570,"highway":"tertiary"},"geometry":{"type":"LineString","coordinates":[[85.6969729,20.4478517],[85.697043,20.4478274],[85.6972624,20.4477837],[85.6981357,20.4476699],[85.6986961,20.4476174],[85.6993219,20.4476305],[85.6999056,20.4476786],[85.7010684,20.4478318],[85.7026703,20.4480725],[85.7033007,20.44816],[85.7038938,20.4482825],[85.7051967,20.4485932],[85.7064483,20.4488995],[85.7079707,20.4492889],[85.7084517,20.4494464],[85.7092876,20.4497659],[85.7093957,20.4498137],[85.7110669,20.4505535],[85.7122484,20.4510873],[85.7136121,20.4516955],[85.7152092,20.4523825],[85.7162179,20.4527807],[85.7168717,20.4530388],[85.7174274,20.4532182],[85.7183614,20.4534677],[85.7192861,20.4536996],[85.7201547,20.453949],[85.7209113,20.4542203],[85.7218733,20.4546359],[85.7227232,20.4550516],[85.7233116,20.4553579],[85.7243344,20.4560011],[85.7251703,20.4566049],[85.7258428,20.4570993],[85.7264172,20.4574844],[85.7268468,20.4577119],[85.7272998,20.4578651],[85.7276828,20.4579482],[85.727977,20.4579788],[85.7283599,20.4579657],[85.7289296,20.4578826],[85.729407,20.4578074]]}},{"type":"Feature","properties":{"id":561494626,"highway":"residential"},"geometry":{"type":"LineString","coordinates":[[85.7977509,20.4836385],[85.7979167,20.4840168],[85.7980111,20.4843147],[85.7981186,20.4846583],[85.7982209,20.4850134],[85.7982591,20.4851459],[85.7984396,20.4857671],[85.7985523,20.4860698],[85.798679,20.4862901],[85.7987081,20.4863406],[85.798886,20.4865669],[85.7991167,20.4867008],[85.7989741,20.4869059],[85.7991457,20.4870748],[85.7993334,20.4872557],[85.7994997,20.4873914],[85.7996285,20.487517],[85.799886,20.4876728],[85.8001971,20.4874014],[85.8002901,20.4873018],[85.8003473,20.4872406],[85.8004567,20.4871671]]}},{"type":"Feature","properties":{"id":561749066,"highway":"residential"},"geometry":{"type":"LineString","coordinates":[[85.7877271,20.4485118],[85.7874405,20.4484569],[85.787065,20.4483463],[85.7867539,20.4483714],[85.7864745,20.4484762],[85.7865447,20.4486077],[85.7865983,20.4488489],[85.7866198,20.4490952],[85.786609,20.4492209],[85.7863676,20.4493466],[85.7863033,20.4495175],[85.7861853,20.4499849],[85.7862121,20.4502513],[85.7862067,20.4505277],[85.7861745,20.4509399],[85.7861745,20.4513772],[85.7862174,20.4517089],[85.7863623,20.4519401],[85.7863017,20.4520758],[85.7862657,20.4521563],[85.7861155,20.4522819]]}},{"type":"Feature","properties":{"id":563867165,"highway":"unclassified"},"geometry":{"type":"LineString","coordinates":[[85.7275633,20.4608509],[85.727457,20.4611995],[85.727296,20.4617423],[85.7272746,20.4625867],[85.7272826,20.462828],[85.7272799,20.4630994],[85.7272826,20.4632677],[85.7272826,20.4635467],[85.7273148,20.4636849],[85.7274489,20.4638331],[85.7276715,20.4639512],[85.7279237,20.4639864]]}},{"type":"Feature","properties":{"id":563867166,"highway":"unclassified"},"geometry":{"type":"LineString","coordinates":[[85.7279576,20.460929],[85.7282965,20.4613453],[85.7285915,20.4615212],[85.7288437,20.461677],[85.7289885,20.4620339],[85.7292192,20.4624108],[85.7298254,20.4629234],[85.730571,20.4632753],[85.7313328,20.463607],[85.7317673,20.4636974],[85.7325988,20.4639638],[85.7334249,20.4642754],[85.7338701,20.4644614],[85.7345997,20.4648383],[85.7350718,20.4652052],[85.7354151,20.4654866],[85.7358389,20.465939],[85.7360374,20.46614],[85.7362734,20.4662254],[85.7368894,20.4660787],[85.7369064,20.4660747],[85.736901,20.4664315],[85.7367937,20.4667682],[85.7371692,20.4668235],[85.7377593,20.4667682],[85.738229,20.4668043],[85.7384782,20.4668235],[85.7389304,20.4668585],[85.7391273,20.4668738],[85.7410424,20.4668637],[85.7426731,20.4666024],[85.7436817,20.4665923],[85.7446258,20.4670145],[85.744894,20.467698],[85.7447975,20.4682106],[85.7449691,20.4683765],[85.7453017,20.4683714],[85.745704,20.4683714],[85.7461225,20.4686931],[85.7467125,20.4691253],[85.7477425,20.469854],[85.748059,20.4701053],[85.7481985,20.4703616],[85.7484238,20.4704873],[85.7487993,20.4704923],[85.7490997,20.4704571],[85.7494967,20.4705727],[85.74984,20.4707838],[85.750119,20.471015],[85.7504623,20.4713115],[85.7509236,20.4716432],[85.7513581,20.4720452],[85.7520233,20.4727337],[85.752608,20.4732061],[85.753461,20.473975],[85.754094,20.4744726],[85.7547484,20.4750706],[85.7550864,20.4754877],[85.7551789,20.475612],[85.7554214,20.4758599],[85.7556068,20.4760254],[85.755693,20.4761061],[85.7560198,20.4764124],[85.7565187,20.47693],[85.7569479,20.4774828],[85.7570927,20.47791],[85.7571034,20.4781261],[85.7572268,20.4785633],[85.7572805,20.4788648],[85.7571946,20.479287],[85.757141,20.4796136],[85.7567869,20.4797191],[85.7566421,20.4800257],[85.7565455,20.4804478],[85.7565578,20.4805271],[85.7567065,20.4808297],[85.756921,20.4809704],[85.7574092,20.480885],[85.7578491,20.4808197],[85.758246,20.4808197],[85.7590078,20.4809252],[85.7597374,20.4811363],[85.7601933,20.481277],[85.7603328,20.4818901],[85.760424,20.4828248],[85.7606118,20.4835283],[85.7607941,20.484061],[85.7610248,20.48487],[85.761175,20.485267],[85.7613252,20.4858248],[85.7615291,20.4866339],[85.7617383,20.4873575],[85.7619582,20.4880208],[85.7624893,20.4891314],[85.7628434,20.4899906],[85.7630633,20.4907595],[85.763251,20.4914831],[85.7629024,20.4920308],[85.7624196,20.4929152],[85.7619797,20.4936538],[85.761749,20.4944779],[85.7617168,20.4955834],[85.7617705,20.4963974],[85.7619743,20.4969803],[85.7621674,20.4975531],[85.7619958,20.498342],[85.7620709,20.4986485],[85.7622043,20.4991575],[85.7622157,20.4992012],[85.7625215,20.5000002],[85.7629077,20.5007187],[85.7629345,20.5010704],[85.7626395,20.5014021],[85.7624005,20.5016591],[85.7622788,20.5018278],[85.7622742,20.5019157],[85.7623222,20.50199],[85.7623641,20.5020412],[85.7624972,20.5020911]]}},{"type":"Feature","properties":{"id":576316078,"highway":"primary"},"geometry":{"type":"LineString","coordinates":[[85.7784888,20.470953],[85.7806966,20.4791815]]}},{"type":"Feature","properties":{"id":576316079,"highway":"primary"},"geometry":{"type":"LineString","coordinates":[[85.7806966,20.4791815],[85.7809122,20.4799375],[85.7811289,20.4808627],[85.7812911,20.4817749],[85.7813486,20.4819954],[85.7814476,20.4822061],[85.783072,20.4829064],[85.7836868,20.4831173],[85.7849651,20.4834607],[85.7857176,20.4835964],[85.7881815,20.4838926],[85.7902569,20.4841401],[85.7929745,20.4844269],[85.7930908,20.4844389],[85.7945229,20.4845903],[85.7948769,20.4846004],[85.7953812,20.4845602],[85.7956923,20.4844898],[85.7967438,20.4842285],[85.7971515,20.4840376],[85.7977509,20.4836385],[85.7979668,20.4834948],[85.7983745,20.4832335],[85.7987822,20.4830325],[85.7994088,20.4827977],[85.7994993,20.4827638],[85.7996942,20.4826908],[85.8002199,20.4825601],[85.8024973,20.4822508],[85.8025792,20.4822397],[85.8049724,20.4819147],[85.8050886,20.4818989],[85.8085439,20.4814297],[85.8086246,20.4814187],[85.8100693,20.4812226],[85.8104287,20.4811723],[85.8107935,20.4810969],[85.8112624,20.4809941],[85.811595,20.4808936],[85.8119073,20.48079],[85.8122669,20.4806565],[85.8126673,20.4804334]]}},{"type":"Feature","properties":{"id":585311682,"highway":"unclassified"},"geometry":{"type":"LineString","coordinates":[[85.7073837,20.4556991],[85.707382,20.4559737],[85.7073927,20.4561471],[85.7072693,20.4564775],[85.707272,20.4567552],[85.7073404,20.4569739]]}},{"type":"Feature","properties":{"id":585312593,"highway":"unclassified"},"geometry":{"type":"LineString","coordinates":[[85.7440416,20.4335051],[85.7447398,20.4334599],[85.7450885,20.433465],[85.7451153,20.4331709]]}},{"type":"Feature","properties":{"id":585312606,"highway":"unclassified"},"geometry":{"type":"LineString","coordinates":[[85.747638,20.4373956],[85.7473093,20.4372099],[85.7467809,20.4368983],[85.7462043,20.4364961],[85.7455659,20.4360312],[85.7452038,20.4358552],[85.7445252,20.4358477],[85.7443669,20.4352042],[85.744257,20.4344955],[85.7440907,20.4338043],[85.7440416,20.4335051],[85.7439727,20.4330854],[85.7438493,20.4323967],[85.743683,20.4317382],[85.7434067,20.4312556],[85.7430983,20.4307655],[85.7427549,20.4303055],[85.7423848,20.4297777],[85.742012,20.4292373],[85.7416311,20.4286969],[85.7412261,20.4281439],[85.7407594,20.4275306]]}},{"type":"Feature","properties":{"id":593604495,"highway":"unclassified"},"geometry":{"type":"LineString","coordinates":[[85.7987349,20.4501065],[85.7984807,20.4501467],[85.798022,20.4502949],[85.7974526,20.4508803],[85.796551,20.4517324],[85.795776,20.4524438],[85.7946293,20.453296],[85.7930396,20.4545631],[85.7925967,20.4549706],[85.7926126,20.4551484],[85.7929605,20.4560821],[85.793356,20.4569565],[85.7934272,20.4572899],[85.7934667,20.4576011],[85.7938542,20.4578605],[85.7942259,20.4581272],[85.794531,20.4587774]]}},{"type":"Feature","properties":{"id":593610339,"highway":"unclassified"},"geometry":{"type":"LineString","coordinates":[[85.7421235,20.4916465],[85.7419784,20.4915936],[85.7418832,20.4915697],[85.7418135,20.4915697],[85.7416858,20.4916115],[85.7415894,20.4916859],[85.7415405,20.4917646],[85.741505,20.491836],[85.7414648,20.491924],[85.7413977,20.4920295],[85.7413503,20.4921047],[85.7412754,20.4922216],[85.7409915,20.4925511],[85.740715,20.4929032],[85.7404087,20.4931063],[85.7399852,20.493303],[85.7396203,20.4934126],[85.7394586,20.4935707],[85.7393863,20.4937931],[85.7393105,20.4940511],[85.7391969,20.4941382],[85.7389043,20.4941994],[85.7386048,20.494351],[85.738147,20.4948089],[85.7375962,20.495299],[85.7372072,20.4957633],[85.736918,20.4961341],[85.7369008,20.4963534],[85.7369903,20.4968403],[85.7372141,20.4977496],[85.737252,20.4980592],[85.7374447,20.4984945],[85.7376891,20.4990297],[85.7378545,20.4995285],[85.7378816,20.4996266],[85.7380354,20.5000381],[85.7382995,20.5007273],[85.7383824,20.5010472],[85.7384163,20.5012565],[85.7384473,20.501304],[85.7385197,20.5013392]]}},{"type":"Feature","properties":{"id":594026394,"highway":"residential"},"geometry":{"type":"LineString","coordinates":[[85.8107731,20.4525257],[85.8098253,20.4535258],[85.8087337,20.4547744],[85.807823,20.4557657],[85.8069369,20.4568015],[85.806102,20.4577421],[85.8065641,20.4583005],[85.8054524,20.4590032],[85.8046354,20.4596243],[85.8034435,20.4606345],[85.8025059,20.4614501],[85.8012068,20.4628806],[85.8005974,20.4635268],[85.8001153,20.4641103],[85.7992715,20.4650012],[85.7984411,20.4659109],[85.7978987,20.4664567],[85.7969746,20.4671218],[85.7956487,20.4678181],[85.7941955,20.4684267],[85.7933986,20.4688784],[85.7922736,20.4694305],[85.7910883,20.4699763],[85.7898561,20.4703653],[85.7886173,20.4706413],[85.7871641,20.4706915],[85.786682,20.4707386],[85.7862266,20.4706853],[85.7850526,20.4700452]]}},{"type":"Feature","properties":{"id":594035539,"highway":"unclassified"},"geometry":{"type":"LineString","coordinates":[[85.7513109,20.4800133],[85.7517865,20.4799893],[85.7527909,20.4798451],[85.7535564,20.4797546],[85.7537964,20.4797501],[85.7542333,20.4798491],[85.7550496,20.4802089],[85.7553761,20.4803528],[85.7559378,20.4804698],[85.7565578,20.4805271]]}},{"type":"Feature","properties":{"id":594035540,"highway":"unclassified"},"geometry":{"type":"LineString","coordinates":[[85.7472956,20.4844509],[85.7475302,20.4844312],[85.7479952,20.4846756],[85.7480462,20.4847818],[85.7486586,20.484904],[85.7491406,20.4851111],[85.7495942,20.4853236],[85.7500195,20.4855679],[85.7499741,20.4857963],[85.7501499,20.4860991],[85.750371,20.486285],[85.7509607,20.4864391],[85.751335,20.4864444],[85.7514994,20.4863594],[85.7516922,20.4863275],[85.7518113,20.4863647],[85.7519644,20.4863859],[85.7521288,20.4863912],[85.7522932,20.4863647],[85.752469,20.4863222],[85.7525881,20.4862903]]}},{"type":"Feature","properties":{"id":594036082,"highway":"unclassified"},"geometry":{"type":"LineString","coordinates":[[85.7444206,20.4858848],[85.744145,20.4856262],[85.7440154,20.4854013],[85.7436169,20.4851359],[85.7430551,20.4847941],[85.7426854,20.4846187],[85.7423782,20.4845243],[85.7422341,20.4844163],[85.7419316,20.4838766],[85.7416147,20.4833998],[85.7413555,20.4830985],[85.7411634,20.4829321],[85.7410338,20.4826217],[85.740933,20.4823833],[85.7405873,20.48201],[85.740424,20.4817402],[85.7402224,20.4812859],[85.7400111,20.4808406],[85.7397711,20.4804313],[85.7395262,20.4800355],[85.7391997,20.4795992],[85.7389068,20.4793653],[85.7384939,20.4792214],[85.7380474,20.4790325],[85.7379226,20.478929],[85.7378889,20.4787986],[85.7378313,20.4782858],[85.7377881,20.478016],[85.7376681,20.4777776],[85.7373368,20.478007],[85.7371207,20.4780924],[85.7367174,20.478043],[85.7363429,20.4780744]]}},{"type":"Feature","properties":{"id":594036083,"highway":"unclassified"},"geometry":{"type":"LineString","coordinates":[[85.7376681,20.4777776],[85.7374892,20.4775266],[85.7374609,20.476836],[85.7376763,20.4763845],[85.7379202,20.4760605],[85.7381583,20.4756461],[85.7385099,20.4753593],[85.7390315,20.4750724],[85.7394908,20.4748228],[85.7398424,20.4746315],[85.7401032,20.4743606],[85.7403754,20.47384],[85.7404207,20.4737232],[85.7404094,20.4734788],[85.7404037,20.4732079],[85.7405512,20.472937],[85.740846,20.472682],[85.7411069,20.4725439],[85.7415208,20.4723473],[85.7417136,20.4722358],[85.7420708,20.471917],[85.7422409,20.4716992],[85.7422919,20.4713752],[85.7423883,20.4712424],[85.7424904,20.4711733],[85.7427853,20.4711202],[85.7430007,20.4710671],[85.7432502,20.4709927],[85.7434147,20.4709768],[85.7437719,20.4711415],[85.7440327,20.4711149],[85.7445771,20.4707909],[85.7447585,20.4705624],[85.7448209,20.4703287],[85.7447812,20.469739],[85.7447245,20.4693565],[85.7445771,20.4689794],[85.7446168,20.4687138],[85.7447975,20.4682106]]}},{"type":"Feature","properties":{"id":594038945,"highway":"unclassified"},"geometry":{"type":"LineString","coordinates":[[85.7144915,20.4565189],[85.7146502,20.4569247],[85.714877,20.4573975],[85.7145538,20.4579235],[85.7144404,20.4586673],[85.7147636,20.458646],[85.7151492,20.4587151],[85.7156879,20.4587416],[85.7159601,20.4585876],[85.7163853,20.4583273],[85.716975,20.4583804],[85.7174457,20.4581573],[85.7180184,20.4579076],[85.7184436,20.4577376],[85.7189086,20.4576632],[85.7192715,20.4577322],[85.7194246,20.4577322],[85.7196571,20.4576897],[85.7197535,20.4576472],[85.7198952,20.4574666],[85.7200653,20.4574135],[85.7203262,20.4573816],[85.720838,20.4574218]]}},{"type":"Feature","properties":{"id":594042004,"highway":"unclassified"},"geometry":{"type":"LineString","coordinates":[[85.7025344,20.4518876],[85.7029928,20.4519247],[85.7034057,20.4520011],[85.7037754,20.4521001],[85.704049,20.4521001],[85.7045292,20.4520641],[85.7048077,20.4521406],[85.7053262,20.4523295],[85.7057775,20.452631],[85.7060224,20.4528289],[85.7065649,20.4529728],[85.7069778,20.4531213],[85.7075828,20.4534182],[85.7081974,20.4533237],[85.708908,20.4533147],[85.7091096,20.4531933],[85.7097962,20.4531348],[85.7099882,20.4530538],[85.7100026,20.4522306],[85.7097338,20.4517492],[85.7092873,20.4512724],[85.7092104,20.450845],[85.709196,20.4503906],[85.7093353,20.4500127],[85.7093957,20.4498137]]}},{"type":"Feature","properties":{"id":594042005,"highway":"unclassified"},"geometry":{"type":"LineString","coordinates":[[85.7075828,20.4534182],[85.7079759,20.4537866],[85.7082565,20.4542856],[85.7084963,20.4545751],[85.7086715,20.4547854]]}},{"type":"Feature","properties":{"id":594042007,"highway":"unclassified"},"geometry":{"type":"LineString","coordinates":[[85.7069778,20.4531213],[85.7065975,20.4531771],[85.7057923,20.4533631],[85.7055429,20.4533471],[85.7053274,20.4532462],[85.7050325,20.4530868],[85.704783,20.4530018],[85.7045619,20.4529221],[85.7043918,20.4529274],[85.7042784,20.4529699],[85.7040856,20.4532409],[85.7040743,20.453719],[85.704233,20.4537828],[85.7044201,20.4538253],[85.7046243,20.453974],[85.7046356,20.4541812],[85.7045165,20.4546488],[85.7044825,20.4553182],[85.7045109,20.4557219],[85.7044683,20.45588]]}},{"type":"Feature","properties":{"id":599287228,"highway":"unclassified"},"geometry":{"type":"LineString","coordinates":[[85.7389304,20.4668585],[85.739032,20.4678877],[85.7390642,20.4687119],[85.73915,20.4695864],[85.7388818,20.4699181],[85.7391179,20.4708227],[85.7392573,20.4715162],[85.7392788,20.471858]]}},{"type":"Feature","properties":{"id":599288587,"highway":"unclassified"},"geometry":{"type":"LineString","coordinates":[[85.738229,20.4668043],[85.7382267,20.4665985],[85.7382804,20.466371],[85.7384252,20.4660341],[85.738626,20.4657825],[85.7385023,20.4656491],[85.7382851,20.4655659],[85.738082,20.4655408],[85.7379489,20.4654828],[85.7377316,20.4654501],[85.7373132,20.4656939],[85.736994,20.4656662],[85.7369403,20.4658949],[85.7368894,20.4660787]]}},{"type":"Feature","properties":{"id":599295214,"highway":"unclassified"},"geometry":{"type":"LineString","coordinates":[[85.7845389,20.4699788],[85.7845974,20.4694758],[85.7845223,20.4690838],[85.7840717,20.4685913],[85.7833421,20.4678475],[85.7830417,20.4672544],[85.7826984,20.4667217],[85.7824516,20.4663297],[85.7830202,20.4659176],[85.7835996,20.4657869],[85.7838035,20.4654653],[85.7839778,20.4650079],[85.7843238,20.4648521],[85.7846215,20.4647415],[85.7847771,20.4646963],[85.7850292,20.4645782],[85.7850748,20.46444],[85.7854235,20.4643897],[85.7853833,20.4641259],[85.78524,20.46412]]}},{"type":"Feature","properties":{"id":749341554,"highway":"primary"},"geometry":{"type":"LineString","coordinates":[[85.735064,20.4535504],[85.7299286,20.4574569],[85.729407,20.4578074]]}},{"type":"Feature","properties":{"id":767840018,"highway":"unclassified"},"geometry":{"type":"LineString","coordinates":[[85.7973936,20.4483405],[85.7975719,20.4483416],[85.7976495,20.4483395],[85.7977778,20.4483346],[85.7979931,20.4483312],[85.7983275,20.4483692],[85.7984463,20.4483432],[85.7987221,20.44832],[85.7989794,20.4483105],[85.7991832,20.448286],[85.7995319,20.4482609],[85.799827,20.4482609],[85.7999399,20.4482583],[85.8002615,20.4482508],[85.801773,20.4482041],[85.8019452,20.4482428]]}},{"type":"Feature","properties":{"id":767840037,"highway":"residential"},"geometry":{"type":"LineString","coordinates":[[85.7999228,20.4478602],[85.7999045,20.4474346]]}},{"type":"Feature","properties":{"id":844553319,"highway":"unclassified"},"geometry":{"type":"LineString","coordinates":[[85.7909925,20.4169748],[85.791075,20.4175402],[85.7910791,20.4175672],[85.7911652,20.4181333],[85.791252,20.4187041],[85.7912692,20.4191835],[85.7912738,20.4193106],[85.7912215,20.4199695],[85.7912257,20.4201213],[85.7912431,20.4202227],[85.7912979,20.4203996],[85.7913255,20.4204888],[85.7913534,20.4205652],[85.7916004,20.4212398],[85.7916071,20.4213408],[85.7915929,20.4214421],[85.7915404,20.4215911],[85.7915261,20.4217186],[85.7915456,20.4218074],[85.7916482,20.4219516],[85.791663,20.4219925],[85.7916698,20.4220636],[85.7916645,20.4223697],[85.7916656,20.4226933],[85.7916838,20.4229305],[85.7917056,20.4236942],[85.79172,20.42377],[85.7917508,20.4238432],[85.7921716,20.4244385],[85.7924196,20.4248603],[85.7924657,20.4249957],[85.7925062,20.4251337],[85.7925482,20.4253261],[85.7925934,20.4254883],[85.7926275,20.4255729],[85.7926757,20.4256519],[85.7928632,20.4259176],[85.7929027,20.4260456],[85.7929135,20.4260991],[85.7929139,20.4262181],[85.7929122,20.4263801],[85.7929199,20.4264978],[85.7929309,20.4265513],[85.7930628,20.426895],[85.7930941,20.4270095],[85.7930939,20.4270721],[85.7930761,20.4271428],[85.7930203,20.4272676],[85.7928824,20.4275759],[85.7928066,20.4277666],[85.7927346,20.427948],[85.7926303,20.4281966],[85.7926085,20.4282486],[85.792621,20.4284838],[85.7926168,20.4285402],[85.7926015,20.4287468],[85.7924982,20.4290606],[85.7923229,20.4295597]]}},{"type":"Feature","properties":{"id":844553320,"highway":"residential"},"geometry":{"type":"LineString","coordinates":[[85.7959007,20.4183655],[85.7955545,20.4177568],[85.7952922,20.4172314],[85.7950549,20.4166885],[85.7949221,20.4164978],[85.7947011,20.416284],[85.7945501,20.4161773],[85.7943745,20.4160879],[85.7942947,20.4160722],[85.7936376,20.4160472],[85.7930248,20.4160561],[85.7926403,20.4159961],[85.792297,20.4158602],[85.7922091,20.4158412],[85.7921611,20.4158571],[85.7909925,20.4169748]]}},{"type":"Feature","properties":{"id":844553322,"highway":"unclassified"},"geometry":{"type":"LineString","coordinates":[[85.791625,20.3884705],[85.7915527,20.3885089],[85.7914666,20.3885788],[85.791431,20.3886448],[85.7914068,20.3887521],[85.7913638,20.3891482],[85.7913209,20.3895674],[85.7912117,20.3902478],[85.7911907,20.390472],[85.7911163,20.390851],[85.7910221,20.3912872],[85.7910149,20.3913613],[85.7909809,20.3914316],[85.7909112,20.3914928],[85.7908415,20.3915463],[85.790624,20.3916712],[85.7905837,20.3917131],[85.79058,20.3917549],[85.7906299,20.3921662],[85.7906994,20.3925738],[85.7907515,20.3927639],[85.7908209,20.3928571],[85.7909054,20.3929427],[85.7911585,20.3932035],[85.7912512,20.3933737],[85.7913882,20.3936289],[85.7914655,20.3938109],[85.79154,20.3940023],[85.7915959,20.3942102],[85.7916179,20.3943606],[85.7916355,20.3944806],[85.7916862,20.3949123],[85.7915968,20.3956647],[85.7915066,20.39609],[85.7913479,20.3966763],[85.7913261,20.3967457],[85.7911054,20.3974486],[85.7910882,20.3976377],[85.7911097,20.3979253],[85.7911561,20.3981581],[85.7912742,20.3984521],[85.7915963,20.3988171],[85.7919389,20.3992516],[85.7920488,20.3994296],[85.7922262,20.3997167],[85.7924857,20.400187],[85.7925996,20.4004498],[85.7926406,20.4005428],[85.7926725,20.4006152],[85.792762,20.4007572],[85.7927814,20.400792],[85.7929727,20.4011355],[85.7931262,20.4016897],[85.7931965,20.4019435],[85.7932544,20.4022031],[85.7932683,20.4022654],[85.7933151,20.4025573],[85.7934227,20.4032282],[85.7935306,20.4037906],[85.7935516,20.4038999],[85.7936627,20.4044792],[85.7936635,20.4047191],[85.7936467,20.4048545],[85.7936396,20.4049121],[85.7933005,20.4058361],[85.793058,20.4063661],[85.7929214,20.4067788],[85.7928537,20.4069834],[85.792837,20.4070338],[85.7927674,20.4074631],[85.7927478,20.4075405],[85.7927058,20.4077071],[85.7925595,20.408286],[85.7925369,20.4083754],[85.7925143,20.4084464],[85.7924113,20.4086791],[85.7920715,20.409391],[85.7917199,20.4099068],[85.7912665,20.4105381],[85.7910505,20.4108486],[85.7909276,20.4111218],[85.7907818,20.4115313],[85.7905566,20.4121696],[85.7904692,20.4124711],[85.7903084,20.413186],[85.7902907,20.4134259],[85.7903042,20.4135814],[85.7904391,20.4142317],[85.7904966,20.4145319],[85.7905984,20.4151687],[85.7907638,20.4158783],[85.7909925,20.4169748]]}},{"type":"Feature","properties":{"id":866167529,"highway":"unclassified"},"geometry":{"type":"LineString","coordinates":[[85.7606758,20.4161911],[85.7608264,20.4160729],[85.7609717,20.4159315],[85.7611198,20.4157542],[85.7613694,20.4154946],[85.7615324,20.4153547],[85.7616531,20.4152571],[85.7617147,20.4152216],[85.7617762,20.4151972],[85.7621172,20.4150929],[85.7623673,20.4150086],[85.7625675,20.4149366],[85.7626909,20.4148775],[85.7627787,20.4148158],[85.7629965,20.414649],[85.7631086,20.4145439],[85.763231,20.4143991],[85.7635346,20.4140713],[85.763928,20.4136048],[85.7640677,20.4134561],[85.7643372,20.4132279],[85.7646235,20.4129651],[85.7649421,20.4126949],[85.7652453,20.4124202],[85.7653243,20.4123605],[85.7653778,20.4123391],[85.7654338,20.4123319],[85.7654848,20.4123391],[85.7657396,20.4124322],[85.7660709,20.4125683],[85.7661422,20.4125802],[85.7662339,20.4125779],[85.7664556,20.4125611],[85.7665305,20.4125631],[85.7666065,20.4125898],[85.7666445,20.4126183],[85.7667433,20.4127001],[85.7667831,20.4127268],[85.7668268,20.4127357],[85.7669237,20.4127322],[85.7670376,20.4127162],[85.7672769,20.4126556],[85.7676055,20.412556],[85.7680309,20.4124242],[85.76822,20.4123561],[85.7683017,20.4123347],[85.7684403,20.4123009],[85.7684973,20.4122831],[85.7685562,20.4122528],[85.7686739,20.4121852],[85.7688471,20.4120397],[85.7689345,20.4119881],[85.7690295,20.4119543],[85.769113,20.4119347],[85.7692061,20.4119187],[85.7695119,20.4118867],[85.7699741,20.4118415],[85.7700759,20.4118238],[85.7701517,20.4117972],[85.7702062,20.4117594],[85.770353,20.4116432],[85.7704146,20.41157],[85.7704998,20.4114546],[85.7705708,20.4113792],[85.7706442,20.4113304],[85.7711309,20.4110829],[85.7712932,20.4109668],[85.7713434,20.4109142],[85.7713788,20.4108561],[85.7714496,20.4107621],[85.7715175,20.4107012],[85.7717389,20.4105684],[85.7721184,20.4104075],[85.7723947,20.4103152],[85.772633,20.4102556],[85.7727718,20.4102148],[85.7728663,20.410165],[85.7729046,20.4101152],[85.7729164,20.4100764],[85.7729076,20.4100267],[85.7728191,20.4097141],[85.772683,20.4092723],[85.7726759,20.4092301],[85.7726806,20.4092035],[85.7726995,20.4091769],[85.772735,20.4091591],[85.7730215,20.4090926],[85.7730712,20.4090726],[85.7732725,20.4089927],[85.7733459,20.4089683],[85.7735021,20.4089328],[85.7738356,20.408863],[85.7740292,20.4088052],[85.774104,20.4087991],[85.7741788,20.4088032],[85.7745549,20.4088671],[85.7746429,20.408898],[85.7747991,20.4089496],[85.7749333,20.4089867],[85.7749685,20.4090073],[85.7750873,20.409096],[85.7751849,20.4091749],[85.7752399,20.4091955],[85.7753983,20.4092388],[85.7756271,20.4092841],[85.7756711,20.4093027],[85.7757041,20.4093316],[85.7757305,20.4093707],[85.7759901,20.409781],[85.7760165,20.409814],[85.776053,20.4098448],[85.7763039,20.4099609],[85.7763707,20.4100204],[85.7764405,20.4101186],[85.7766978,20.4105295],[85.7767455,20.4106605],[85.7768202,20.4109253],[85.7769409,20.4113854],[85.7770863,20.4119265],[85.7770922,20.412015],[85.7770922,20.4122086],[85.777104,20.412322],[85.7771246,20.4123912],[85.7772191,20.4127204],[85.7775218,20.4137233],[85.7776998,20.4142268],[85.7777918,20.4144854],[85.7780015,20.4150199],[85.7780257,20.4150814],[85.7782186,20.4155726],[85.7783519,20.4158193],[85.7785262,20.4160853],[85.7786114,20.4161812],[85.7786941,20.4162393],[85.7787619,20.4162531],[85.7788357,20.4162503],[85.7789597,20.4162254],[85.7792873,20.4161452],[85.7793404,20.4161507],[85.7793847,20.4161729],[85.7794113,20.4162144],[85.7794231,20.4162697],[85.7794821,20.4167316],[85.7795727,20.4177551],[85.7795831,20.4178796],[85.7796053,20.4181464],[85.7796347,20.4184992],[85.7796381,20.4186005],[85.7796524,20.4190216],[85.7796406,20.4192152],[85.7796022,20.4195001],[85.7795107,20.4200533],[85.7795083,20.420068],[85.7794319,20.4205444],[85.7793374,20.4211087],[85.7792636,20.4214655],[85.7791546,20.4218219],[85.7789716,20.4223059],[85.7789096,20.4225189],[85.7789022,20.4226652],[85.7789187,20.4228143],[85.7789516,20.4229402],[85.7790969,20.4232486],[85.7793581,20.4237725],[85.7793719,20.4237851],[85.7793909,20.4238025],[85.7794293,20.4238135],[85.7794824,20.423808],[85.7795562,20.4238135],[85.7795975,20.4238301],[85.779627,20.4238605],[85.7801199,20.4245769],[85.7808031,20.4257342],[85.7813898,20.4267082],[85.7817,20.4272608],[85.7818837,20.4276246],[85.7819013,20.4276595],[85.782117,20.4281507],[85.782171,20.4283233],[85.7822948,20.4287877],[85.7823855,20.429019],[85.7825032,20.4293155],[85.782632,20.4295465],[85.7828307,20.4298568],[85.7832841,20.4304754],[85.7837388,20.4311385],[85.7840216,20.4316014],[85.7841613,20.4318485],[85.7842662,20.4321134],[85.7845615,20.4331227],[85.7847565,20.433733],[85.7847687,20.4338377],[85.7847523,20.4339122],[85.7847057,20.4339996],[85.784607,20.4341024],[85.7844369,20.434218],[85.7842888,20.4343054],[85.7841819,20.4343465],[85.7840502,20.4343722],[85.783861,20.4344005],[85.7827562,20.4345622],[85.7819253,20.4346804],[85.7811248,20.434767],[85.7808673,20.4347808],[85.7803816,20.4347877],[85.7803462,20.4347902],[85.7796455,20.4348403],[85.7790164,20.4348852],[85.7784749,20.4349443],[85.7783657,20.4349858],[85.7783096,20.4350245],[85.7782801,20.4350798],[85.7782388,20.4352237],[85.7782034,20.4354394],[85.7781857,20.4355362],[85.778162,20.4356109],[85.7780912,20.4357104],[85.777997,20.4358378],[85.7779449,20.4359303],[85.7779175,20.4360151],[85.777912,20.4360896],[85.7779147,20.4365445],[85.7778963,20.4374298],[85.7778845,20.4376013],[85.7778609,20.4377451],[85.7778137,20.4379497],[85.7776897,20.438359],[85.7775775,20.4387413],[85.7775037,20.4388796],[85.7773526,20.4390963],[85.7773089,20.439159],[85.7767886,20.4399137]]}},{"type":"Feature","properties":{"id":866167980,"highway":"residential"},"geometry":{"type":"LineString","coordinates":[[85.7772165,20.4186964],[85.7773134,20.4184205],[85.7773438,20.4183546],[85.7773779,20.4183155],[85.7774292,20.4182763],[85.7775033,20.4182461],[85.7775831,20.4182229],[85.7776704,20.4182016],[85.7777863,20.4181909],[85.7782668,20.418182],[85.7785023,20.4181589],[85.7785707,20.4181463],[85.7785897,20.4181428],[85.7786865,20.4181197],[85.7795831,20.4178796]]}},{"type":"Feature","properties":{"id":866167981,"highway":"residential"},"geometry":{"type":"LineString","coordinates":[[85.7798427,20.4154143],[85.7798394,20.415571],[85.7798296,20.415591],[85.7798099,20.4156125],[85.7798,20.4156387],[85.7797886,20.415714],[85.7797738,20.4157324],[85.779759,20.415737],[85.779735,20.4157389],[85.7788519,20.4157567],[85.7788306,20.4157744],[85.7788259,20.4158099],[85.7788357,20.4162503]]}},{"type":"Feature","properties":{"id":866171360,"highway":"residential"},"geometry":{"type":"LineString","coordinates":[[85.7776477,20.4330185],[85.777662,20.4329365]]}},{"type":"Feature","properties":{"id":866171365,"highway":"residential"},"geometry":{"type":"LineString","coordinates":[[85.7784846,20.4202104],[85.7786584,20.4199882],[85.7787136,20.419948],[85.7787585,20.4199269],[85.7788505,20.4199058],[85.779104,20.4199135],[85.7791571,20.4199288],[85.7792982,20.4200322],[85.7793247,20.4200456],[85.7793574,20.4200514],[85.7795083,20.420068]]}},{"type":"Feature","properties":{"id":868960193,"highway":"residential"},"geometry":{"type":"LineString","coordinates":[[85.7959007,20.4183655],[85.7962375,20.4189863],[85.7964359,20.4193963],[85.7964483,20.4194264],[85.7964598,20.4194546],[85.7964885,20.4195442],[85.7965196,20.4196786],[85.7965994,20.4203013],[85.7966621,20.4205761],[85.7966687,20.4206319],[85.7966622,20.4206508],[85.7966501,20.4206658],[85.7966338,20.4206774],[85.7965701,20.4207072],[85.7964022,20.4207859],[85.7956619,20.420976],[85.7954107,20.421033],[85.7953788,20.4210402],[85.795248,20.4210577],[85.7950659,20.4210821],[85.7945235,20.4211575]]}},{"type":"Feature","properties":{"id":868960194,"highway":"residential"},"geometry":{"type":"LineString","coordinates":[[85.7965701,20.4207072],[85.7968183,20.4215263],[85.7969568,20.4219872],[85.7970573,20.4223216],[85.7971098,20.4225204],[85.7972253,20.4229579],[85.797267,20.4230724],[85.7973058,20.4231366],[85.7973415,20.4231757],[85.7973952,20.4232148],[85.7974727,20.4232539],[85.7977171,20.4233601],[85.7980201,20.423464],[85.7981411,20.4234978],[85.7982363,20.4235315],[85.7982903,20.4235581],[85.7983315,20.4235942],[85.7984524,20.4237992],[85.7986856,20.424307],[85.7987012,20.4243219],[85.7987241,20.4243285],[85.7989271,20.4243401],[85.7989818,20.4243368],[85.7990188,20.4243302],[85.7990683,20.4243103],[85.7990947,20.4243054],[85.7992535,20.4242905],[85.7995306,20.4242524],[85.7995588,20.4242524],[85.7995871,20.4242574],[85.7998994,20.4243434],[85.7999383,20.4243451],[85.8002012,20.4243533],[85.8004965,20.4243762],[85.8006949,20.4243809],[85.8007244,20.4243816],[85.8009124,20.4244029],[85.8009618,20.4244207],[85.8010777,20.4244741],[85.8011099,20.4244795],[85.8011346,20.4244759],[85.8013678,20.4243963]]}},{"type":"Feature","properties":{"id":868960195,"highway":"residential"},"geometry":{"type":"LineString","coordinates":[[85.7964483,20.4194264],[85.796606,20.4195097],[85.7966567,20.4195328],[85.7966906,20.4195414],[85.7967214,20.4195443],[85.7968429,20.4195515],[85.7968814,20.4195616],[85.796906,20.4195703],[85.7970752,20.4196481],[85.7971013,20.4196553],[85.7971367,20.4196582],[85.7974644,20.4196697],[85.7977775,20.4196689],[85.7978188,20.419667],[85.7978622,20.4196535],[85.7980397,20.4195935],[85.7980913,20.4195858],[85.7982894,20.4195567],[85.7983286,20.4195451],[85.7984009,20.4195103],[85.7984357,20.4195002],[85.7984666,20.4194925],[85.7987184,20.4194693],[85.7987515,20.4194596],[85.7987989,20.4194441],[85.7988361,20.4194402],[85.7989723,20.4194635],[85.7990693,20.4194983],[85.7991065,20.4195021],[85.7992012,20.4194954],[85.7995254,20.4195364],[85.7996,20.4195364],[85.799829,20.4195147],[85.8001301,20.4195171],[85.8002201,20.4195291],[85.8006292,20.4196497],[85.8006832,20.4196521],[85.8007553,20.4196449],[85.8008016,20.4196328],[85.8008865,20.4195942],[85.8009225,20.419587],[85.8009688,20.4195822],[85.8012338,20.4195532],[85.8013007,20.4195581],[85.8013651,20.4195749],[85.8016507,20.4196593],[85.8017126,20.4196825],[85.8017672,20.4197118],[85.8018316,20.4197553],[85.8019859,20.4198927],[85.8020006,20.4199031],[85.8020237,20.4199141],[85.8020529,20.419921],[85.8020913,20.4199259]]}},{"type":"Feature","properties":{"id":868960201,"highway":"residential"},"geometry":{"type":"LineString","coordinates":[[85.7926168,20.4285402],[85.7923083,20.4286238],[85.7922639,20.4286363],[85.7922083,20.4286467],[85.7919508,20.428641],[85.7919218,20.4286405],[85.7918885,20.428655],[85.7918663,20.42868],[85.7918596,20.428705],[85.7918751,20.4287445],[85.7919284,20.4288507],[85.7919551,20.4289236],[85.7919751,20.4290755],[85.7919693,20.429176],[85.7919363,20.4293095],[85.7919074,20.4293578],[85.7918682,20.4293907],[85.7917712,20.4294526],[85.7916391,20.429528],[85.7914843,20.4295938],[85.7914492,20.4296112],[85.7914389,20.4296267],[85.7914368,20.4296441],[85.7914471,20.429675],[85.7916488,20.430028]]}},{"type":"Feature","properties":{"id":869047693,"highway":"residential"},"geometry":{"type":"LineString","coordinates":[[85.7928066,20.4277666],[85.7934465,20.427875],[85.7935675,20.4279121],[85.7936123,20.4279298],[85.7936867,20.4279581],[85.7937992,20.4280078],[85.7938591,20.4280421],[85.7938781,20.428062],[85.7938767,20.4280736],[85.793862,20.4280883],[85.7937653,20.4281698],[85.7937089,20.428207],[85.7936632,20.4282341]]}},{"type":"Feature","properties":{"id":869058828,"highway":"residential"},"geometry":{"type":"LineString","coordinates":[[85.7920442,20.4034975],[85.7921054,20.4033685],[85.7921589,20.4032539],[85.7921869,20.4032133],[85.7922073,20.4031846],[85.7922404,20.4031632],[85.7924086,20.4031082],[85.7924519,20.4030867],[85.7924799,20.4030605],[85.7924876,20.4030199],[85.792485,20.4028742],[85.7924952,20.4028455],[85.7925156,20.4028192],[85.7925717,20.4027858],[85.7927755,20.4026736],[85.7928698,20.4026353],[85.7929564,20.4026186],[85.7933151,20.4025573]]}},{"type":"Feature","properties":{"id":869058829,"highway":"residential"},"geometry":{"type":"LineString","coordinates":[[85.7936467,20.4048545],[85.7934339,20.4049083],[85.7933861,20.4049141],[85.7933334,20.4049059],[85.793281,20.4048908],[85.7932489,20.4048908],[85.7932033,20.4049008],[85.7931697,20.4049084],[85.7931416,20.4048983],[85.7930665,20.4048367],[85.7930477,20.4048191],[85.7930396,20.404794],[85.7930289,20.40475],[85.7930165,20.4047137],[85.7929175,20.4044621],[85.7928891,20.4043622],[85.7928796,20.4042912],[85.7928796,20.4041403],[85.7928843,20.4041115],[85.7929009,20.4040937],[85.7929459,20.4040804],[85.7935516,20.4038999]]}},{"type":"Feature","properties":{"id":869102264,"highway":"residential"},"geometry":{"type":"LineString","coordinates":[[85.7916656,20.4226933],[85.7933124,20.4226535],[85.7944162,20.4226452],[85.7959907,20.4226449],[85.7965944,20.422638],[85.7966325,20.4226469],[85.7966611,20.4226737],[85.7966674,20.4227124],[85.7966769,20.423668],[85.7966817,20.4260368],[85.7967228,20.4279813],[85.7967259,20.4289568]]}},{"type":"Feature","properties":{"id":870004325,"highway":"residential"},"geometry":{"type":"LineString","coordinates":[[85.7935217,20.404543],[85.7933322,20.4045777],[85.7932721,20.4045993],[85.7930289,20.40475]]}},{"type":"Feature","properties":{"id":1131087240,"highway":"unclassified"},"geometry":{"type":"LineString","coordinates":[[85.7423231,20.4917154],[85.7421235,20.4916465]]}},{"type":"Feature","properties":{"id":1131087241,"highway":"unclassified"},"geometry":{"type":"LineString","coordinates":[[85.755693,20.4761061],[85.7553824,20.4762396],[85.7547583,20.476424],[85.7540669,20.4769818],[85.7535531,20.4773686],[85.7529578,20.4778229],[85.7524536,20.4781872],[85.7519015,20.4790733],[85.7513109,20.4800133],[85.7510949,20.4802067],[85.750874,20.4805666],[85.7507876,20.4808679],[85.7508452,20.4817045],[85.750826,20.4818889],[85.750754,20.4820958],[85.7505091,20.4822847],[85.7500002,20.4823747],[85.7492032,20.4825591],[85.7482957,20.4827525],[85.7471035,20.4828992],[85.7470267,20.4831286],[85.7468875,20.4837133],[85.7469643,20.4837988],[85.7472044,20.4839292],[85.7472908,20.4841406],[85.7472956,20.4844509],[85.7471516,20.4850131],[85.7468203,20.4857777],[85.7463689,20.4858452],[85.7461481,20.4858902],[85.7458696,20.4860251],[85.7455047,20.4862275],[85.745207,20.4867088],[85.7451999,20.4867239],[85.7451398,20.4868527],[85.7449478,20.4874059],[85.7448565,20.488058],[85.7448037,20.4882469],[85.7447173,20.4884178],[85.7445781,20.4885753],[85.7444004,20.4886697],[85.744266,20.4887417],[85.7441267,20.4889306],[85.7439011,20.4893353],[85.7435698,20.4899155],[85.7430849,20.4904417],[85.7429875,20.4906541],[85.742594,20.4916074],[85.7425377,20.4916828],[85.7424867,20.4917192],[85.7424197,20.4917255],[85.7423231,20.4917154]]}},{"type":"Feature","properties":{"id":1131087242,"highway":"unclassified"},"geometry":{"type":"LineString","coordinates":[[85.7446137,20.4859668],[85.7444206,20.4858848]]}},{"type":"Feature","properties":{"id":1131087243,"highway":"unclassified"},"geometry":{"type":"LineString","coordinates":[[85.7451999,20.4867239],[85.7450141,20.4866022],[85.7447317,20.486052],[85.7446834,20.4860045],[85.7446137,20.4859668]]}},{"type":"Feature","properties":{"id":1210255898,"highway":"secondary"},"geometry":{"type":"LineString","coordinates":[[85.747638,20.4373956],[85.7473183,20.4374172],[85.746918,20.437471],[85.74655,20.4375874],[85.745952,20.4379129],[85.7455563,20.4382513],[85.745232,20.4386371],[85.7449767,20.4390833],[85.7447581,20.4395402],[85.7444062,20.4404563],[85.7443717,20.4406632],[85.7444039,20.4408292],[85.7445787,20.4411374],[85.7450848,20.442062],[85.7451952,20.4423314],[85.745255,20.4426828],[85.7452619,20.4430966],[85.7452032,20.4438824],[85.74514,20.4443005],[85.745048,20.4446303],[85.745025,20.4448728],[85.745029,20.4450394]]}},{"type":"Feature","properties":{"id":1210255899,"highway":"primary"},"geometry":{"type":"LineString","coordinates":[[85.7729727,20.4686128],[85.7732504,20.4689407],[85.7735006,20.4691792],[85.7741161,20.4696128]]}},{"type":"Feature","properties":{"id":1210270826,"highway":"tertiary"},"geometry":{"type":"LineString","coordinates":[[85.7819321,20.4595611],[85.7801317,20.4604118],[85.7798906,20.4605966],[85.7790702,20.4615559],[85.7759041,20.465186],[85.7744309,20.4669809],[85.7737077,20.4678743],[85.7731453,20.4684676],[85.7729727,20.4686128]]}},{"type":"Feature","properties":{"id":1210270827,"highway":"primary"},"geometry":{"type":"LineString","coordinates":[[85.7901094,20.4503179],[85.79016,20.4503806],[85.790542,20.4508535],[85.790885,20.4510646],[85.7912348,20.4511617],[85.7915558,20.4512139],[85.7919028,20.4512139],[85.7922264,20.4511524],[85.7945005,20.4505988],[85.7951664,20.4504033],[85.795793,20.4501719],[85.7964147,20.4498954],[85.7966899,20.4497556],[85.796942,20.4495656],[85.7971319,20.4494623],[85.7973089,20.4494184],[85.7976564,20.4494332],[85.798597,20.449484],[85.7987946,20.4495284],[85.7990163,20.4496415]]}},{"type":"Feature","properties":{"id":1216407671,"highway":"residential"},"geometry":{"type":"LineString","coordinates":[[85.7820224,20.4500388],[85.7820814,20.4499684],[85.7821995,20.4498729],[85.7822424,20.4498076],[85.7821673,20.4496618],[85.7821297,20.4494909],[85.7821297,20.4493703],[85.7821726,20.4491743],[85.7822531,20.4489883],[85.7827681,20.4478272],[85.7830578,20.446899]]}},{"type":"Feature","properties":{"id":1216407672,"highway":"residential"},"geometry":{"type":"LineString","coordinates":[[85.7869953,20.4377701],[85.7867539,20.4381521],[85.7866574,20.4382476],[85.7865447,20.438504],[85.7863409,20.438881],[85.7859117,20.4396098],[85.785681,20.4400522],[85.7855255,20.4402432],[85.785268,20.4404041],[85.7849461,20.4404594],[85.7848442,20.4406303],[85.7848335,20.4410023],[85.7848925,20.4411681],[85.7849622,20.4419724],[85.7848603,20.4422539],[85.784753,20.4423947],[85.7846296,20.4425052],[85.7845223,20.442656],[85.7845331,20.4428018],[85.7846082,20.4429124],[85.7849783,20.4432341],[85.7853914,20.4437217],[85.7856167,20.4440384],[85.7858634,20.4445411],[85.7857132,20.445436],[85.7856381,20.4459435],[85.7856381,20.4461848],[85.7857508,20.4466322],[85.7859171,20.4470394],[85.7859385,20.4473612],[85.7859707,20.4476024],[85.7862282,20.448286],[85.7862765,20.4483815],[85.7863822,20.4484832],[85.7864745,20.4484762]]}},{"type":"Feature","properties":{"id":1216407673,"highway":"residential"},"geometry":{"type":"LineString","coordinates":[[85.7857132,20.445436],[85.7863569,20.4453254],[85.7866359,20.4453706],[85.7867217,20.4454913],[85.7870221,20.4460844],[85.7875478,20.4465067]]}},{"type":"Feature","properties":{"id":1216407674,"highway":"residential"},"geometry":{"type":"LineString","coordinates":[[85.7906592,20.4489794],[85.7905197,20.4490699],[85.7901496,20.4491805],[85.7896614,20.449271],[85.7894031,20.4493866],[85.7887334,20.4500451],[85.7885081,20.4502612],[85.7884544,20.4503517],[85.7883793,20.4505528],[85.7882828,20.4506734],[85.7870221,20.4516184],[85.7863017,20.4520758]]}},{"type":"Feature","properties":{"id":1216407675,"highway":"residential"},"geometry":{"type":"LineString","coordinates":[[85.783208,20.4505829],[85.7827628,20.4509599],[85.7823873,20.4512263],[85.7823122,20.4516084],[85.7822478,20.4517039],[85.7812446,20.4520959]]}},{"type":"Feature","properties":{"id":1216407676,"highway":"residential"},"geometry":{"type":"LineString","coordinates":[[85.783208,20.4505829],[85.7836962,20.4508594],[85.7839322,20.4508141],[85.7840985,20.4506885]]}},{"type":"Feature","properties":{"id":1216407677,"highway":"residential"},"geometry":{"type":"LineString","coordinates":[[85.783208,20.4505829],[85.783149,20.4503668],[85.783149,20.4501557],[85.7830739,20.4500652]]}},{"type":"Feature","properties":{"id":1216407678,"highway":"residential"},"geometry":{"type":"LineString","coordinates":[[85.7812446,20.4520959],[85.7807725,20.4522618],[85.7803863,20.4522568],[85.7802522,20.4522718],[85.7801288,20.4523121],[85.7799035,20.4524377],[85.7798069,20.4524679],[85.7791256,20.4525383],[85.778734,20.4526438],[85.7782781,20.4526489],[85.7781493,20.4526288],[85.7779669,20.4525483],[85.7778167,20.4523523],[85.7775002,20.4518295],[85.7773983,20.4516032],[85.77735,20.4513569],[85.7773607,20.4511307],[85.7774198,20.4507386],[85.7773715,20.4502761],[85.7773715,20.4501303],[85.7774627,20.4497332],[85.7774895,20.4495321],[85.7774895,20.4494115],[85.7774305,20.4490193],[85.7774144,20.4487982],[85.7774144,20.4482703],[85.7774949,20.4478983],[85.7775002,20.4478028],[85.7774519,20.4475514],[85.7773393,20.4471593],[85.7772803,20.4468225],[85.7770925,20.44635],[85.7769584,20.4459528],[85.7769638,20.4457317],[85.7771515,20.4449675],[85.7775592,20.443932],[85.7776558,20.4438113],[85.7779723,20.44356],[85.7784712,20.4432583],[85.7796299,20.4422944]]}},{"type":"Feature","properties":{"id":1216407679,"highway":"residential"},"geometry":{"type":"LineString","coordinates":[[85.7819497,20.4455754],[85.7816255,20.4457613],[85.7814109,20.4459272],[85.7812982,20.4460378]]}},{"type":"Feature","properties":{"id":1217044363,"highway":"residential"},"geometry":{"type":"LineString","coordinates":[[85.7766872,20.4402636],[85.7767611,20.4403156]]}},{"type":"Feature","properties":{"id":1218433202,"highway":"residential"},"geometry":{"type":"LineString","coordinates":[[85.7706982,20.4352854],[85.7698882,20.4357043],[85.7697326,20.4357495],[85.7696575,20.4357546],[85.769561,20.4357294],[85.7691211,20.4356792]]}},{"type":"Feature","properties":{"id":1218433203,"highway":"residential"},"geometry":{"type":"LineString","coordinates":[[85.7747323,20.4388192],[85.7745338,20.4392729],[85.7744372,20.4394186]]}},{"type":"Feature","properties":{"id":1218433204,"highway":"residential"},"geometry":{"type":"LineString","coordinates":[[85.7757569,20.4380617],[85.7757783,20.4382125],[85.7757622,20.439337]]}},{"type":"Feature","properties":{"id":1218440875,"highway":"residential"},"geometry":{"type":"LineString","coordinates":[[85.8001202,20.4466263],[85.7999224,20.4467286]]}},{"type":"Feature","properties":{"id":1218440876,"highway":"residential"},"geometry":{"type":"LineString","coordinates":[[85.799934,20.4481205],[85.7999228,20.4478602]]}},{"type":"Feature","properties":{"id":1218440877,"highway":"residential"},"geometry":{"type":"LineString","coordinates":[[85.7999399,20.4482583],[85.799934,20.4481205]]}},{"type":"Feature","properties":{"id":1218441846,"highway":"unclassified"},"geometry":{"type":"LineString","coordinates":[[85.7973936,20.4483405],[85.7964419,20.4483687],[85.7958577,20.4483963],[85.7952441,20.4484101],[85.7943285,20.4485158],[85.7939261,20.4485812],[85.7935345,20.4486767],[85.7931537,20.448737],[85.7927513,20.4488677],[85.7924563,20.4489883],[85.7913351,20.4495613],[85.790804,20.449888],[85.79016,20.4503806],[85.7896507,20.4506822],[85.7874781,20.452165],[85.7852894,20.4537282],[85.7830417,20.455015],[85.7817328,20.4553819],[85.7812446,20.4555738]]}},{"type":"Feature","properties":{"id":1218441847,"highway":"unclassified"},"geometry":{"type":"LineString","coordinates":[[85.7812446,20.4555738],[85.7801556,20.4557849],[85.7797694,20.4559407],[85.7786965,20.4560513],[85.7778597,20.4560413],[85.7770496,20.4559709],[85.7769586,20.4559586],[85.7765132,20.4558955],[85.7761001,20.4558251],[85.7743621,20.4554129],[85.7732355,20.4551817],[85.772329,20.4549655],[85.7721627,20.4549404],[85.7708537,20.4545734],[85.7695877,20.4543271],[85.7692444,20.4542366],[85.768708,20.4540557],[85.7684772,20.4539584],[85.7683252,20.4539127],[85.7680321,20.4538596],[85.767442,20.453754],[85.764969,20.4531156],[85.7636654,20.4528492],[85.7629466,20.4527688],[85.7627292,20.452706],[85.7623243,20.4526733],[85.7616431,20.4525777],[85.7616001,20.4525828],[85.7595402,20.4522661],[85.7585049,20.4520198],[85.7576037,20.4516025],[85.7564449,20.4508234],[85.7551038,20.4495415],[85.7549858,20.449441],[85.7538432,20.4482697],[85.7538164,20.4482244],[85.7536286,20.4480435],[85.7530117,20.4473548],[85.7527864,20.4471386],[85.7525665,20.4469677],[85.7523358,20.446827],[85.7519657,20.4466812],[85.7517189,20.4465706],[85.7516116,20.4464952],[85.7510537,20.446264],[85.7509625,20.4462539],[85.7509303,20.446274],[85.7508928,20.4463343],[85.7507909,20.4466611],[85.7506568,20.4472543],[85.7506138,20.4473498],[85.7502759,20.4478726],[85.7493049,20.448697],[85.748954,20.4491896]]}},{"type":"Feature","properties":{"id":1218441848,"highway":"residential"},"geometry":{"type":"LineString","coordinates":[[85.7546992,20.4515677],[85.7548602,20.4515643],[85.7549797,20.4515454],[85.7555554,20.4513071],[85.756129,20.4510497],[85.7563202,20.4509365],[85.7564449,20.4508234]]}},{"type":"Feature","properties":{"id":1218441849,"highway":"residential"},"geometry":{"type":"LineString","coordinates":[[85.7533443,20.4514956],[85.7535374,20.4514512],[85.7540781,20.4514517],[85.7545889,20.4515316],[85.7546992,20.4515677]]}},{"type":"Feature","properties":{"id":1218441850,"highway":"residential"},"geometry":{"type":"LineString","coordinates":[[85.7546992,20.4515677],[85.7545728,20.4517327],[85.7542308,20.4520752]]}},{"type":"Feature","properties":{"id":1218441851,"highway":"residential"},"geometry":{"type":"LineString","coordinates":[[85.7533073,20.452581],[85.7529988,20.4528206],[85.7526427,20.4530658]]}},{"type":"Feature","properties":{"id":1218441852,"highway":"residential"},"geometry":{"type":"LineString","coordinates":[[85.7538848,20.4518102],[85.753358,20.4521203],[85.753352,20.4521982],[85.753355,20.4523096],[85.7533073,20.452581],[85.7536715,20.4528988],[85.753811,20.4530446],[85.7538968,20.4532004]]}},{"type":"Feature","properties":{"id":1218441853,"highway":"residential"},"geometry":{"type":"LineString","coordinates":[[85.7556885,20.4547486],[85.7557368,20.4547134],[85.7560051,20.4544319],[85.7562035,20.4542158]]}},{"type":"Feature","properties":{"id":1258102949,"highway":"residential"},"geometry":{"type":"LineString","coordinates":[[85.7814271,20.4822605],[85.7806319,20.4815588],[85.7800969,20.4810737],[85.7795848,20.480817],[85.7790564,20.4806791],[85.7784276,20.4806152],[85.7772474,20.4804954],[85.7772242,20.4803367]]}},{"type":"Feature","properties":{"id":1258103601,"highway":"residential"},"geometry":{"type":"LineString","coordinates":[[85.7775107,20.4814653],[85.7777148,20.481186],[85.7777738,20.4811724],[85.7781179,20.481277],[85.7781537,20.481239],[85.7783001,20.4809055],[85.7784276,20.4806152]]}},{"type":"Feature","properties":{"id":1258103602,"highway":"residential"},"geometry":{"type":"LineString","coordinates":[[85.7770266,20.4805006],[85.7772474,20.4804954]]}},{"type":"Feature","properties":{"id":1258103603,"highway":"residential"},"geometry":{"type":"LineString","coordinates":[[85.7772474,20.4804954],[85.7772718,20.4806203],[85.7773727,20.4806661],[85.7783001,20.4809055]]}},{"type":"Feature","properties":{"id":1258107391,"highway":"residential"},"geometry":{"type":"LineString","coordinates":[[85.7848577,20.4848126],[85.7850566,20.4848957],[85.7861584,20.4853562],[85.7861477,20.4854165],[85.7860143,20.4857132],[85.7859331,20.4858939],[85.7857258,20.4863833],[85.7856544,20.4865518]]}},{"type":"Feature","properties":{"id":1258107392,"highway":"residential"},"geometry":{"type":"LineString","coordinates":[[85.7822741,20.4843433],[85.7842596,20.4855168],[85.7845022,20.4856602],[85.7854254,20.4862058],[85.7857258,20.4863833]]}},{"type":"Feature","properties":{"id":1258107393,"highway":"residential"},"geometry":{"type":"LineString","coordinates":[[85.7854254,20.4862058],[85.7856199,20.485885]]}},{"type":"Feature","properties":{"id":1258107394,"highway":"residential"},"geometry":{"type":"LineString","coordinates":[[85.7842596,20.4855168],[85.7845727,20.484981]]}},{"type":"Feature","properties":{"id":1258107395,"highway":"residential"},"geometry":{"type":"LineString","coordinates":[[85.7845022,20.4856602],[85.7848144,20.4852277],[85.7850566,20.4848957]]}},{"type":"Feature","properties":{"id":1258107396,"highway":"residential"},"geometry":{"type":"LineString","coordinates":[[85.7848144,20.4852277],[85.7853104,20.4854284],[85.7860143,20.4857132]]}},{"type":"Feature","properties":{"id":1258107397,"highway":"residential"},"geometry":{"type":"LineString","coordinates":[[85.7853104,20.4854284],[85.7854896,20.48513]]}},{"type":"Feature","properties":{"id":1258107579,"highway":"residential"},"geometry":{"type":"LineString","coordinates":[[85.7879219,20.4853995],[85.7878167,20.4857196],[85.7877623,20.4858375],[85.7876917,20.4859286],[85.7876076,20.4859839],[85.7875676,20.4859927],[85.7870246,20.4861125],[85.786841,20.486153],[85.7863382,20.4862639],[85.7862389,20.4862858],[85.7861155,20.4863562],[85.7860511,20.4864316],[85.7859814,20.4866493]]}},{"type":"Feature","properties":{"id":1258107580,"highway":"residential"},"geometry":{"type":"LineString","coordinates":[[85.7863382,20.4862639],[85.7863486,20.486099]]}},{"type":"Feature","properties":{"id":1258107581,"highway":"residential"},"geometry":{"type":"LineString","coordinates":[[85.786841,20.486153],[85.7868236,20.4857448]]}},{"type":"Feature","properties":{"id":1258107582,"highway":"residential"},"geometry":{"type":"LineString","coordinates":[[85.7870246,20.4861125],[85.7870057,20.4857612]]}},{"type":"Feature","properties":{"id":1258107583,"highway":"residential"},"geometry":{"type":"LineString","coordinates":[[85.7875676,20.4859927],[85.7875643,20.4857004]]}},{"type":"Feature","properties":{"id":1258109610,"highway":"residential"},"geometry":{"type":"LineString","coordinates":[[85.7881647,20.4877256],[85.7882293,20.487502],[85.7882935,20.4872799],[85.7884141,20.4870097],[85.7884437,20.4869433],[85.78855,20.4867462],[85.7885759,20.4866962],[85.7886612,20.4865194]]}},{"type":"Feature","properties":{"id":1258109611,"highway":"residential"},"geometry":{"type":"LineString","coordinates":[[85.7877311,20.4866292],[85.7884437,20.4869433]]}},{"type":"Feature","properties":{"id":1258109612,"highway":"residential"},"geometry":{"type":"LineString","coordinates":[[85.7877794,20.4864268],[85.78855,20.4867462]]}},{"type":"Feature","properties":{"id":1258109613,"highway":"residential"},"geometry":{"type":"LineString","coordinates":[[85.7885759,20.4866962],[85.7891802,20.486848]]}},{"type":"Feature","properties":{"id":1258111022,"highway":"residential"},"geometry":{"type":"LineString","coordinates":[[85.7884141,20.4870097],[85.7886919,20.4871135],[85.7894736,20.4874055],[85.7895273,20.4874055],[85.7897633,20.4874758],[85.7898055,20.487492],[85.7899725,20.4875562],[85.7907094,20.487939],[85.7908284,20.4880108],[85.7908577,20.4880285],[85.7910574,20.4881128],[85.7911693,20.4881631],[85.7916215,20.488334],[85.7923212,20.4887155],[85.7921773,20.4890382]]}},{"type":"Feature","properties":{"id":1258111023,"highway":"residential"},"geometry":{"type":"LineString","coordinates":[[85.7898055,20.487492],[85.7899437,20.4871174]]}},{"type":"Feature","properties":{"id":1258111024,"highway":"residential"},"geometry":{"type":"LineString","coordinates":[[85.7907094,20.487939],[85.7908206,20.4877745],[85.7908738,20.4876818],[85.7909318,20.4875475]]}},{"type":"Feature","properties":{"id":1258111025,"highway":"residential"},"geometry":{"type":"LineString","coordinates":[[85.7910574,20.4881128],[85.7912346,20.487691]]}},{"type":"Feature","properties":{"id":1258111026,"highway":"residential"},"geometry":{"type":"LineString","coordinates":[[85.7923212,20.4887155],[85.7923938,20.4885506]]}},{"type":"Feature","properties":{"id":1258113766,"highway":"residential"},"geometry":{"type":"LineString","coordinates":[[85.7911693,20.4881631],[85.7911527,20.4882094],[85.7910293,20.4885511],[85.7910005,20.488644],[85.7909395,20.4888041],[85.7906431,20.4886868],[85.7904339,20.4885361],[85.7901651,20.4883767],[85.7897472,20.4881289],[85.7895909,20.4880325],[85.7895434,20.4880033],[85.7892805,20.4878776],[85.7890137,20.4878355],[85.7887576,20.4877581],[85.7884879,20.4876077],[85.7882293,20.487502]]}},{"type":"Feature","properties":{"id":1258113767,"highway":"residential"},"geometry":{"type":"LineString","coordinates":[[85.7884879,20.4876077],[85.7886919,20.4871135]]}},{"type":"Feature","properties":{"id":1258113768,"highway":"residential"},"geometry":{"type":"LineString","coordinates":[[85.7895909,20.4880325],[85.7898055,20.487492]]}},{"type":"Feature","properties":{"id":1258113769,"highway":"residential"},"geometry":{"type":"LineString","coordinates":[[85.7908284,20.4880108],[85.7905965,20.4883259]]}},{"type":"Feature","properties":{"id":1258113770,"highway":"residential"},"geometry":{"type":"LineString","coordinates":[[85.7901651,20.4883767],[85.7899602,20.488648]]}},{"type":"Feature","properties":{"id":1258114521,"highway":"residential"},"geometry":{"type":"LineString","coordinates":[[85.7924939,20.4891591],[85.7921773,20.4890382],[85.791912,20.4889536],[85.7917974,20.4889081],[85.791566,20.4888327],[85.7910005,20.488644]]}},{"type":"Feature","properties":{"id":1258114522,"highway":"residential"},"geometry":{"type":"LineString","coordinates":[[85.7927677,20.4884119],[85.7926977,20.4886564],[85.7924939,20.4891591],[85.7924001,20.4894308],[85.7923222,20.4896567],[85.7922203,20.4898635]]}},{"type":"Feature","properties":{"id":1258114523,"highway":"residential"},"geometry":{"type":"LineString","coordinates":[[85.7909395,20.4888041],[85.7924001,20.4894308]]}},{"type":"Feature","properties":{"id":1258178321,"highway":"residential"},"geometry":{"type":"LineString","coordinates":[[85.8001377,20.4854228],[85.800043,20.4854417],[85.7996187,20.4855278],[85.7987298,20.4857082],[85.7984396,20.4857671]]}},{"type":"Feature","properties":{"id":1258179737,"highway":"residential"},"geometry":{"type":"LineString","coordinates":[[85.7980111,20.4843147],[85.7992326,20.4840493]]}},{"type":"Feature","properties":{"id":1258179738,"highway":"residential"},"geometry":{"type":"LineString","coordinates":[[85.7981186,20.4846583],[85.7993223,20.484393]]}},{"type":"Feature","properties":{"id":1258179739,"highway":"residential"},"geometry":{"type":"LineString","coordinates":[[85.7992326,20.4840493],[85.7993223,20.484393],[85.799421,20.4847599],[85.7994855,20.4850103],[85.7995518,20.4852679],[85.7996187,20.4855278]]}},{"type":"Feature","properties":{"id":1258179740,"highway":"residential"},"geometry":{"type":"LineString","coordinates":[[85.7982209,20.4850134],[85.7985374,20.484946],[85.799421,20.4847599]]}},{"type":"Feature","properties":{"id":1258181370,"highway":"residential"},"geometry":{"type":"LineString","coordinates":[[85.799421,20.4847599],[85.7998545,20.4846559]]}},{"type":"Feature","properties":{"id":1258181371,"highway":"residential"},"geometry":{"type":"LineString","coordinates":[[85.7985374,20.484946],[85.7986,20.485194],[85.7986618,20.4854389],[85.7987298,20.4857082]]}},{"type":"Feature","properties":{"id":1258181372,"highway":"residential"},"geometry":{"type":"LineString","coordinates":[[85.7986,20.485194],[85.7994855,20.4850103]]}},{"type":"Feature","properties":{"id":1258181373,"highway":"residential"},"geometry":{"type":"LineString","coordinates":[[85.7986618,20.4854389],[85.7995518,20.4852679]]}},{"type":"Feature","properties":{"id":1258183644,"highway":"residential"},"geometry":{"type":"LineString","coordinates":[[85.7996187,20.4855278],[85.7997007,20.4858434],[85.7998782,20.4865262],[85.7999764,20.4869285],[85.799983,20.4870255],[85.8002901,20.4873018]]}},{"type":"Feature","properties":{"id":1258183645,"highway":"residential"},"geometry":{"type":"LineString","coordinates":[[85.7997007,20.4858434],[85.7994861,20.4858857],[85.7985523,20.4860698]]}},{"type":"Feature","properties":{"id":1258183646,"highway":"residential"},"geometry":{"type":"LineString","coordinates":[[85.798679,20.4862901],[85.7995577,20.4861323],[85.7994861,20.4858857]]}},{"type":"Feature","properties":{"id":1355589061,"highway":"residential"},"geometry":{"type":"LineString","coordinates":[[85.7572805,20.4788648],[85.7586827,20.4789376],[85.7587397,20.478965],[85.7587862,20.479014],[85.7588033,20.4790886],[85.7587831,20.4791785],[85.7586497,20.4794378],[85.7583745,20.4798106],[85.758339,20.479845],[85.7583179,20.4798869],[85.758299,20.4799241],[85.7582911,20.479945],[85.7582745,20.4799596],[85.758259,20.47996],[85.7582413,20.479956],[85.7582104,20.4799487],[85.758194,20.4799521],[85.7581846,20.4799656],[85.758172,20.4800408],[85.75817,20.4800596],[85.7581566,20.4800762],[85.7581355,20.480081],[85.7581006,20.4800781],[85.7580813,20.48008],[85.758068,20.4800905],[85.7580606,20.4801075],[85.7580565,20.4801784],[85.7580543,20.4802131],[85.7580457,20.480254],[85.7580245,20.4803015],[85.7579092,20.4806039],[85.7578491,20.4808197]]}}]}