{"type":"FeatureCollection","features":[{"type":"Feature","properties":{"id":461349950,"highway":"primary"},"geometry":{"type":"LineString","coordinates":[[85.8228884,20.5097752],[85.8221909,20.5073533],[85.8214906,20.5048372],[85.8165416,20.4872484]]}},{"type":"Feature","properties":{"id":1258473927,"highway":"unclassified"},"geometry":{"type":"LineString","coordinates":[[85.8953842,20.504663],[85.8954833,20.5045785],[85.8955269,20.5045403],[85.895618,20.5044722],[85.895655,20.5044369],[85.8956843,20.5043948],[85.8957024,20.5043413],[85.8957326,20.5038549],[85.8957784,20.5030867],[85.8958069,20.5028163],[85.895809,20.502757],[85.895796,20.502725],[85.8957903,20.5026926],[85.8958351,20.5022641],[85.8958924,20.5017753],[85.8959479,20.5012332],[85.8959554,20.5011412],[85.895997,20.500584],[85.8960122,20.5004971],[85.8960402,20.5003917],[85.896099,20.5002254],[85.8962618,20.4999212],[85.8963672,20.4997656],[85.8965366,20.4995767],[85.8967452,20.4993628],[85.8971251,20.4989956],[85.8973805,20.4987762],[85.8975612,20.4986461],[85.8977348,20.4985458],[85.897891,20.4984713],[85.8981047,20.498379],[85.898201,20.4983361],[85.8982916,20.498292],[85.8983544,20.4982427],[85.8984003,20.4981754],[85.8984167,20.4981521]]}}]}