{"type":"FeatureCollection","features":[{"type":"Feature","properties":{"id":459795493,"highway":"trunk"},"geometry":{"type":"LineString","coordinates":[[85.9305815,20.5027187],[85.9301472,20.5020801],[85.9299464,20.501857],[85.9297502,20.5017039],[85.9293124,20.5014357],[85.9286574,20.501012],[85.9272292,20.500117],[85.9260786,20.4993432],[85.9248662,20.4985241],[85.9234983,20.4976121],[85.9224227,20.4968986],[85.9215993,20.4963735],[85.9213261,20.4961786]]}},{"type":"Feature","properties":{"id":489208005,"highway":"secondary"},"geometry":{"type":"LineString","coordinates":[[85.9078744,20.4955268],[85.9073684,20.4959285],[85.9073214,20.4963247],[85.9077505,20.4973158],[85.9082333,20.4984312],[85.9084307,20.4988871],[85.9085995,20.4996092],[85.9086585,20.4998618],[85.9088454,20.5006616],[85.9089389,20.5010616],[85.9090383,20.5014872],[85.9090907,20.5017114],[85.9091339,20.5018962],[85.9091943,20.5033863],[85.9092008,20.5035458],[85.9092071,20.5037018],[85.9096937,20.5049534],[85.9097348,20.5050114],[85.9107604,20.5064603],[85.9110483,20.5068539],[85.9112712,20.5071587],[85.9122611,20.5085119],[85.9128016,20.5088792],[85.9144146,20.5099753],[85.9145818,20.5101067],[85.9150477,20.5103653],[85.9151491,20.5104161],[85.9152421,20.5104512],[85.9159649,20.5105722],[85.916219,20.5105777],[85.9164549,20.5106459],[85.9165392,20.5106823],[85.916609,20.5107465],[85.9166479,20.510806],[85.916689,20.5108796],[85.9167582,20.510918],[85.9169425,20.5109068],[85.9191798,20.5104665],[85.9198732,20.5105151],[85.9200544,20.5105517],[85.9201576,20.5105726],[85.9201956,20.5105803],[85.9204959,20.5108011],[85.9212744,20.5118768],[85.9223838,20.5125963]]}},{"type":"Feature","properties":{"id":522176330,"highway":"secondary"},"geometry":{"type":"LineString","coordinates":[[85.9299464,20.501857],[85.9299422,20.5017493],[85.9297947,20.5015584],[85.9294997,20.5012745],[85.9290344,20.5008858],[85.9286656,20.500676],[85.9284872,20.5005717],[85.9272909,20.4999612],[85.925746,20.4989575],[85.9255467,20.4988369],[85.9251612,20.4985256],[85.9244344,20.4979387],[85.9240504,20.4977349]]}},{"type":"Feature","properties":{"id":561681177,"highway":"tertiary"},"geometry":{"type":"LineString","coordinates":[[85.9408139,20.4954722],[85.9405711,20.4957605],[85.9403267,20.4960206],[85.9400889,20.4962843],[85.9398228,20.4965875],[85.9396049,20.4968383],[85.9394076,20.4970297],[85.9391737,20.4972841],[85.938923,20.4975523],[85.9386725,20.4978094],[85.9384301,20.4980694],[85.9381807,20.4983256],[85.9379956,20.4985241],[85.9376818,20.4988206],[85.9373626,20.499107],[85.9367913,20.499612],[85.9363836,20.499916],[85.935941,20.5002401],[85.9353322,20.5006822],[85.9351364,20.5008028],[85.9347072,20.5010528],[85.9346509,20.5010863],[85.9345382,20.5011533],[85.9340426,20.5014129],[85.933586,20.5016698],[85.9332427,20.5018505],[85.9330162,20.501979],[85.9328485,20.5020741],[85.9324477,20.5022796],[85.9322457,20.5023858],[85.9321852,20.5024176],[85.9318208,20.5026074],[85.9315153,20.5027736],[85.9312069,20.5029559],[85.9310326,20.5030589],[85.9311172,20.5032632],[85.9311895,20.5034998],[85.9312644,20.5038249]]}},{"type":"Feature","properties":{"id":564020840,"highway":"residential"},"geometry":{"type":"LineString","coordinates":[[85.9355597,20.4999839],[85.934549,20.5006169],[85.9338677,20.5009837],[85.9330362,20.501451],[85.9327609,20.5016022],[85.9323227,20.5018429],[85.9316266,20.5022387],[85.9309167,20.502644],[85.9300911,20.5031034]]}},{"type":"Feature","properties":{"id":842469997,"highway":"trunk"},"geometry":{"type":"LineString","coordinates":[[85.9237426,20.4979056],[85.9244298,20.4983695],[85.9266607,20.4998679],[85.9279782,20.5007586],[85.9286205,20.5011693],[85.9289212,20.5013727]]}},{"type":"Feature","properties":{"id":1214281861,"highway":"residential"},"geometry":{"type":"LineString","coordinates":[[85.9249788,20.4989008],[85.9248983,20.4990733],[85.9249198,20.499199],[85.9252417,20.4998673],[85.9252567,20.4999847],[85.9252647,20.5001556],[85.9252218,20.5002686],[85.9251521,20.5003415],[85.9250019,20.5004043],[85.924849,20.5004947],[85.9247068,20.5006706]]}},{"type":"Feature","properties":{"id":1214284982,"highway":"residential"},"geometry":{"type":"LineString","coordinates":[[85.9692085,20.4990534],[85.9696752,20.5000632],[85.9700722,20.5005507],[85.9703028,20.5009275],[85.970453,20.5012793],[85.9705871,20.5017768],[85.9706462,20.501827]]}},{"type":"Feature","properties":{"id":1214284983,"highway":"residential"},"geometry":{"type":"LineString","coordinates":[[85.9706462,20.501827],[85.9714079,20.5013748],[85.9719014,20.5010481],[85.9720141,20.500822],[85.9722448,20.5004401],[85.972116,20.5000381],[85.97188,20.4997316],[85.9717566,20.4995406],[85.9715474,20.4984766]]}},{"type":"Feature","properties":{"id":1216204196,"highway":"residential"},"geometry":{"type":"LineString","coordinates":[[85.9406,20.4997048],[85.9407126,20.5002142],[85.9409058,20.5009379],[85.9410667,20.5017018]]}},{"type":"Feature","properties":{"id":1258191718,"highway":"residential"},"geometry":{"type":"LineString","coordinates":[[85.9163967,20.5018873],[85.9161967,20.5016364],[85.9151347,20.4998724]]}},{"type":"Feature","properties":{"id":1258191734,"highway":"residential"},"geometry":{"type":"LineString","coordinates":[[85.9098558,20.5002561],[85.9098043,20.5000815],[85.9097427,20.5000328],[85.9096751,20.499913]]}},{"type":"Feature","properties":{"id":1258191735,"highway":"residential"},"geometry":{"type":"LineString","coordinates":[[85.9107225,20.5001521],[85.9107074,20.5000576],[85.9107098,20.500035],[85.9107349,20.5000222],[85.9107792,20.5000156],[85.9107854,20.4999906],[85.9107376,20.4998494]]}},{"type":"Feature","properties":{"id":1258482416,"highway":"residential"},"geometry":{"type":"LineString","coordinates":[[85.8999431,20.4968774],[85.8994282,20.4968422],[85.898763,20.496998],[85.8984357,20.4970683],[85.898366,20.4970985],[85.8983606,20.4972191],[85.898602,20.4977065],[85.8991921,20.4985608],[85.8994442,20.499008],[85.8995033,20.4990784],[85.8996105,20.4990884],[85.9003508,20.4989477],[85.9003777,20.4989829],[85.9004474,20.4990834],[85.9004689,20.499415],[85.9005708,20.4997819],[85.900662,20.5002341],[85.9007424,20.5005055],[85.9008873,20.5008572],[85.9013003,20.5015708],[85.9014237,20.5019929],[85.9015847,20.5027868],[85.9014076,20.5031587],[85.9013915,20.5032441],[85.9015525,20.504018],[85.9015739,20.5046109],[85.90159,20.5046662],[85.9015849,20.5054049],[85.9015847,20.5056511],[85.9014777,20.506375],[85.9014184,20.5066511],[85.9012682,20.5070029],[85.9012467,20.5071034],[85.9012413,20.5073647],[85.9010053,20.5079777]]}}]}