{"type":"FeatureCollection","features":[{"type":"Feature","properties":{"id":842339177,"highway":"unclassified"},"geometry":{"type":"LineString","coordinates":[[85.5571629,20.5115161],[85.557099,20.5113484],[85.5570906,20.5111115],[85.557069,20.5107448],[85.5570311,20.5104514],[85.5568211,20.509942],[85.5577596,20.5095031],[85.5580558,20.5095147],[85.5587889,20.5095979],[85.5589073,20.5095632],[85.5590011,20.5094245],[85.5589962,20.5092003],[85.5590159,20.5090986],[85.5590332,20.5090269],[85.5590702,20.5089529],[85.5593121,20.5087657],[85.5594701,20.5085969],[85.559549,20.5084027],[85.5595935,20.5082525],[85.5596379,20.5080375],[85.5597638,20.5077647],[85.5598576,20.507515],[85.5599834,20.507122],[85.5600131,20.5067429],[85.5600032,20.5064262],[85.559939,20.5061627],[85.5596774,20.5055732],[85.5595688,20.5052264],[85.5594972,20.5049513],[85.5593861,20.5043965],[85.5593294,20.503911],[85.5592948,20.5037492],[85.5592603,20.5036244],[85.559164,20.5035157],[85.5590776,20.5034718],[85.5589246,20.5034071],[85.5588135,20.5033955],[85.5586729,20.5033839],[85.5585667,20.5033562],[85.558468,20.5032868],[85.5583668,20.5031597],[85.5581397,20.5028568],[85.5579225,20.5025586],[85.5577226,20.502235],[85.5575548,20.5019206],[85.5574289,20.5016547],[85.5573944,20.5014836],[85.5574215,20.5013264],[85.5574832,20.5010444],[85.5576239,20.500552],[85.5577152,20.5002861],[85.5577522,20.5001867],[85.5577251,20.4999093],[85.5577276,20.4997336],[85.5577128,20.4994469],[85.5576116,20.4991903],[85.5575079,20.4989591],[85.5573232,20.4986417],[85.557085,20.4983775],[85.5568885,20.4981582],[85.5568823,20.497984],[85.5567652,20.4977726],[85.5567172,20.4975846],[85.5570954,20.4974261],[85.5574821,20.4972636],[85.557877,20.4971501],[85.5580463,20.4970894],[85.5581571,20.4970424],[85.5582135,20.4970111],[85.5582637,20.4969484],[85.5582908,20.496874],[85.5583201,20.4967781],[85.5583682,20.4964649],[85.5584225,20.4962006],[85.5584831,20.4959011],[85.5585563,20.495586],[85.5586587,20.4952179],[85.5586921,20.4950789],[85.5586712,20.4949341],[85.5585667,20.4946815],[85.5584329,20.494292],[85.5583953,20.4940218],[85.55841,20.4934169],[85.5584288,20.492767],[85.5584329,20.4919565],[85.5583013,20.4911436],[85.5584085,20.4906606],[85.5585826,20.489751],[85.5586228,20.4884399],[85.5586228,20.4879946],[85.559058,20.4871352],[85.5595536,20.4859433],[85.5598754,20.4850878]]}}]}