{"type":"FeatureCollection","features":[{"type":"Feature","properties":{"id":594077123,"highway":"tertiary"},"geometry":{"type":"LineString","coordinates":[[85.5360811,20.4857904],[85.5352144,20.4859023],[85.5344954,20.4863166],[85.5337045,20.486776],[85.5327516,20.4872316],[85.5320793,20.4876613],[85.5318144,20.4880021],[85.5311342,20.4889429],[85.5309484,20.4891318],[85.5307704,20.4891652],[85.5301496,20.4892244],[85.5289831,20.4892837],[85.5282951,20.4893318],[85.5276307,20.4894504],[85.5270811,20.4896393],[85.5262823,20.4900504],[85.5256417,20.4904764],[85.5249537,20.4909654],[85.5243605,20.4911654],[85.5239691,20.4912876],[85.5234748,20.4913543],[85.5229409,20.4914469],[85.5225257,20.4915876],[85.5220591,20.4917543],[85.5211457,20.4922247],[85.5203548,20.4926692],[85.5196154,20.493173],[85.5189036,20.493636],[85.5178794,20.4943138],[85.5173496,20.4947768],[85.5167446,20.495288],[85.5160723,20.4958547],[85.5156927,20.4960843],[85.5147041,20.4964844],[85.5139686,20.4966585],[85.5132608,20.4965473],[85.5123157,20.4964436],[85.5115763,20.4963695],[85.511343,20.4963992],[85.5105719,20.4966325],[85.5097731,20.4970103],[85.5092512,20.4972066],[85.5084205,20.497479],[85.5065707,20.4983392],[85.5055155,20.4985772],[85.5050465,20.4986809],[85.5047281,20.498831],[85.5045066,20.4990496],[85.5041943,20.4994644],[85.5030277,20.49972],[85.502573,20.4997866],[85.5018929,20.4998681],[85.5014776,20.4997533],[85.5003625,20.4993199],[85.5001885,20.4993348],[85.4995756,20.4995903],[85.4989943,20.4998014],[85.4988559,20.4999015],[85.4988085,20.5000496],[85.4988045,20.5005607],[85.4987373,20.500757],[85.498595,20.5009941],[85.4982193,20.5013978],[85.4977211,20.5019349],[85.4973889,20.5024941],[85.4971872,20.5028127],[85.4968867,20.5030645],[85.4966257,20.5032201],[85.4960089,20.5033386],[85.4955739,20.5035349],[85.495048,20.5037386],[85.4941741,20.5041683],[85.4941029,20.504272],[85.4940792,20.5043979],[85.4941701,20.5049794],[85.4942017,20.5055238],[85.4943995,20.506409],[85.4943283,20.5067831],[85.4940515,20.5072609],[85.4939447,20.5076202],[85.4939052,20.5081868],[85.4936956,20.5090868],[85.4935453,20.5098979],[85.4933674,20.5103794],[85.493225,20.5109386],[85.4929126,20.5110868],[85.492794,20.5112497],[85.4927189,20.5117942],[85.4925528,20.5119238],[85.4919913,20.5121719],[85.4914021,20.5122941],[85.4907536,20.5124941],[85.4904847,20.5128201],[85.4901565,20.51322],[85.4902949,20.5134534],[85.4902237,20.5136978],[85.4899746,20.5138719],[85.4896503,20.5139607],[85.4893024,20.514057],[85.4891159,20.5141546],[85.4888549,20.5142583],[85.4880561,20.5144064],[85.4877042,20.5143249],[85.487293,20.5141916],[85.4868145,20.5140509],[85.4863597,20.5137287],[85.4862055,20.5137768],[85.4860909,20.5140546],[85.4859841,20.5141323],[85.4853554,20.5142175],[85.4848097,20.5143583],[85.484608,20.5143509],[85.4843549,20.5142842],[85.4841651,20.5143175],[85.484003,20.5144583],[85.4838606,20.5147768],[85.4835838,20.5150471],[85.4834257,20.5151545],[85.4832714,20.5153175],[85.4832042,20.5153286],[85.482876,20.5152915],[85.4827732,20.515336],[85.4826743,20.5154767],[85.4824054,20.515636],[85.4819823,20.5160211],[85.4819072,20.5160915],[85.4811203,20.5162174],[85.4809598,20.5159903],[85.4804418,20.5160754],[85.4807186,20.5167939],[85.4810666,20.5177457],[85.4813196,20.5184901],[85.4815964,20.5194493],[85.4816716,20.5196752],[85.4819444,20.5203307],[85.4822489,20.5212047],[85.4825217,20.5220379],[85.4827748,20.5228119],[85.4830674,20.5238415],[85.4833324,20.5248376],[85.4835815,20.525719],[85.4837594,20.5263264],[85.4838069,20.526867],[85.4837436,20.5279225],[85.4837357,20.5280891],[85.4837318,20.5286409],[85.4837476,20.5293556],[85.4836922,20.5298999],[85.483708,20.5301925],[85.4836566,20.5304258],[85.4834954,20.5308017],[85.4832691,20.5313294],[85.4828144,20.5321922],[85.4823992,20.5329587],[85.4822987,20.5332065],[85.4822805,20.5332513],[85.481896,20.5339514],[85.4814648,20.5347651],[85.4810128,20.5356085],[85.4809894,20.5357778],[85.4810363,20.5362419],[85.4810597,20.536822],[85.481053,20.5374992],[85.4809023,20.5383489],[85.4807483,20.5390826],[85.4805675,20.5398257],[85.4803934,20.5404215],[85.4802797,20.5406546],[85.4801121,20.5409984],[85.479794,20.5417258],[85.4796735,20.5419641],[85.4795731,20.5424156],[85.4795965,20.5431148],[85.4796199,20.5434941],[85.4797405,20.5438327],[85.4797974,20.5441682],[85.479717,20.5447138],[85.4795396,20.545206],[85.4792918,20.5455854],[85.4788599,20.5460808],[85.4781567,20.5468332],[85.4775473,20.5475481],[85.4769145,20.5482222],[85.4763989,20.5488335],[85.4761344,20.5491251],[85.4757292,20.5495923],[85.4751835,20.5502224],[85.475002,20.5504833],[85.4749766,20.5505805],[85.475016,20.5506676],[85.4754547,20.5510846],[85.4762649,20.5517618],[85.4767103,20.5521882],[85.4773833,20.5529908],[85.4777415,20.5535207],[85.4779123,20.5536868],[85.4784179,20.5541163],[85.4788297,20.5544267],[85.4793554,20.5548468],[85.4799782,20.555314],[85.4806545,20.5558093],[85.4814347,20.5564583],[85.4826602,20.5574051],[85.4834671,20.5580352],[85.4842439,20.5586309],[85.4851814,20.5593174],[85.4858377,20.5598379],[85.4868321,20.5605997],[85.4876926,20.561305],[85.488667,20.5620418],[85.4890186,20.5623552],[85.4894304,20.5629666],[85.4900331,20.5636876],[85.4904952,20.5638569],[85.4908579,20.5639601]]}}]}