{"type":"FeatureCollection","features":[{"type":"Feature","properties":{"id":561678682,"highway":"tertiary"},"geometry":{"type":"LineString","coordinates":[[85.6718975,20.4958769],[85.6718749,20.4960042],[85.6716496,20.496361],[85.6714135,20.4968383],[85.67113,20.4971833],[85.6704233,20.4983683],[85.669595,20.4997167],[85.6688783,20.5009417],[85.668125,20.50219],[85.6673933,20.503395],[85.6668,20.50438],[85.6662733,20.50455],[85.665939,20.5046167],[85.6654717,20.50471],[85.6642517,20.50489],[85.663595,20.504925],[85.6634436,20.5050067],[85.66299,20.5052517],[85.6622417,20.5057417],[85.6619096,20.5060448],[85.661625,20.5063419],[85.6610152,20.506993],[85.6603525,20.5077431],[85.659946,20.5082534],[85.659202,20.5091216],[85.6584661,20.5100392],[85.6578197,20.5108731],[85.657275,20.5115623],[85.6565838,20.5124267],[85.6559252,20.5132301],[85.6550308,20.5143381],[85.6543356,20.5151339],[85.654112,20.5153243],[85.6534941,20.5157089],[85.6527379,20.516181],[85.6517581,20.5168055],[85.6510263,20.517251],[85.6503677,20.517666],[85.6500831,20.5178564],[85.6496725,20.5182067],[85.6487659,20.5189872],[85.6480057,20.5196117],[85.6473064,20.5202665],[85.6465543,20.5209481],[85.6458916,20.5215154],[85.6454363,20.5219152],[85.6448503,20.5223919]]}},{"type":"Feature","properties":{"id":749343651,"highway":"unclassified"},"geometry":{"type":"LineString","coordinates":[[85.6622417,20.5057417],[85.661635,20.50476],[85.6609733,20.503935],[85.660555,20.5028783],[85.65992,20.5021133],[85.659785,20.5007117],[85.659645,20.499365],[85.6596233,20.4986283],[85.6594933,20.497525],[85.659325,20.496575],[85.6593329,20.4963457]]}}]}