{"type":"FeatureCollection","features":[{"type":"Feature","properties":{"id":1303856242,"highway":"unclassified"},"geometry":{"type":"LineString","coordinates":[[85.7628449,20.4985067],[85.7624214,20.4989317],[85.7622043,20.4991575],[85.762093,20.4992474],[85.7616436,20.4995793],[85.7614535,20.4996764],[85.7612936,20.499721],[85.760909,20.4997695],[85.7601528,20.4998829],[85.7592065,20.5000002],[85.7590293,20.5000529],[85.7588608,20.5001217],[85.758299,20.5005224],[85.7579058,20.5008421],[85.7576206,20.5010283],[85.7571928,20.5012509],[85.7569422,20.5014128],[85.7564885,20.5017973],[85.7560607,20.5021818],[85.7554944,20.502698]]}}]}